Pais,ID_INE,ID_EUROSTAT_n,ID_EUROSTAT_a,ID_UNSD,ID_ISO_a2,ID_ISO_a3,CONTINENT,REGIO_MON,CONTINENT_ANG,REGIO_MON_ANG,UE,POP_EST,pais_ANG,ADM0_DIF,MD_DATA_CANVI,FIPS,ISO3,UN,NAME,AREA,POP2005,REGION,SUBREGION,LON,LAT
Albània,101,70,AL,8,AL,ALB,Europa,Europa meridional,Europe,Southern Europe,NA,3639453,Albania,0,2016,AL,ALB,8,Albania,2740,3153731,150,39,20.068,41.143
Àustria,102,38,AT,40,AT,AUT,Europa,Europa occidental,Europe,Western Europe,1,8210281,Austria,0,2016,AU,AUT,40,Austria,8245,8291979,150,155,14.912,47.683
Bèlgica,103,17,BE,56,BE,BEL,Europa,Europa occidental,Europe,Western Europe,1,10414336,Belgium,0,2016,BE,BEL,56,Belgium,0,10398049,150,155,4.664,50.643
Bulgària,104,68,BG,100,BG,BGR,Europa,Europa oriental,Europe,Eastern Europe,1,7204687,Bulgaria,0,2016,BU,BGR,100,Bulgaria,11063,7744591,150,151,25.231,42.761
Xipre,106,600,CY,196,CY,CYP,Àsia,Àsia occidental,Asia,Western Asia,1,531640,Cyprus,0,2016,CY,CYP,196,Cyprus,924,836321,142,145,33.219,35.043
Dinamarca,107,8,DK,208,DK,DNK,Europa,Europa septentrional,Europe,Northern Europe,1,5500510,Denmark,0,2016,DA,DNK,208,Denmark,4243,5416945,150,154,9.264,56.058
Espanya,108,11,ES,724,ES,ESP,Europa,Europa meridional,Europe,Southern Europe,1,40525002,Spain,0,2016,SP,ESP,724,Spain,49904,43397491,150,39,-3.649,40.227
Finlàndia,109,32,FI,246,FI,FIN,Europa,Europa septentrional,Europe,Northern Europe,1,5250275,Finland,0,2016,FI,FIN,246,Finland,30459,5246004,150,154,26.272,64.504
França,110,1,FR,250,FR,FRA,Europa,Europa occidental,Europe,Western Europe,1,64057792,France,0,2016,FR,FRA,250,France,55010,60990544,150,155,2.55,46.565
Grècia,111,9,GR,300,GR,GRC,Europa,Europa meridional,Europe,Southern Europe,1,10737428,Greece,0,2016,GR,GRC,300,Greece,12890,11099737,150,39,21.766,39.666
Hongria,112,64,HU,348,HU,HUN,Europa,Europa oriental,Europe,Eastern Europe,1,9905596,Hungary,0,2016,HU,HUN,348,Hungary,9210,10086387,150,151,19.134,47.07
Irlanda,113,7,IE,372,IE,IRL,Europa,Europa septentrional,Europe,Northern Europe,1,4203200,Ireland,0,2016,EI,IRL,372,Ireland,6889,4143294,150,154,-8.152,53.177
Islàndia,114,24,IS,352,IS,ISL,Europa,Europa septentrional,Europe,Northern Europe,NA,306694,Iceland,0,2016,IC,ISL,352,Iceland,10025,295732,150,154,-18.48,64.764
Itàlia,115,5,IT,380,IT,ITA,Europa,Europa meridional,Europe,Southern Europe,1,58126212,Italy,0,2016,IT,ITA,380,Italy,29411,5864636,150,39,10.44,44.931
Liechtenstein,116,37,LI,438,LI,LIE,Europa,Europa occidental,Europe,Western Europe,NA,34761,Liechtenstein,0,2016,LS,LIE,438,Liechtenstein,16,34598,150,155,9.555,47.153
Luxemburg,117,18,LU,442,LU,LUX,Europa,Europa occidental,Europe,Western Europe,1,491775,Luxembourg,0,2016,LU,LUX,442,Luxembourg,0,456613,150,155,6.088,49.771
Malta,118,46,MT,470,MT,MLT,Europa,Europa meridional,Europe,Southern Europe,1,405165,Malta,0,2016,MT,MLT,470,Malta,32,402617,150,39,14.442,35.89
Mònaco,119,1,FR,492,MC,MCO,Europa,Europa occidental,Europe,Western Europe,NA,32965,Monaco,0,2016,MN,MCO,492,Monaco,0,325,150,155,7.412,43.75
Noruega,120,28,NO,578,NO,NOR,Europa,Europa septentrional,Europe,Northern Europe,NA,4676305,Norway,0,2016,NO,NOR,578,Norway,30625,4638836,150,154,8.74,61.152
Països Baixos,121,3,NL,528,NL,NLD,Europa,Europa occidental,Europe,Western Europe,1,16715999,Netherlands,0,2016,NL,NLD,528,Netherlands,3388,1632769,150,155,5.389,52.077
Polònia,122,60,PL,616,PL,POL,Europa,Europa oriental,Europe,Eastern Europe,1,38482919,Poland,0,2016,PL,POL,616,Poland,30629,38195558,150,151,19.401,52.125
Portugal,123,10,PT,620,PT,PRT,Europa,Europa meridional,Europe,Southern Europe,1,10707924,Portugal,0,2016,PO,PRT,620,Portugal,9150,10528226,150,39,-8.058,40.309
Andorra,124,43,AD,20,AD,AND,Europa,Europa meridional,Europe,Southern Europe,NA,83888,Andorra,0,2016,AN,AND,20,Andorra,0,73483,150,39,1.576,42.549
Regne Unit,125,6,GB,826,GB,GBR,Europa,Europa septentrional,Europe,Northern Europe,1,61113205,United Kingdom,0,2016,UK,GBR,826,United Kingdom,24193,60244834,150,154,-2.9,54.16
Alemanya,126,4,DE,276,DE,DEU,Europa,Europa occidental,Europe,Western Europe,1,82329758,Germany,0,2016,GM,DEU,276,Germany,34895,82652369,150,155,9.851,51.11
Romania,128,66,RO,642,RO,ROU,Europa,Europa oriental,Europe,Eastern Europe,1,22215421,Romania,0,2016,RO,ROU,642,Romania,22987,21627557,150,151,24.969,45.844
San Marino,129,47,SM,674,SM,SMR,Europa,Europa meridional,Europe,Southern Europe,NA,30324,San Marino,0,2016,SM,SMR,674,San Marino,0,30214,150,39,12.46,43.942
Santa Seu,130,45,VA,336,VA,VAT,Europa,Europa meridional,Europe,Southern Europe,NA,826,Holy See (Vatican City State),0,2016,VT,VAT,336,Holy See (Vatican City),0,783,150,39,12.451,41.904
Suècia,131,30,SE,752,SE,SWE,Europa,Europa septentrional,Europe,Northern Europe,1,9059651,Sweden,0,2016,SW,SWE,752,Sweden,41033,9038049,150,154,15.27,62.011
Suïssa,132,39,CH,756,CH,CHE,Europa,Europa occidental,Europe,Western Europe,NA,7604467,Switzerland,0,2016,SZ,CHE,756,Switzerland,4000,7424389,150,155,7.908,46.861
Ucraïna,135,72,UA,804,UA,UKR,Europa,Europa oriental,Europe,Eastern Europe,NA,45700395,Ukraine,0,2016,UP,UKR,804,Ukraine,57935,46917544,150,151,31.388,49.016
Letònia,136,54,LV,428,LV,LVA,Europa,Europa septentrional,Europe,Northern Europe,1,2231503,Latvia,0,2016,LG,LVA,428,Latvia,6205,2301793,150,154,25.641,56.858
Moldàvia,137,74,MD,498,MD,MDA,Europa,Europa oriental,Europe,Eastern Europe,NA,4320748,"Moldova, Republic of",0,2016,MD,MDA,498,Republic of Moldova,3288,3876661,150,151,28.599,47.193
Belarús,138,73,BY,112,BY,BLR,Europa,Europa oriental,Europe,Eastern Europe,NA,9648533,Belarus,0,2016,BO,BLR,112,Belarus,20748,9795287,150,151,28.047,53.54
Geòrgia,139,76,GE,268,GE,GEO,Àsia,Àsia occidental,Asia,Western Asia,NA,4615807,Georgia,0,2016,GG,GEO,268,Georgia,6949,4473409,142,145,43.518,42.176
Estònia,141,53,EE,233,EE,EST,Europa,Europa septentrional,Europe,Northern Europe,1,1299371,Estonia,0,2016,EN,EST,233,Estonia,4239,1344312,150,154,25.793,58.674
Lituània,142,55,LT,440,LT,LTU,Europa,Europa septentrional,Europe,Northern Europe,1,3555179,Lithuania,0,2016,LH,LTU,440,Lithuania,6268,3425077,150,154,23.897,55.336
Txèquia,143,61,CZ,203,CZ,CZE,Europa,Europa oriental,Europe,Eastern Europe,1,10211904,Czech Republic,0,2016,EZ,CZE,203,Czech Republic,7727,10191762,150,151,15.338,49.743
Eslovàquia,144,63,SK,703,SK,SVK,Europa,Europa oriental,Europe,Eastern Europe,1,5463046,Slovakia,0,2016,LO,SVK,703,Slovakia,4808,5386995,150,151,19.491,48.707
Bòsnia i Hercegovina,145,93,BA,70,BA,BIH,Europa,Europa meridional,Europe,Southern Europe,NA,4613414,Bosnia and Herzegovina,0,2016,BK,BIH,70,Bosnia and Herzegovina,5120,3915238,150,39,17.786,44.169
Croàcia,146,92,HR,191,HR,HRV,Europa,Europa meridional,Europe,Southern Europe,1,4489409,Croatia,0,2016,HR,HRV,191,Croatia,5592,4455149,150,39,16.693,45.723
Eslovènia,147,91,SI,705,SI,SVN,Europa,Europa meridional,Europe,Southern Europe,1,2005692,Slovenia,0,2016,SI,SVN,705,Slovenia,2014,1999425,150,39,14.827,46.124
Armènia,148,77,AM,51,AM,ARM,Àsia,Àsia occidental,Asia,Western Asia,NA,2967004,Armenia,0,2016,AM,ARM,51,Armenia,2820,3017661,142,145,44.563,40.534
Rússia,154,75,RU,643,RU,RUS,Europa,Europa oriental,Europe,Eastern Europe,NA,140041247,Russian Federation,0,2016,RS,RUS,643,Russia,1638094,143953092,150,151,96.689,61.988
Macedònia,156,96,MK,807,MK,MKD,Europa,Europa meridional,Europe,Southern Europe,NA,2066718,"Macedonia, the former Yugoslav Republic of",0,2016,MK,MKD,807,The former Yugoslav Republic of Macedonia,2543,2033655,150,39,21.698,41.6
Sèrbia,157,98,XS,688,RS,SRB,Europa,Europa meridional,Europe,Southern Europe,NA,7379339,Serbia,0,2016,RB,SRB,688,Serbia,0,9863026,150,39,20.806,44.032
Montenegro,158,97,ME,499,ME,MNE,Europa,Europa meridional,Europe,Southern Europe,NA,672180,Montenegro,0,2016,MJ,MNE,499,Montenegro,0,607969,150,39,19.254,42.792
Guernsey,170,6,GB,831,GG,GGY,Europa,Europa septentrional,Europe,Northern Europe,NA,65870,Guernsey,1,2016,GK,GGY,831,Guernsey,0,0,150,154,-2.576,49.459
Svalbard i Jan Mayen,171,28,NO,744,SJ,SJM,Europa,Europa septentrional,Europe,Northern Europe,NA,NA,Svalbard and Jan Mayen,1,2016,SV,SJM,744,Svalbard,0,0,150,154,18.374,78.83
Fèroe,172,41,FO,234,FO,FRO,Europa,Europa septentrional,Europe,Northern Europe,NA,48856,Faroe Islands,1,2016,FO,FRO,234,Faroe Islands,0,48205,150,154,-6.864,62.05
Illa de Man,173,6,GB,833,IM,IMN,Europa,Europa septentrional,Europe,Northern Europe,NA,76512,Isle of Man,1,2016,IM,IMN,833,Isle of Man,0,78357,150,154,-4.527,54.229
Gibraltar,174,44,GI,292,GI,GIB,Europa,Europa meridional,Europe,Southern Europe,1,NA,Gibraltar,1,2016,GI,GIB,292,Gibraltar,0,291,150,39,-5.345,36.138
Jersey,176,6,GB,832,JE,JEY,Europa,Europa septentrional,Europe,Northern Europe,NA,91626,Jersey,1,2016,JE,JEY,832,Jersey,0,0,150,154,-2.129,49.219
Aland,177,32,FI,248,AX,ALA,Europa,Europa septentrional,Europe,Northern Europe,1,27153,Aland Islands,1,2016,NA,ALA,248,Aaland Islands,0,0,150,154,19.952,60.198
Burkina Faso,201,236,BF,854,BF,BFA,Àfrica,Àfrica occidental,Africa,Western Africa,NA,15746232,Burkina Faso,0,2016,UV,BFA,854,Burkina Faso,27360,13933363,2,11,-1.74,12.278
Angola,202,330,AO,24,AO,AGO,Àfrica,Àfrica central,Africa,Middle Africa,NA,12799293,Angola,0,2016,AO,AGO,24,Angola,124670,16095214,2,17,17.544,-12.296
Algèria,203,208,DZ,12,DZ,DZA,Àfrica,Àfrica septentrional,Africa,Northern Africa,NA,34178188,Algeria,0,2016,AG,DZA,12,Algeria,238174,32854159,2,15,2.632,28.163
Benín,204,284,BJ,204,BJ,BEN,Àfrica,Àfrica occidental,Africa,Western Africa,NA,8791832,Benin,0,2016,BN,BEN,204,Benin,11062,8490301,2,11,2.469,10.541
Botswana,205,391,BW,72,BW,BWA,Àfrica,Àfrica meridional,Africa,Southern Africa,NA,1990876,Botswana,0,2016,BC,BWA,72,Botswana,56673,1835938,2,18,23.815,-22.182
Burundi,206,328,BI,108,BI,BDI,Àfrica,Àfrica oriental,Africa,Eastern Africa,NA,8988091,Burundi,0,2016,BY,BDI,108,Burundi,2568,7858791,2,14,29.887,-3.356
Cap Verd,207,247,CV,132,CV,CPV,Àfrica,Àfrica occidental,Africa,Western Africa,NA,429474,Cabo Verde,0,2016,CV,CPV,132,Cape Verde,403,506807,2,11,-23.634,15.071
Camerun,208,302,CM,120,CM,CMR,Àfrica,Àfrica central,Africa,Middle Africa,NA,18879301,Cameroon,0,2016,CM,CMR,120,Cameroon,46540,17795149,2,17,12.277,5.133
"Comores, les",209,375,KM,174,KM,COM,Àfrica,Àfrica oriental,Africa,Eastern Africa,NA,752438,Comoros,0,2016,CN,COM,174,Comoros,223,797902,2,14,43.337,-11.758
Congo,210,318,CG,178,CG,COG,Àfrica,Àfrica central,Africa,Middle Africa,NA,4012809,Congo,0,2016,CF,COG,178,Congo,34150,3609851,2,17,15.986,-0.055
Costa d'Ivori,211,272,CI,384,CI,CIV,Àfrica,Àfrica occidental,Africa,Western Africa,NA,20617068,Cote d'Ivoire,0,2016,IV,CIV,384,Cote d'Ivoire,31800,18584701,2,11,-5.556,7.632
Djibouti,212,338,DJ,262,DJ,DJI,Àfrica,Àfrica oriental,Africa,Eastern Africa,NA,516055,Djibouti,0,2016,DJ,DJI,262,Djibouti,2318,804206,2,14,42.516,11.9
Egipte,213,220,EG,818,EG,EGY,Àfrica,Àfrica septentrional,Africa,Northern Africa,NA,83082869,Egypt,0,2016,EG,EGY,818,Egypt,99545,72849793,2,15,29.872,26.494
Etiòpia,214,334,ET,231,ET,ETH,Àfrica,Àfrica oriental,Africa,Eastern Africa,NA,85237338,Ethiopia,0,2016,ET,ETH,231,Ethiopia,100000,78985857,2,14,39.616,8.626
Gabon,215,314,GA,266,GA,GAB,Àfrica,Àfrica central,Africa,Middle Africa,NA,1514993,Gabon,0,2016,GB,GAB,266,Gabon,25767,1290693,2,17,11.797,-0.591
Gàmbia,216,252,GM,270,GM,GMB,Àfrica,Àfrica occidental,Africa,Western Africa,NA,1782893,Gambia,0,2016,GA,GMB,270,Gambia,1000,1617029,2,11,-15.386,13.453
Ghana,217,276,GH,288,GH,GHA,Àfrica,Àfrica occidental,Africa,Western Africa,NA,23832495,Ghana,0,2016,GH,GHA,288,Ghana,22754,2253501,2,11,-1.207,7.96
Guinea,218,260,GN,324,GN,GIN,Àfrica,Àfrica occidental,Africa,Western Africa,NA,10057975,Guinea,0,2016,GV,GIN,324,Guinea,24572,9002656,2,11,-10.942,10.439
Guinea-Bissau,219,257,GW,624,GW,GNB,Àfrica,Àfrica occidental,Africa,Western Africa,NA,1533964,Guinea-Bissau,0,2016,PU,GNB,624,Guinea-Bissau,2812,1596929,2,11,-14.651,12.125
Guinea Equatorial,220,310,GQ,226,GQ,GNQ,Àfrica,Àfrica central,Africa,Middle Africa,NA,633441,Equatorial Guinea,0,2016,EK,GNQ,226,Equatorial Guinea,2805,484098,2,17,10.488,1.607
Kenya,221,346,KE,404,KE,KEN,Àfrica,Àfrica oriental,Africa,Eastern Africa,NA,39002772,Kenya,0,2016,KE,KEN,404,Kenya,56914,35598952,2,14,37.858,0.53
Lesotho,222,395,LS,426,LS,LSO,Àfrica,Àfrica meridional,Africa,Southern Africa,NA,2130819,Lesotho,0,2016,LT,LSO,426,Lesotho,3035,1980831,2,18,28.243,-29.581
Libèria,223,268,LR,430,LR,LBR,Àfrica,Àfrica occidental,Africa,Western Africa,NA,3441790,Liberia,0,2016,LI,LBR,430,Liberia,9632,3441796,2,11,-9.657,6.682
Líbia,224,216,LY,434,LY,LBY,Àfrica,Àfrica septentrional,Africa,Northern Africa,NA,6310434,Libya,0,2016,LY,LBY,434,Libyan Arab Jamahiriya,175954,5918217,2,15,18.023,27.044
Madagascar,225,370,MG,450,MG,MDG,Àfrica,Àfrica oriental,Africa,Eastern Africa,NA,20653556,Madagascar,0,2016,MA,MDG,450,Madagascar,58154,18642586,2,14,46.706,-19.374
Malawi,226,386,MW,454,MW,MWI,Àfrica,Àfrica oriental,Africa,Eastern Africa,NA,14268711,Malawi,0,2016,MI,MWI,454,Malawi,9408,13226091,2,14,33.808,-13.4
Mali,227,232,ML,466,ML,MLI,Àfrica,Àfrica occidental,Africa,Western Africa,NA,12666987,Mali,0,2016,ML,MLI,466,Mali,122019,1161109,2,11,-3.524,17.35
"Marroc, el",228,204,MA,504,MA,MAR,Àfrica,Àfrica septentrional,Africa,Northern Africa,NA,34859364,Morocco,0,2016,MO,MAR,504,Morocco,44630,30494991,2,15,-5.758,32.706
Maurici,229,373,MU,480,MU,MUS,Àfrica,Àfrica oriental,Africa,Eastern Africa,NA,1284264,Mauritius,0,2016,MP,MUS,480,Mauritius,203,1241173,2,14,57.583,-20.255
Mauritània,230,228,MR,478,MR,MRT,Àfrica,Àfrica occidental,Africa,Western Africa,NA,3129486,Mauritania,0,2016,MR,MRT,478,Mauritania,102522,2963105,2,11,-10.332,20.26
Moçambic,231,366,MZ,508,MZ,MOZ,Àfrica,Àfrica oriental,Africa,Eastern Africa,NA,21669278,Mozambique,0,2016,MZ,MOZ,508,Mozambique,78409,20532675,2,14,37.923,-14.422
Namíbia,232,389,NA,516,NA,NAM,Àfrica,Àfrica meridional,Africa,Southern Africa,NA,2108665,Namibia,0,2016,WA,NAM,516,Namibia,82329,2019677,2,18,17.218,-22.133
Níger,233,240,NE,562,NE,NER,Àfrica,Àfrica occidental,Africa,Western Africa,NA,15306252,Niger,0,2016,NG,NER,562,Niger,126670,1326419,2,11,9.398,17.426
Nigèria,234,288,NG,566,NG,NGA,Àfrica,Àfrica occidental,Africa,Western Africa,NA,149229090,Nigeria,0,2016,NI,NGA,566,Nigeria,91077,141356083,2,11,8.105,9.594
República Centreafricana,235,306,CF,140,CF,CAF,Àfrica,Àfrica central,Africa,Middle Africa,NA,4511488,Central African Republic,0,2016,CT,CAF,140,Central African Republic,62298,4191429,2,17,20.483,6.571
Sud-àfrica,236,388,ZA,710,ZA,ZAF,Àfrica,Àfrica meridional,Africa,Southern Africa,NA,49052489,South Africa,0,2016,SF,ZAF,710,South Africa,121447,47938663,2,18,23.121,-30.558
Ruanda,237,324,RW,646,RW,RWA,Àfrica,Àfrica oriental,Africa,Eastern Africa,NA,10473282,Rwanda,0,2016,RW,RWA,646,Rwanda,2467,9233793,2,14,29.917,-1.998
São Tomé i Príncipe,238,311,ST,678,ST,STP,Àfrica,Àfrica central,Africa,Middle Africa,NA,212679,Sao Tome and Principe,0,2016,TP,STP,678,Sao Tome and Principe,96,152622,2,17,6.629,0.201
Senegal,239,248,SN,686,SN,SEN,Àfrica,Àfrica occidental,Africa,Western Africa,NA,13711597,Senegal,0,2016,SG,SEN,686,Senegal,19253,1177034,2,11,-14.881,15.013
Seychelles,240,355,SC,690,SC,SYC,Àfrica,Àfrica oriental,Africa,Eastern Africa,NA,87476,Seychelles,0,2016,SE,SYC,690,Seychelles,46,85532,2,14,55.474,-4.647
Sierra Leone,241,264,SL,694,SL,SLE,Àfrica,Àfrica occidental,Africa,Western Africa,NA,6440053,Sierra Leone,0,2016,SL,SLE,694,Sierra Leone,7162,5586403,2,11,-11.792,8.56
Somàlia,242,342,SO,706,SO,SOM,Àfrica,Àfrica oriental,Africa,Eastern Africa,NA,9832017,Somalia,0,2016,SO,SOM,706,Somalia,62734,8196395,2,14,48.316,9.774
"Sudan, el",243,224,SD,729,SD,SDN,Àfrica,Àfrica septentrional,Africa,Northern Africa,NA,30894000,Sudan,0,2016,SU,SDN,736,Sudan,237600,36899747,2,15,30.05,13.832
Swaziland,244,393,SZ,748,SZ,SWZ,Àfrica,Àfrica meridional,Africa,Southern Africa,NA,1123913,Swaziland,0,2016,WZ,SWZ,748,Swaziland,1720,1124529,2,18,31.497,-26.562
Tanzània,245,352,TZ,834,TZ,TZA,Àfrica,Àfrica oriental,Africa,Eastern Africa,NA,41048532,"Tanzania, United Republic of",0,2016,TZ,TZA,834,United Republic of Tanzania,88359,38477873,2,14,34.823,-6.27
Txad,246,244,TD,148,TD,TCD,Àfrica,Àfrica central,Africa,Middle Africa,NA,10329208,Chad,0,2016,CD,TCD,148,Chad,125920,10145609,2,17,18.665,15.361
Togo,247,280,TG,768,TG,TGO,Àfrica,Àfrica occidental,Africa,Western Africa,NA,6019877,Togo,0,2016,TO,TGO,768,Togo,5439,6238572,2,11,1.081,8.799
Tunísia,248,212,TN,788,TN,TUN,Àfrica,Àfrica septentrional,Africa,Northern Africa,NA,10486339,Tunisia,0,2016,TS,TUN,788,Tunisia,15536,10104685,2,15,9.596,35.383
Uganda,249,350,UG,800,UG,UGA,Àfrica,Àfrica oriental,Africa,Eastern Africa,NA,32369558,Uganda,0,2016,UG,UGA,800,Uganda,19710,28947181,2,14,32.386,1.28
República Democràtica del Congo,250,322,CD,180,CD,COD,Àfrica,Àfrica central,Africa,Middle Africa,NA,68692542,"Congo, the Democratic Republic of the",0,2016,CG,COD,180,Democratic Republic of the Congo,226705,58740547,2,17,23.654,-2.876
Zàmbia,251,378,ZM,894,ZM,ZMB,Àfrica,Àfrica oriental,Africa,Eastern Africa,NA,11862740,Zambia,0,2016,ZA,ZMB,894,Zambia,74339,11478317,2,14,26.32,-14.614
Zimbàbue,252,382,ZW,716,ZW,ZWE,Àfrica,Àfrica oriental,Africa,Eastern Africa,NA,11392629,Zimbabwe,0,2016,ZI,ZWE,716,Zimbabwe,38685,13119679,2,14,29.872,-19
Eritrea,253,336,ER,232,ER,ERI,Àfrica,Àfrica oriental,Africa,Eastern Africa,NA,5647168,Eritrea,0,2016,ER,ERI,232,Eritrea,10100,4526722,2,14,38.219,16.045
"Sudan del Sud, el",254,224,SS,728,SS,SSD,Àfrica,Àfrica septentrional,Africa,Northern Africa,NA,8260490,South Sudan,0,2016,NA,NA,NA,NA,NA,NA,NA,NA,31.6,4.85
"Saint Helena, Ascenció i Tristan da Cunha",260,329,SH,654,SH,SHN,Àfrica,Àfrica occidental,Africa,Western Africa,NA,7637,"Saint Helena, Ascension and Tristan da Cunha",1,2016,SH,SHN,654,Saint Helena,0,6399,2,11,-5.71,-15.953
"Reunió, la",261,1,FR,638,RE,REU,Àfrica,Àfrica oriental,Africa,Eastern Africa,1,NA,Reunion,1,2016,RE,REU,638,Reunion,250,785159,2,14,55.538,-21.122
Mayotte,262,377,YT,175,YT,MYT,Àfrica,Àfrica oriental,Africa,Eastern Africa,1,NA,Mayotte,1,2016,MF,MYT,175,Mayotte,0,0,2,14,45.155,-12.777
Sàhara Occidental,263,NA,EH,732,EH,ESH,Àfrica,Àfrica septentrional,Africa,Northern Africa,NA,NA,Western Sahara,0,2016,WI,ESH,732,Western Sahara,0,440428,2,15,-13.706,24.554
Canadà,301,404,CA,124,CA,CAN,Amèrica,Amèrica del nord,Americas,Northern America,NA,33487208,Canada,0,2016,CA,CAN,124,Canada,909351,32270507,19,21,-109.433,59.081
"Estats Units, els",302,400,US,840,US,USA,Amèrica,Amèrica del nord,Americas,Northern America,NA,307212123,United States,0,2016,US,USA,840,United States,915896,299846449,19,21,-98.606,39.622
Mèxic,303,412,MX,484,MX,MEX,Amèrica,Amèrica central,Americas,Central America,NA,111211789,Mexico,0,2016,MX,MEX,484,Mexico,190869,104266392,19,13,-102.535,23.951
Antigua i Barbuda,310,459,AG,28,AG,ATG,Amèrica,Carib,Americas,Caribbean,NA,85632,Antigua and Barbuda,0,2016,AC,ATG,28,Antigua and Barbuda,44,83039,19,29,-61.783,17.078
"Bahames, les",311,453,BS,44,BS,BHS,Amèrica,Carib,Americas,Caribbean,NA,309156,Bahamas,0,2016,BF,BHS,44,Bahamas,1001,323295,19,29,-78.014,24.628
Barbados,312,469,BB,52,BB,BRB,Amèrica,Carib,Americas,Caribbean,NA,284589,Barbados,0,2016,BB,BRB,52,Barbados,43,291933,19,29,-59.559,13.153
Belize,313,421,BZ,84,BZ,BLZ,Amèrica,Amèrica central,Americas,Central America,NA,307899,Belize,0,2016,BH,BLZ,84,Belize,2281,275546,19,13,-88.602,17.219
Costa Rica,314,436,CR,188,CR,CRI,Amèrica,Amèrica central,Americas,Central America,NA,4253877,Costa Rica,0,2016,CS,CRI,188,Costa Rica,5106,4327228,19,13,-83.946,9.971
Cuba,315,448,CU,192,CU,CUB,Amèrica,Carib,Americas,Caribbean,NA,11451652,Cuba,0,2016,CU,CUB,192,Cuba,10982,11259905,19,29,-77.781,21.297
Dominica,316,460,DM,212,DM,DMA,Amèrica,Carib,Americas,Caribbean,NA,72660,Dominica,0,2016,DO,DMA,212,Dominica,75,67827,19,29,-61.356,15.475
El Salvador,317,428,SV,222,SV,SLV,Amèrica,Amèrica central,Americas,Central America,NA,7185218,El Salvador,0,2016,ES,SLV,222,El Salvador,2072,6668356,19,13,-88.866,13.736
Grenada,318,473,GD,308,GD,GRD,Amèrica,Carib,Americas,Caribbean,NA,90739,Grenada,0,2016,GJ,GRD,308,Grenada,34,105237,19,29,-61.678,12.118
Guatemala,319,416,GT,320,GT,GTM,Amèrica,Amèrica central,Americas,Central America,NA,13276517,Guatemala,0,2016,GT,GTM,320,Guatemala,10843,12709564,19,13,-90.398,15.256
Haití,320,452,HT,332,HT,HTI,Amèrica,Carib,Americas,Caribbean,NA,9035536,Haiti,0,2016,HA,HTI,332,Haiti,2756,9296291,19,29,-72.278,19.142
Hondures,321,424,HN,340,HN,HND,Amèrica,Amèrica central,Americas,Central America,NA,7792854,Honduras,0,2016,HO,HND,340,Honduras,11189,683411,19,13,-86.863,14.819
Jamaica,322,464,JM,388,JM,JAM,Amèrica,Carib,Americas,Caribbean,NA,2825928,Jamaica,0,2016,JM,JAM,388,Jamaica,1083,2682469,19,29,-77.32,18.151
Nicaragua,323,432,NI,558,NI,NIC,Amèrica,Amèrica central,Americas,Central America,NA,5891199,Nicaragua,0,2016,NU,NIC,558,Nicaragua,12140,5462539,19,13,-85.034,12.84
Panamà,324,442,PA,591,PA,PAN,Amèrica,Amèrica central,Americas,Central America,NA,3360474,Panama,0,2016,PM,PAN,591,Panama,7443,3231502,19,13,-80.92,8.384
Saint Vincent i les Grenadines,325,467,VC,670,VC,VCT,Amèrica,Carib,Americas,Caribbean,NA,104574,Saint Vincent and the Grenadines,0,2016,VC,VCT,670,Saint Vincent and the Grenadines,39,119137,19,29,-61.194,13.248
República Dominicana,326,456,DO,214,DO,DOM,Amèrica,Carib,Americas,Caribbean,NA,9650054,Dominican Republic,0,2016,DR,DOM,214,Dominican Republic,4838,9469601,19,29,-70.729,19.015
Trinidad i Tobago,327,472,TT,780,TT,TTO,Amèrica,Carib,Americas,Caribbean,NA,1310000,Trinidad and Tobago,0,2016,TD,TTO,780,Trinidad and Tobago,513,1323722,19,29,-61.253,10.468
Saint Lucia,328,465,LC,662,LC,LCA,Amèrica,Carib,Americas,Caribbean,NA,160267,Saint Lucia,0,2016,ST,LCA,662,Saint Lucia,61,16124,19,29,-60.969,13.898
Saint Kitts i Nevis,329,449,KN,659,KN,KNA,Amèrica,Carib,Americas,Caribbean,NA,40131,Saint Kitts and Nevis,0,2016,SC,KNA,659,Saint Kitts and Nevis,36,49138,19,29,-62.769,17.34
Argentina,340,528,AR,32,AR,ARG,Amèrica,Amèrica del sud,Americas,South America,NA,40913584,Argentina,0,2016,AR,ARG,32,Argentina,273669,38747148,19,5,-65.167,-35.377
Bolívia,341,516,BO,68,BO,BOL,Amèrica,Amèrica del sud,Americas,South America,NA,9775246,"Bolivia, Plurinational State of",0,2016,BL,BOL,68,Bolivia,108438,9182015,19,5,-64.671,-16.715
Brasil,342,508,BR,76,BR,BRA,Amèrica,Amèrica del sud,Americas,South America,NA,198739269,Brazil,0,2016,BR,BRA,76,Brazil,845942,186830759,19,5,-53.089,-10.772
Colòmbia,343,480,CO,170,CO,COL,Amèrica,Amèrica del sud,Americas,South America,NA,45644023,Colombia,0,2016,CO,COL,170,Colombia,103870,4494579,19,5,-73.076,3.9
Xile,344,512,CL,152,CL,CHL,Amèrica,Amèrica del sud,Americas,South America,NA,16601707,Chile,0,2016,CI,CHL,152,Chile,74880,16295102,19,5,-69.433,-23.389
Equador,345,500,EC,218,EC,ECU,Amèrica,Amèrica del sud,Americas,South America,NA,14573101,Ecuador,0,2016,EC,ECU,218,Ecuador,27684,13060993,19,5,-78.497,-1.385
Guyana,346,488,GY,328,GY,GUY,Amèrica,Amèrica del sud,Americas,South America,NA,772298,Guyana,0,2016,GY,GUY,328,Guyana,19685,739472,19,5,-58.974,4.792
Paraguai,347,520,PY,600,PY,PRY,Amèrica,Amèrica del sud,Americas,South America,NA,6995655,Paraguay,0,2016,PA,PRY,600,Paraguay,39730,5904342,19,5,-58.391,-23.236
Perú,348,504,PE,604,PE,PER,Amèrica,Amèrica del sud,Americas,South America,NA,29546963,Peru,0,2016,PE,PER,604,Peru,128000,27274266,19,5,-75.552,-9.326
Surinam,349,492,SR,740,SR,SUR,Amèrica,Amèrica del sud,Americas,South America,NA,481267,Suriname,0,2016,NS,SUR,740,Suriname,15600,452468,19,5,-55.912,4.127
Uruguai,350,524,UY,858,UY,URY,Amèrica,Amèrica del sud,Americas,South America,NA,3494382,Uruguay,0,2016,UY,URY,858,Uruguay,17502,3325727,19,5,-56.012,-32.8
Veneçuela,351,484,VE,862,VE,VEN,Amèrica,Amèrica del sud,Americas,South America,NA,26814843,"Venezuela, Bolivarian Republic of",0,2016,VE,VEN,862,Venezuela,88205,26725573,19,5,-66.166,7.125
Saint-Pierre-et-Miquelon,370,408,PM,666,PM,SPM,Amèrica,Amèrica del nord,Americas,Northern America,NA,7051,Saint Pierre and Miquelon,1,2016,SB,SPM,666,Saint Pierre and Miquelon,0,6346,19,21,-56.325,47.042
Groenlàndia,371,406,GL,304,GL,GRL,Amèrica,Amèrica del nord,Americas,Northern America,NA,57600,Greenland,1,2016,GL,GRL,304,Greenland,41045,57475,19,21,-41.391,74.719
Illes Caiman,380,463,KY,136,KY,CYM,Amèrica,Carib,Americas,Caribbean,NA,49035,Cayman Islands,1,2016,CJ,CYM,136,Cayman Islands,26,45591,19,29,-81.198,19.314
Illes Turks i Caicos,381,454,TC,796,TC,TCA,Amèrica,Carib,Americas,Caribbean,NA,22942,Turks and Caicos Islands,1,2016,TK,TCA,796,Turks and Caicos Islands,0,24459,19,29,-71.95,21.902
Illes Verges dels Estats Units,382,457,VI,850,VI,VIR,Amèrica,Carib,Americas,Caribbean,NA,109825,"Virgin Islands, U.S.",1,2016,VQ,VIR,850,United States Virgin Islands,35,111408,19,29,-64.785,17.741
Guadalupe,383,1,FR,312,GP,GLP,Amèrica,Carib,Americas,Caribbean,1,NA,Guadeloupe,1,2016,GP,GLP,312,Guadeloupe,169,438403,19,29,-61.441,16.286
Bermudes,384,413,BM,60,BM,BMU,Amèrica,Amèrica del nord,Americas,Northern America,NA,67837,Bermuda,1,2016,BD,BMU,60,Bermuda,5,64174,19,21,-64.709,32.336
Saint-Martin,385,1,FR,663,MF,MAF,Amèrica,Carib,Americas,Caribbean,1,29820,Saint Martin (French part),1,2016,RN,MAF,663,Saint Martin,0,0,19,29,-63.041,18.094
Martinica,386,1,FR,474,MQ,MTQ,Amèrica,Carib,Americas,Caribbean,1,NA,Martinique,1,2016,MB,MTQ,474,Martinique,106,395896,19,29,-61.021,14.653
Montserrat,387,470,MS,500,MS,MSR,Amèrica,Carib,Americas,Caribbean,NA,5097,Montserrat,1,2016,MH,MSR,500,Montserrat,10,5628,19,29,-62.187,16.736
Anguilla,388,446,AI,660,AI,AIA,Amèrica,Carib,Americas,Caribbean,NA,14436,Anguilla,1,2016,AV,AIA,660,Anguilla,0,12256,19,29,-63.032,18.237
Saint-Barthélemy,389,1,BL,652,BL,BLM,Amèrica,Carib,Americas,Caribbean,NA,7448,Saint Barthelemy,1,2016,TB,BLM,652,Saint Barthelemy,0,0,19,29,-63.043,18.04
Puerto Rico,390,400,US,630,PR,PRI,Amèrica,Carib,Americas,Caribbean,NA,3971020,Puerto Rico,1,2016,RQ,PRI,630,Puerto Rico,887,3946779,19,29,-66.466,18.221
Aruba,391,474,AW,533,AW,ABW,Amèrica,Carib,Americas,Caribbean,NA,103065,Aruba,1,2016,AA,ABW,533,Aruba,0,102897,19,29,-69.977,12.517
Illes Verges Britàniques,393,468,VG,92,VG,VGB,Amèrica,Carib,Americas,Caribbean,NA,24491,"Virgin Islands, British",1,2016,VI,VGB,92,British Virgin Islands,15,22016,19,29,-64.39,18.483
Guaiana Francesa,394,1,FR,254,GF,GUF,Amèrica,Amèrica del sud,Americas,South America,1,236250,French Guiana,1,2016,FG,GUF,254,French Guiana,8815,192099,19,5,-53.241,3.924
Illes Falkland (Malvines),395,529,FK,238,FK,FLK,Amèrica,Amèrica del sud,Americas,South America,NA,3140,Falkland Islands (Malvinas),1,2016,FK,FLK,238,Falkland Islands (Malvinas),1217,2975,19,5,-58.694,-51.665
Afganistan,401,660,AF,4,AF,AFG,Àsia,Àsia meridional,Asia,Southern Asia,NA,28400000,Afghanistan,0,2016,AF,AFG,4,Afghanistan,65209,25067407,142,34,65.216,33.677
Aràbia Saudí,402,632,SA,682,SA,SAU,Àsia,Àsia occidental,Asia,Western Asia,NA,28686633,Saudi Arabia,0,2016,SA,SAU,682,Saudi Arabia,214969,2361236,142,145,44.585,24.023
Bahrain,403,640,BH,48,BH,BHR,Àsia,Àsia occidental,Asia,Western Asia,NA,727785,Bahrain,0,2016,BA,BHR,48,Bahrain,71,724788,142,145,50.562,26.019
Bangladesh,404,666,BD,50,BD,BGD,Àsia,Àsia meridional,Asia,Southern Asia,NA,156050883,Bangladesh,0,2016,BG,BGD,50,Bangladesh,13017,15328112,142,34,89.941,24.218
Myanmar,405,676,MM,104,MM,MMR,Àsia,Àsià sud-oriental,Asia,South-Eastern Asia,NA,48137741,Myanmar,0,2016,BM,MMR,104,Burma,65755,47967266,142,35,96.041,21.718
Xina,407,720,CN,156,CN,CHN,Àsia,Àsia oriental,Asia,Eastern Asia,NA,1338612968,China,0,2016,CH,CHN,156,China,932743,1312978855,142,30,106.514,33.42
"Emirats Àrabs Units, els",408,647,AE,784,AE,ARE,Àsia,Àsia occidental,Asia,Western Asia,NA,4798491,United Arab Emirates,0,2016,AE,ARE,784,United Arab Emirates,8360,4104291,142,145,54.163,23.549
Filipines,409,708,PH,608,PH,PHL,Àsia,Àsià sud-oriental,Asia,South-Eastern Asia,NA,97976603,Philippines,0,2016,RP,PHL,608,Philippines,29817,84566163,142,35,122.466,11.118
Índia,410,664,IN,356,IN,IND,Àsia,Àsia meridional,Asia,Southern Asia,NA,1166079217,India,0,2016,IN,IND,356,India,297319,1134403141,142,34,79.619,22.881
Indonèsia,411,700,ID,360,ID,IDN,Àsia,Àsià sud-oriental,Asia,South-Eastern Asia,NA,240271522,Indonesia,0,2016,ID,IDN,360,Indonesia,181157,226063044,142,35,114.252,-0.976
"Iraq, l'",412,612,IQ,368,IQ,IRQ,Àsia,Àsia occidental,Asia,Western Asia,NA,28945657,Iraq,0,2016,IZ,IRQ,368,Iraq,43737,27995984,142,145,43.772,33.048
Iran,413,616,IR,364,IR,IRN,Àsia,Àsia meridional,Asia,Southern Asia,NA,66429284,"Iran, Islamic Republic of",0,2016,IR,IRN,364,Iran (Islamic Republic of),163620,69420607,142,34,54.301,32.565
Israel,414,624,IL,376,IL,ISR,Àsia,Àsia occidental,Asia,Western Asia,NA,7233701,Israel,0,2016,IS,ISR,376,Israel,2171,6692037,142,145,34.851,31.026
Japó,415,732,JP,392,JP,JPN,Àsia,Àsia oriental,Asia,Eastern Asia,NA,127078679,Japan,0,2016,JA,JPN,392,Japan,36450,12789674,142,30,139.068,36.491
Jordània,416,628,JO,400,JO,JOR,Àsia,Àsia occidental,Asia,Western Asia,NA,6342948,Jordan,0,2016,JO,JOR,400,Jordan,8824,5544066,142,145,36.319,30.703
Cambodja,417,696,KH,116,KH,KHM,Àsia,Àsià sud-oriental,Asia,South-Eastern Asia,NA,14494293,Cambodia,0,2016,CB,KHM,116,Cambodia,17652,13955507,142,35,104.564,12.714
Kuwait,418,636,KW,414,KW,KWT,Àsia,Àsia occidental,Asia,Western Asia,NA,2691158,Kuwait,0,2016,KU,KWT,414,Kuwait,1782,2700,142,145,47.376,29.476
Lao,419,684,LA,418,LA,LAO,Àsia,Àsià sud-oriental,Asia,South-Eastern Asia,NA,6834942,Lao People's Democratic Republic,0,2016,LA,LAO,418,Lao People's Democratic Republic,23080,566391,142,35,102.471,19.905
Líban,420,604,LB,422,LB,LBN,Àsia,Àsia occidental,Asia,Western Asia,NA,4017095,Lebanon,0,2016,LE,LBN,422,Lebanon,1023,401074,142,145,35.888,33.92
Malàisia,421,701,MY,458,MY,MYS,Àsia,Àsià sud-oriental,Asia,South-Eastern Asia,NA,25715819,Malaysia,0,2016,MY,MYS,458,Malaysia,32855,25652985,142,35,102.195,4.201
Maldives,422,667,MV,462,MV,MDV,Àsia,Àsia meridional,Asia,Southern Asia,NA,396334,Maldives,0,2016,MV,MDV,462,Maldives,30,295297,142,34,72.92,3.548
Mongòlia,423,716,MN,496,MN,MNG,Àsia,Àsia oriental,Asia,Eastern Asia,NA,3041142,Mongolia,0,2016,MG,MNG,496,Mongolia,156650,2580704,142,30,102.876,46.056
Nepal,424,672,NP,524,NP,NPL,Àsia,Àsia meridional,Asia,Southern Asia,NA,28563377,Nepal,0,2016,NP,NPL,524,Nepal,14300,27093656,142,34,83.939,28.253
Oman,425,649,OM,512,OM,OMN,Àsia,Àsia occidental,Asia,Western Asia,NA,3418085,Oman,0,2016,MU,OMN,512,Oman,30950,2507042,142,145,57.407,21.656
Pakistan,426,662,PK,586,PK,PAK,Àsia,Àsia meridional,Asia,Southern Asia,NA,176242949,Pakistan,0,2016,PK,PAK,586,Pakistan,77088,158080591,142,34,69.386,29.967
Qatar,427,644,QA,634,QA,QAT,Àsia,Àsia occidental,Asia,Western Asia,NA,833285,Qatar,0,2016,QA,QAT,634,Qatar,1100,796186,142,145,51.191,25.316
Corea del Sud,430,728,KR,410,KR,KOR,Àsia,Àsia oriental,Asia,Eastern Asia,NA,48508972,"Korea, Republic of",0,2016,KS,KOR,410,"Korea, Republic of",9873,47869837,142,30,128.103,36.504
Corea del Nord,431,724,KP,408,KP,PRK,Àsia,Àsia oriental,Asia,Eastern Asia,NA,22665345,"Korea, Democratic People's Republic of",0,2016,KN,PRK,408,"Korea, Democratic People's Republic of",12041,23615611,142,30,126.451,39.778
Singapur,432,706,SG,702,SG,SGP,Àsia,Àsià sud-oriental,Asia,South-Eastern Asia,NA,4657542,Singapore,0,2016,SN,SGP,702,Singapore,67,4327468,142,35,103.808,1.351
Síria,433,608,SY,760,SY,SYR,Àsia,Àsia occidental,Asia,Western Asia,NA,20178485,Syrian Arab Republic,0,2016,SY,SYR,760,Syrian Arab Republic,18378,18893881,142,145,38.506,35.013
Sri Lanka,434,669,LK,144,LK,LKA,Àsia,Àsia meridional,Asia,Southern Asia,NA,21324791,Sri Lanka,0,2016,CE,LKA,144,Sri Lanka,6463,19120763,142,34,80.704,7.612
Tailàndia,435,680,TH,764,TH,THA,Àsia,Àsià sud-oriental,Asia,South-Eastern Asia,NA,65905410,Thailand,0,2016,TH,THA,764,Thailand,51089,63002911,142,35,100.844,15.7
Turquia,436,52,TR,792,TR,TUR,Àsia,Àsia occidental,Asia,Western Asia,NA,76805524,Turkey,0,2016,TU,TUR,792,Turkey,76963,72969723,142,145,35.179,39.061
Vietnam,437,690,VN,704,VN,VNM,Àsia,Àsià sud-oriental,Asia,South-Eastern Asia,NA,86967524,Viet Nam,0,2016,VM,VNM,704,Viet Nam,32549,85028643,142,35,105.314,21.491
"Taiwan,Xina",438,736,TW,158,TW,TWN,Àsia,Àsia oriental,Asia,Eastern Asia,NA,22974347,China-Taiwan,0,2016,TW,TWN,158,Taiwan,0,0,0,0,120.946,23.754
Brunei,439,703,BN,96,BN,BRN,Àsia,Àsià sud-oriental,Asia,South-Eastern Asia,NA,388190,Brunei Darussalam,0,2016,BX,BRN,96,Brunei Darussalam,527,373831,142,35,114.591,4.468
Illes Marshall,440,824,MH,584,MH,MHL,Oceania,Micronèsia,Oceania,Micronesia,NA,64522,Marshall Islands,0,2016,RM,MHL,584,Marshall Islands,0,5672,9,57,168.963,7.595
"Iemen, el",441,653,YE,887,YE,YEM,Àsia,Àsia occidental,Asia,Western Asia,NA,23822783,Yemen,0,2016,YM,YEM,887,Yemen,52797,21095679,142,145,48.355,15.807
Azerbaidjan,442,78,AZ,31,AZ,AZE,Àsia,Àsia occidental,Asia,Western Asia,NA,8238672,Azerbaijan,0,2016,AJ,AZE,31,Azerbaijan,8260,8352021,142,145,47.395,40.43
Kazakhstan,443,79,KZ,398,KZ,KAZ,Àsia,Àsia central,Asia,Central Asia,NA,15399437,Kazakhstan,0,2016,KZ,KAZ,398,Kazakhstan,269970,15210609,142,143,67.301,48.16
Kirguizstan,444,83,KG,417,KG,KGZ,Àsia,Àsia central,Asia,Central Asia,NA,5431747,Kyrgyzstan,0,2016,KG,KGZ,417,Kyrgyzstan,19180,5203547,142,143,74.555,41.465
Tadjikistan,445,82,TJ,762,TJ,TJK,Àsia,Àsia central,Asia,Central Asia,NA,7349145,Tajikistan,0,2016,TI,TJK,762,Tajikistan,13996,6550213,142,143,69.42,38.665
Turkmenistan,446,80,TM,795,TM,TKM,Àsia,Àsia central,Asia,Central Asia,NA,4884887,Turkmenistan,0,2016,TX,TKM,795,Turkmenistan,46993,4833266,142,143,59.384,39.122
Uzbekistan,447,81,UZ,860,UZ,UZB,Àsia,Àsia central,Asia,Central Asia,NA,27606007,Uzbekistan,0,2016,UZ,UZB,860,Uzbekistan,42540,26593123,142,143,63.17,41.75
Bhutan,448,675,BT,64,BT,BTN,Àsia,Àsia meridional,Asia,Southern Asia,NA,691141,Bhutan,0,2016,BT,BTN,64,Bhutan,4700,637013,142,34,90.429,27.415
Territoris Palestins [o Palestina],449,625,PS,275,PS,PSE,Àsia,Àsia occidental,Asia,Western Asia,NA,2514845,"Palestine, State of",0,2016,NA,PSE,275,Palestine,0,3762005,142,145,35.278,32.037
"Hong Kong, Xina",450,740,HK,344,HK,HKG,Àsia,Àsia oriental,Asia,Eastern Asia,NA,7055071,Hong Kong,1,2016,HK,HKG,344,Hong Kong,0,7057418,142,30,114.129,22.423
Guam,454,831,GU,316,GU,GUM,Oceania,Micronèsia,Oceania,Micronesia,NA,178430,Guam,1,2016,GQ,GUM,316,Guam,55,16857,9,57,144.707,13.385
"Macao, Xina",455,743,MO,446,MO,MAC,Àsia,Àsia oriental,Asia,Eastern Asia,NA,559846,Macao,1,2016,MC,MAC,446,Macau,0,47309,142,30,113.545,22.2
Illes Marianes del Nord,456,820,MP,580,MP,MNP,Oceania,Micronèsia,Oceania,Micronesia,NA,88662,Northern Mariana Islands,1,2016,CQ,MNP,580,Northern Mariana Islands,0,80258,9,57,145.623,15.005
Austràlia,501,800,AU,36,AU,AUS,Oceania,Austràlia i Nova Zelanda,Oceania,Australia and New Zealand,NA,21262641,Australia,0,2016,AS,AUS,36,Australia,768230,20310208,9,53,136.189,-24.973
Fiji,502,815,FJ,242,FJ,FJI,Oceania,Melanèsia,Oceania,Melanesia,NA,944720,Fiji,0,2016,FJ,FJI,242,Fiji,1827,828046,9,54,177.974,-17.819
Nova Zelanda,504,804,NZ,554,NZ,NZL,Oceania,Austràlia i Nova Zelanda,Oceania,Australia and New Zealand,NA,4213418,New Zealand,0,2016,NZ,NZL,554,New Zealand,26799,4097112,9,53,172.235,-42.634
Papua Nova Guinea,505,801,PG,598,PG,PNG,Oceania,Melanèsia,Oceania,Melanesia,NA,6057263,Papua New Guinea,0,2016,PP,PNG,598,Papua New Guinea,45286,6069715,9,54,143.459,-5.949
Illes Salomó,506,806,SB,90,SB,SLB,Oceania,Melanèsia,Oceania,Melanesia,NA,595613,Solomon Islands,0,2016,BP,SLB,90,Solomon Islands,2799,472419,9,54,160.109,-9.611
Samoa,507,819,WS,882,WS,WSM,Oceania,Polinèsia,Oceania,Polynesia,NA,219998,Samoa,0,2016,WS,WSM,882,Samoa,283,183845,9,61,-172.414,-13.652
Tonga,508,817,TO,776,TO,TON,Oceania,Polinèsia,Oceania,Polynesia,NA,120898,Tonga,0,2016,TN,TON,776,Tonga,72,99361,9,61,-175.185,-21.202
Vanuatu,509,816,VU,548,VU,VUT,Oceania,Melanèsia,Oceania,Melanesia,NA,218519,Vanuatu,0,2016,NH,VUT,548,Vanuatu,1219,215366,9,54,166.899,-15.376
Micronèsia,511,823,FM,583,FM,FSM,Oceania,Micronèsia,Oceania,Micronesia,NA,107434,"Micronesia, Federated States of",0,2016,FM,FSM,583,"Micronesia, Federated States of",70,110058,9,57,158.235,6.883
Tuvalu,512,807,TV,798,TV,TUV,Oceania,Polinèsia,Oceania,Polynesia,NA,12373,Tuvalu,0,2016,TV,TUV,798,Tuvalu,3,10441,9,61,179.219,-8.514
Illes Cook,513,837,CK,184,CK,COK,Oceania,Polinèsia,Oceania,Polynesia,NA,11870,Cook Islands,1,2016,CW,COK,184,Cook Islands,24,13984,9,61,-159.782,-21.219
Kiribati,514,812,KI,296,KI,KIR,Oceania,Micronèsia,Oceania,Micronesia,NA,112850,Kiribati,0,2016,KR,KIR,296,Kiribati,73,92003,9,57,175.036,-1.508
Nauru,515,803,NR,520,NR,NRU,Oceania,Micronèsia,Oceania,Micronesia,NA,14019,Nauru,0,2016,NR,NRU,520,Nauru,2,10111,9,57,166.93,-0.522
Palau,516,825,PW,585,PW,PLW,Oceania,Micronèsia,Oceania,Micronesia,NA,20796,Palau,0,2016,PS,PLW,585,Palau,0,20127,9,57,134.57,7.501
Timor-Leste,517,626,TL,626,TL,TLS,Àsia,Àsià sud-oriental,Asia,South-Eastern Asia,NA,1131612,Timor-Leste,0,2016,TT,TLS,626,Timor-Leste,1487,1067285,142,35,125.878,-8.822
Polinèsia Francesa,520,822,PF,258,PF,PYF,Oceania,Polinèsia,Oceania,Polynesia,NA,287032,French Polynesia,1,2016,FP,PYF,258,French Polynesia,366,255632,9,61,-149.462,-17.626
Illa Norfolk,521,836,NF,574,NF,NFK,Oceania,Austràlia i Nova Zelanda,Oceania,Australia and New Zealand,NA,2141,Norfolk Island,1,2016,NF,NFK,574,Norfolk Island,0,0,9,53,167.953,-29.037
Niue,523,838,NU,570,NU,NIU,Oceania,Polinèsia,Oceania,Polynesia,NA,1398,Niue,1,2016,NE,NIU,570,Niue,26,1632,9,61,-169.869,-19.052
Pitcairn,524,813,PN,612,PN,PCN,Oceania,Polinèsia,Oceania,Polynesia,NA,48,Pitcairn,1,2016,PC,PCN,612,Pitcairn Islands,0,5,9,61,-128.316,-24.366
Tokelau,525,839,TK,772,TK,TKL,Oceania,Polinèsia,Oceania,Polynesia,NA,NA,Tokelau,1,2016,TL,TKL,772,Tokelau,1,1401,9,61,-171.853,-9.193
Nova Caledònia,526,809,NC,540,NC,NCL,Oceania,Melanèsia,Oceania,Melanesia,NA,227436,New Caledonia,1,2016,NC,NCL,540,New Caledonia,1828,234185,9,54,165.447,-21.359
Wallis i Futuna,527,811,WF,876,WF,WLF,Oceania,Polinèsia,Oceania,Polynesia,NA,15289,Wallis and Futuna,1,2016,WF,WLF,876,Wallis and Futuna Islands,14,15079,9,61,-178.131,-14.289
Samoa Americana,528,830,AS,16,AS,ASM,Oceania,Polinèsia,Oceania,Polynesia,NA,65628,American Samoa,1,2016,AQ,ASM,16,American Samoa,20,64051,9,61,-170.73,-14.318
Albània,101,70,AL,8,AL,ALB,Europa,Europa meridional,Europe,Southern Europe,NA,3639453,NA,0,2017,AL,ALB,8,Albania,2740,3153731,150,39,20.068,41.143
Àustria,102,38,AT,40,AT,AUT,Europa,Europa occidental,Europe,Western Europe,1,8210281,NA,0,2017,AU,AUT,40,Austria,8245,8291979,150,155,14.912,47.683
Bèlgica,103,17,BE,56,BE,BEL,Europa,Europa occidental,Europe,Western Europe,1,10414336,NA,0,2017,BE,BEL,56,Belgium,0,10398049,150,155,4.664,50.643
Bulgària,104,68,BG,100,BG,BGR,Europa,Europa oriental,Europe,Eastern Europe,1,7204687,NA,0,2017,BU,BGR,100,Bulgaria,11063,7744591,150,151,25.231,42.761
Xipre,106,600,CY,196,CY,CYP,Àsia,Àsia occidental,Asia,Western Asia,1,531640,NA,0,2017,CY,CYP,196,Cyprus,924,836321,142,145,33.219,35.043
Dinamarca,107,8,DK,208,DK,DNK,Europa,Europa septentrional,Europe,Northern Europe,1,5500510,NA,0,2017,DA,DNK,208,Denmark,4243,5416945,150,154,9.264,56.058
Espanya,108,11,ES,724,ES,ESP,Europa,Europa meridional,Europe,Southern Europe,1,40525002,NA,0,2017,SP,ESP,724,Spain,49904,43397491,150,39,-3.649,40.227
Finlàndia,109,32,FI,246,FI,FIN,Europa,Europa septentrional,Europe,Northern Europe,1,5250275,NA,0,2017,FI,FIN,246,Finland,30459,5246004,150,154,26.272,64.504
França,110,1,FR,250,FR,FRA,Europa,Europa occidental,Europe,Western Europe,1,64057792,NA,0,2017,FR,FRA,250,France,55010,60990544,150,155,2.55,46.565
Grècia,111,9,GR,300,GR,GRC,Europa,Europa meridional,Europe,Southern Europe,1,10737428,NA,0,2017,GR,GRC,300,Greece,12890,11099737,150,39,21.766,39.666
Hongria,112,64,HU,348,HU,HUN,Europa,Europa oriental,Europe,Eastern Europe,1,9905596,NA,0,2017,HU,HUN,348,Hungary,9210,10086387,150,151,19.134,47.07
Irlanda,113,7,IE,372,IE,IRL,Europa,Europa septentrional,Europe,Northern Europe,1,4203200,NA,0,2017,EI,IRL,372,Ireland,6889,4143294,150,154,-8.152,53.177
Islàndia,114,24,IS,352,IS,ISL,Europa,Europa septentrional,Europe,Northern Europe,NA,306694,NA,0,2017,IC,ISL,352,Iceland,10025,295732,150,154,-18.48,64.764
Itàlia,115,5,IT,380,IT,ITA,Europa,Europa meridional,Europe,Southern Europe,1,58126212,NA,0,2017,IT,ITA,380,Italy,29411,5864636,150,39,10.44,44.931
Liechtenstein,116,37,LI,438,LI,LIE,Europa,Europa occidental,Europe,Western Europe,NA,34761,NA,0,2017,LS,LIE,438,Liechtenstein,16,34598,150,155,9.555,47.153
Luxemburg,117,18,LU,442,LU,LUX,Europa,Europa occidental,Europe,Western Europe,1,491775,NA,0,2017,LU,LUX,442,Luxembourg,0,456613,150,155,6.088,49.771
Malta,118,46,MT,470,MT,MLT,Europa,Europa meridional,Europe,Southern Europe,1,405165,NA,0,2017,MT,MLT,470,Malta,32,402617,150,39,14.442,35.89
Mònaco,119,1,FR,492,MC,MCO,Europa,Europa occidental,Europe,Western Europe,NA,32965,NA,0,2017,MN,MCO,492,Monaco,0,325,150,155,7.412,43.75
Noruega,120,28,NO,578,NO,NOR,Europa,Europa septentrional,Europe,Northern Europe,NA,4676305,NA,0,2017,NO,NOR,578,Norway,30625,4638836,150,154,8.74,61.152
Països Baixos,121,3,NL,528,NL,NLD,Europa,Europa occidental,Europe,Western Europe,1,16715999,NA,0,2017,NL,NLD,528,Netherlands,3388,1632769,150,155,5.389,52.077
Polònia,122,60,PL,616,PL,POL,Europa,Europa oriental,Europe,Eastern Europe,1,38482919,NA,0,2017,PL,POL,616,Poland,30629,38195558,150,151,19.401,52.125
Portugal,123,10,PT,620,PT,PRT,Europa,Europa meridional,Europe,Southern Europe,1,10707924,NA,0,2017,PO,PRT,620,Portugal,9150,10528226,150,39,-8.058,40.309
Andorra,124,43,AD,20,AD,AND,Europa,Europa meridional,Europe,Southern Europe,NA,83888,NA,0,2017,AN,AND,20,Andorra,0,73483,150,39,1.576,42.549
Regne Unit,125,6,GB,826,GB,GBR,Europa,Europa septentrional,Europe,Northern Europe,1,61113205,NA,0,2017,UK,GBR,826,United Kingdom,24193,60244834,150,154,-2.9,54.16
Alemanya,126,4,DE,276,DE,DEU,Europa,Europa occidental,Europe,Western Europe,1,82329758,NA,0,2017,GM,DEU,276,Germany,34895,82652369,150,155,9.851,51.11
Romania,128,66,RO,642,RO,ROU,Europa,Europa oriental,Europe,Eastern Europe,1,22215421,NA,0,2017,RO,ROU,642,Romania,22987,21627557,150,151,24.969,45.844
San Marino,129,47,SM,674,SM,SMR,Europa,Europa meridional,Europe,Southern Europe,NA,30324,NA,0,2017,SM,SMR,674,San Marino,0,30214,150,39,12.46,43.942
Santa Seu,130,45,VA,336,VA,VAT,Europa,Europa meridional,Europe,Southern Europe,NA,826,NA,0,2017,VT,VAT,336,Holy See (Vatican City),0,783,150,39,12.451,41.904
Suècia,131,30,SE,752,SE,SWE,Europa,Europa septentrional,Europe,Northern Europe,1,9059651,NA,0,2017,SW,SWE,752,Sweden,41033,9038049,150,154,15.27,62.011
Suïssa,132,39,CH,756,CH,CHE,Europa,Europa occidental,Europe,Western Europe,NA,7604467,NA,0,2017,SZ,CHE,756,Switzerland,4000,7424389,150,155,7.908,46.861
Ucraïna,135,72,UA,804,UA,UKR,Europa,Europa oriental,Europe,Eastern Europe,NA,45700395,NA,0,2017,UP,UKR,804,Ukraine,57935,46917544,150,151,31.388,49.016
Letònia,136,54,LV,428,LV,LVA,Europa,Europa septentrional,Europe,Northern Europe,1,2231503,NA,0,2017,LG,LVA,428,Latvia,6205,2301793,150,154,25.641,56.858
Moldàvia,137,74,MD,498,MD,MDA,Europa,Europa oriental,Europe,Eastern Europe,NA,4320748,NA,0,2017,MD,MDA,498,Republic of Moldova,3288,3876661,150,151,28.599,47.193
Belarús,138,73,BY,112,BY,BLR,Europa,Europa oriental,Europe,Eastern Europe,NA,9648533,NA,0,2017,BO,BLR,112,Belarus,20748,9795287,150,151,28.047,53.54
Geòrgia,139,76,GE,268,GE,GEO,Àsia,Àsia occidental,Asia,Western Asia,NA,4615807,NA,0,2017,GG,GEO,268,Georgia,6949,4473409,142,145,43.518,42.176
Estònia,141,53,EE,233,EE,EST,Europa,Europa septentrional,Europe,Northern Europe,1,1299371,NA,0,2017,EN,EST,233,Estonia,4239,1344312,150,154,25.793,58.674
Lituània,142,55,LT,440,LT,LTU,Europa,Europa septentrional,Europe,Northern Europe,1,3555179,NA,0,2017,LH,LTU,440,Lithuania,6268,3425077,150,154,23.897,55.336
Txèquia,143,61,CZ,203,CZ,CZE,Europa,Europa oriental,Europe,Eastern Europe,1,10211904,NA,0,2017,EZ,CZE,203,Czech Republic,7727,10191762,150,151,15.338,49.743
Eslovàquia,144,63,SK,703,SK,SVK,Europa,Europa oriental,Europe,Eastern Europe,1,5463046,NA,0,2017,LO,SVK,703,Slovakia,4808,5386995,150,151,19.491,48.707
Bòsnia i Hercegovina,145,93,BA,70,BA,BIH,Europa,Europa meridional,Europe,Southern Europe,NA,4613414,NA,0,2017,BK,BIH,70,Bosnia and Herzegovina,5120,3915238,150,39,17.786,44.169
Croàcia,146,92,HR,191,HR,HRV,Europa,Europa meridional,Europe,Southern Europe,1,4489409,NA,0,2017,HR,HRV,191,Croatia,5592,4455149,150,39,16.693,45.723
Eslovènia,147,91,SI,705,SI,SVN,Europa,Europa meridional,Europe,Southern Europe,1,2005692,NA,0,2017,SI,SVN,705,Slovenia,2014,1999425,150,39,14.827,46.124
Armènia,148,77,AM,51,AM,ARM,Àsia,Àsia occidental,Asia,Western Asia,NA,2967004,NA,0,2017,AM,ARM,51,Armenia,2820,3017661,142,145,44.563,40.534
Rússia,154,75,RU,643,RU,RUS,Europa,Europa oriental,Europe,Eastern Europe,NA,140041247,NA,0,2017,RS,RUS,643,Russia,1638094,143953092,150,151,96.689,61.988
Macedònia,156,96,MK,807,MK,MKD,Europa,Europa meridional,Europe,Southern Europe,NA,2066718,NA,0,2017,MK,MKD,807,The former Yugoslav Republic of Macedonia,2543,2033655,150,39,21.698,41.6
Sèrbia,157,98,XS,688,RS,SRB,Europa,Europa meridional,Europe,Southern Europe,NA,7379339,NA,0,2017,RB,SRB,688,Serbia,0,9863026,150,39,20.806,44.032
Montenegro,158,97,ME,499,ME,MNE,Europa,Europa meridional,Europe,Southern Europe,NA,672180,NA,0,2017,MJ,MNE,499,Montenegro,0,607969,150,39,19.254,42.792
Guernsey,170,6,GB,831,GG,GGY,Europa,Europa septentrional,Europe,Northern Europe,NA,65870,NA,1,2017,GK,GGY,831,Guernsey,0,0,150,154,-2.576,49.459
Svalbard i Jan Mayen,171,28,NO,744,SJ,SJM,Europa,Europa septentrional,Europe,Northern Europe,NA,NA,NA,1,2017,SV,SJM,744,Svalbard,0,0,150,154,18.374,78.83
Fèroe,172,41,FO,234,FO,FRO,Europa,Europa septentrional,Europe,Northern Europe,NA,48856,NA,1,2017,FO,FRO,234,Faroe Islands,0,48205,150,154,-6.864,62.05
Illa de Man,173,6,GB,833,IM,IMN,Europa,Europa septentrional,Europe,Northern Europe,NA,76512,NA,1,2017,IM,IMN,833,Isle of Man,0,78357,150,154,-4.527,54.229
Gibraltar,174,44,GI,292,GI,GIB,Europa,Europa meridional,Europe,Southern Europe,1,NA,NA,1,2017,GI,GIB,292,Gibraltar,0,291,150,39,-5.345,36.138
Jersey,176,6,GB,832,JE,JEY,Europa,Europa septentrional,Europe,Northern Europe,NA,91626,NA,1,2017,JE,JEY,832,Jersey,0,0,150,154,-2.129,49.219
Aland,177,32,FI,248,AX,ALA,Europa,Europa septentrional,Europe,Northern Europe,1,27153,NA,1,2017,NA,ALA,248,Aaland Islands,0,0,150,154,19.952,60.198
Burkina Faso,201,236,BF,854,BF,BFA,Àfrica,Àfrica occidental,Africa,Western Africa,NA,15746232,NA,0,2017,UV,BFA,854,Burkina Faso,27360,13933363,2,11,-1.74,12.278
Angola,202,330,AO,24,AO,AGO,Àfrica,Àfrica central,Africa,Middle Africa,NA,12799293,NA,0,2017,AO,AGO,24,Angola,124670,16095214,2,17,17.544,-12.296
Algèria,203,208,DZ,12,DZ,DZA,Àfrica,Àfrica septentrional,Africa,Northern Africa,NA,34178188,NA,0,2017,AG,DZA,12,Algeria,238174,32854159,2,15,2.632,28.163
Benín,204,284,BJ,204,BJ,BEN,Àfrica,Àfrica occidental,Africa,Western Africa,NA,8791832,NA,0,2017,BN,BEN,204,Benin,11062,8490301,2,11,2.469,10.541
Botswana,205,391,BW,72,BW,BWA,Àfrica,Àfrica meridional,Africa,Southern Africa,NA,1990876,NA,0,2017,BC,BWA,72,Botswana,56673,1835938,2,18,23.815,-22.182
Burundi,206,328,BI,108,BI,BDI,Àfrica,Àfrica oriental,Africa,Eastern Africa,NA,8988091,NA,0,2017,BY,BDI,108,Burundi,2568,7858791,2,14,29.887,-3.356
Cap Verd,207,247,CV,132,CV,CPV,Àfrica,Àfrica occidental,Africa,Western Africa,NA,429474,NA,0,2017,CV,CPV,132,Cape Verde,403,506807,2,11,-23.634,15.071
Camerun,208,302,CM,120,CM,CMR,Àfrica,Àfrica central,Africa,Middle Africa,NA,18879301,NA,0,2017,CM,CMR,120,Cameroon,46540,17795149,2,17,12.277,5.133
"Comores, les",209,375,KM,174,KM,COM,Àfrica,Àfrica oriental,Africa,Eastern Africa,NA,752438,NA,0,2017,CN,COM,174,Comoros,223,797902,2,14,43.337,-11.758
Congo,210,318,CG,178,CG,COG,Àfrica,Àfrica central,Africa,Middle Africa,NA,4012809,NA,0,2017,CF,COG,178,Congo,34150,3609851,2,17,15.986,-0.055
Costa d'Ivori,211,272,CI,384,CI,CIV,Àfrica,Àfrica occidental,Africa,Western Africa,NA,20617068,NA,0,2017,IV,CIV,384,Cote d'Ivoire,31800,18584701,2,11,-5.556,7.632
Djibouti,212,338,DJ,262,DJ,DJI,Àfrica,Àfrica oriental,Africa,Eastern Africa,NA,516055,NA,0,2017,DJ,DJI,262,Djibouti,2318,804206,2,14,42.516,11.9
Egipte,213,220,EG,818,EG,EGY,Àfrica,Àfrica septentrional,Africa,Northern Africa,NA,83082869,NA,0,2017,EG,EGY,818,Egypt,99545,72849793,2,15,29.872,26.494
Etiòpia,214,334,ET,231,ET,ETH,Àfrica,Àfrica oriental,Africa,Eastern Africa,NA,85237338,NA,0,2017,ET,ETH,231,Ethiopia,100000,78985857,2,14,39.616,8.626
Gabon,215,314,GA,266,GA,GAB,Àfrica,Àfrica central,Africa,Middle Africa,NA,1514993,NA,0,2017,GB,GAB,266,Gabon,25767,1290693,2,17,11.797,-0.591
Gàmbia,216,252,GM,270,GM,GMB,Àfrica,Àfrica occidental,Africa,Western Africa,NA,1782893,NA,0,2017,GA,GMB,270,Gambia,1000,1617029,2,11,-15.386,13.453
Ghana,217,276,GH,288,GH,GHA,Àfrica,Àfrica occidental,Africa,Western Africa,NA,23832495,NA,0,2017,GH,GHA,288,Ghana,22754,2253501,2,11,-1.207,7.96
Guinea,218,260,GN,324,GN,GIN,Àfrica,Àfrica occidental,Africa,Western Africa,NA,10057975,NA,0,2017,GV,GIN,324,Guinea,24572,9002656,2,11,-10.942,10.439
Guinea-Bissau,219,257,GW,624,GW,GNB,Àfrica,Àfrica occidental,Africa,Western Africa,NA,1533964,NA,0,2017,PU,GNB,624,Guinea-Bissau,2812,1596929,2,11,-14.651,12.125
Guinea Equatorial,220,310,GQ,226,GQ,GNQ,Àfrica,Àfrica central,Africa,Middle Africa,NA,633441,NA,0,2017,EK,GNQ,226,Equatorial Guinea,2805,484098,2,17,10.488,1.607
Kenya,221,346,KE,404,KE,KEN,Àfrica,Àfrica oriental,Africa,Eastern Africa,NA,39002772,NA,0,2017,KE,KEN,404,Kenya,56914,35598952,2,14,37.858,0.53
Lesotho,222,395,LS,426,LS,LSO,Àfrica,Àfrica meridional,Africa,Southern Africa,NA,2130819,NA,0,2017,LT,LSO,426,Lesotho,3035,1980831,2,18,28.243,-29.581
Libèria,223,268,LR,430,LR,LBR,Àfrica,Àfrica occidental,Africa,Western Africa,NA,3441790,NA,0,2017,LI,LBR,430,Liberia,9632,3441796,2,11,-9.657,6.682
Líbia,224,216,LY,434,LY,LBY,Àfrica,Àfrica septentrional,Africa,Northern Africa,NA,6310434,NA,0,2017,LY,LBY,434,Libyan Arab Jamahiriya,175954,5918217,2,15,18.023,27.044
Madagascar,225,370,MG,450,MG,MDG,Àfrica,Àfrica oriental,Africa,Eastern Africa,NA,20653556,NA,0,2017,MA,MDG,450,Madagascar,58154,18642586,2,14,46.706,-19.374
Malawi,226,386,MW,454,MW,MWI,Àfrica,Àfrica oriental,Africa,Eastern Africa,NA,14268711,NA,0,2017,MI,MWI,454,Malawi,9408,13226091,2,14,33.808,-13.4
Mali,227,232,ML,466,ML,MLI,Àfrica,Àfrica occidental,Africa,Western Africa,NA,12666987,NA,0,2017,ML,MLI,466,Mali,122019,1161109,2,11,-3.524,17.35
"Marroc, el",228,204,MA,504,MA,MAR,Àfrica,Àfrica septentrional,Africa,Northern Africa,NA,34859364,NA,0,2017,MO,MAR,504,Morocco,44630,30494991,2,15,-5.758,32.706
Maurici,229,373,MU,480,MU,MUS,Àfrica,Àfrica oriental,Africa,Eastern Africa,NA,1284264,NA,0,2017,MP,MUS,480,Mauritius,203,1241173,2,14,57.583,-20.255
Mauritània,230,228,MR,478,MR,MRT,Àfrica,Àfrica occidental,Africa,Western Africa,NA,3129486,NA,0,2017,MR,MRT,478,Mauritania,102522,2963105,2,11,-10.332,20.26
Moçambic,231,366,MZ,508,MZ,MOZ,Àfrica,Àfrica oriental,Africa,Eastern Africa,NA,21669278,NA,0,2017,MZ,MOZ,508,Mozambique,78409,20532675,2,14,37.923,-14.422
Namíbia,232,389,NA,516,NA,NAM,Àfrica,Àfrica meridional,Africa,Southern Africa,NA,2108665,NA,0,2017,WA,NAM,516,Namibia,82329,2019677,2,18,17.218,-22.133
Níger,233,240,NE,562,NE,NER,Àfrica,Àfrica occidental,Africa,Western Africa,NA,15306252,NA,0,2017,NG,NER,562,Niger,126670,1326419,2,11,9.398,17.426
Nigèria,234,288,NG,566,NG,NGA,Àfrica,Àfrica occidental,Africa,Western Africa,NA,149229090,NA,0,2017,NI,NGA,566,Nigeria,91077,141356083,2,11,8.105,9.594
República Centreafricana,235,306,CF,140,CF,CAF,Àfrica,Àfrica central,Africa,Middle Africa,NA,4511488,NA,0,2017,CT,CAF,140,Central African Republic,62298,4191429,2,17,20.483,6.571
Sud-àfrica,236,388,ZA,710,ZA,ZAF,Àfrica,Àfrica meridional,Africa,Southern Africa,NA,49052489,NA,0,2017,SF,ZAF,710,South Africa,121447,47938663,2,18,23.121,-30.558
Ruanda,237,324,RW,646,RW,RWA,Àfrica,Àfrica oriental,Africa,Eastern Africa,NA,10473282,NA,0,2017,RW,RWA,646,Rwanda,2467,9233793,2,14,29.917,-1.998
São Tomé i Príncipe,238,311,ST,678,ST,STP,Àfrica,Àfrica central,Africa,Middle Africa,NA,212679,NA,0,2017,TP,STP,678,Sao Tome and Principe,96,152622,2,17,6.629,0.201
Senegal,239,248,SN,686,SN,SEN,Àfrica,Àfrica occidental,Africa,Western Africa,NA,13711597,NA,0,2017,SG,SEN,686,Senegal,19253,1177034,2,11,-14.881,15.013
Seychelles,240,355,SC,690,SC,SYC,Àfrica,Àfrica oriental,Africa,Eastern Africa,NA,87476,NA,0,2017,SE,SYC,690,Seychelles,46,85532,2,14,55.474,-4.647
Sierra Leone,241,264,SL,694,SL,SLE,Àfrica,Àfrica occidental,Africa,Western Africa,NA,6440053,NA,0,2017,SL,SLE,694,Sierra Leone,7162,5586403,2,11,-11.792,8.56
Somàlia,242,342,SO,706,SO,SOM,Àfrica,Àfrica oriental,Africa,Eastern Africa,NA,9832017,NA,0,2017,SO,SOM,706,Somalia,62734,8196395,2,14,48.316,9.774
"Sudan, el",243,224,SD,729,SD,SDN,Àfrica,Àfrica septentrional,Africa,Northern Africa,NA,30894000,NA,0,2017,SU,SDN,736,Sudan,237600,36899747,2,15,30.05,13.832
Swaziland,244,393,SZ,748,SZ,SWZ,Àfrica,Àfrica meridional,Africa,Southern Africa,NA,1123913,NA,0,2017,WZ,SWZ,748,Swaziland,1720,1124529,2,18,31.497,-26.562
Tanzània,245,352,TZ,834,TZ,TZA,Àfrica,Àfrica oriental,Africa,Eastern Africa,NA,41048532,NA,0,2017,TZ,TZA,834,United Republic of Tanzania,88359,38477873,2,14,34.823,-6.27
Txad,246,244,TD,148,TD,TCD,Àfrica,Àfrica central,Africa,Middle Africa,NA,10329208,NA,0,2017,CD,TCD,148,Chad,125920,10145609,2,17,18.665,15.361
Togo,247,280,TG,768,TG,TGO,Àfrica,Àfrica occidental,Africa,Western Africa,NA,6019877,NA,0,2017,TO,TGO,768,Togo,5439,6238572,2,11,1.081,8.799
Tunísia,248,212,TN,788,TN,TUN,Àfrica,Àfrica septentrional,Africa,Northern Africa,NA,10486339,NA,0,2017,TS,TUN,788,Tunisia,15536,10104685,2,15,9.596,35.383
Uganda,249,350,UG,800,UG,UGA,Àfrica,Àfrica oriental,Africa,Eastern Africa,NA,32369558,NA,0,2017,UG,UGA,800,Uganda,19710,28947181,2,14,32.386,1.28
República Democràtica del Congo,250,322,CD,180,CD,COD,Àfrica,Àfrica central,Africa,Middle Africa,NA,68692542,NA,0,2017,CG,COD,180,Democratic Republic of the Congo,226705,58740547,2,17,23.654,-2.876
Zàmbia,251,378,ZM,894,ZM,ZMB,Àfrica,Àfrica oriental,Africa,Eastern Africa,NA,11862740,NA,0,2017,ZA,ZMB,894,Zambia,74339,11478317,2,14,26.32,-14.614
Zimbàbue,252,382,ZW,716,ZW,ZWE,Àfrica,Àfrica oriental,Africa,Eastern Africa,NA,11392629,NA,0,2017,ZI,ZWE,716,Zimbabwe,38685,13119679,2,14,29.872,-19
Eritrea,253,336,ER,232,ER,ERI,Àfrica,Àfrica oriental,Africa,Eastern Africa,NA,5647168,NA,0,2017,ER,ERI,232,Eritrea,10100,4526722,2,14,38.219,16.045
"Sudan del Sud, el",254,224,SS,728,SS,SSD,Àfrica,Àfrica septentrional,Africa,Northern Africa,NA,8260490,NA,0,2017,NA,NA,NA,NA,NA,NA,NA,NA,31.6,4.85
"Saint Helena, Ascenció i Tristan da Cunha",260,329,SH,654,SH,SHN,Àfrica,Àfrica occidental,Africa,Western Africa,NA,7637,NA,1,2017,SH,SHN,654,Saint Helena,0,6399,2,11,-5.71,-15.953
"Reunió, la",261,1,FR,638,RE,REU,Àfrica,Àfrica oriental,Africa,Eastern Africa,1,NA,NA,1,2017,RE,REU,638,Reunion,250,785159,2,14,55.538,-21.122
Mayotte,262,377,YT,175,YT,MYT,Àfrica,Àfrica oriental,Africa,Eastern Africa,1,NA,NA,1,2017,MF,MYT,175,Mayotte,0,0,2,14,45.155,-12.777
Sàhara Occidental,263,NA,EH,732,EH,ESH,Àfrica,Àfrica septentrional,Africa,Northern Africa,NA,NA,NA,0,2017,WI,ESH,732,Western Sahara,0,440428,2,15,-13.706,24.554
Canadà,301,404,CA,124,CA,CAN,Amèrica,Amèrica del nord,Americas,Northern America,NA,33487208,NA,0,2017,CA,CAN,124,Canada,909351,32270507,19,21,-109.433,59.081
"Estats Units, els",302,400,US,840,US,USA,Amèrica,Amèrica del nord,Americas,Northern America,NA,307212123,NA,0,2017,US,USA,840,United States,915896,299846449,19,21,-98.606,39.622
Mèxic,303,412,MX,484,MX,MEX,Amèrica,Amèrica central,Americas,Central America,NA,111211789,NA,0,2017,MX,MEX,484,Mexico,190869,104266392,19,13,-102.535,23.951
Antigua i Barbuda,310,459,AG,28,AG,ATG,Amèrica,Carib,Americas,Caribbean,NA,85632,NA,0,2017,AC,ATG,28,Antigua and Barbuda,44,83039,19,29,-61.783,17.078
"Bahames, les",311,453,BS,44,BS,BHS,Amèrica,Carib,Americas,Caribbean,NA,309156,NA,0,2017,BF,BHS,44,Bahamas,1001,323295,19,29,-78.014,24.628
Barbados,312,469,BB,52,BB,BRB,Amèrica,Carib,Americas,Caribbean,NA,284589,NA,0,2017,BB,BRB,52,Barbados,43,291933,19,29,-59.559,13.153
Belize,313,421,BZ,84,BZ,BLZ,Amèrica,Amèrica central,Americas,Central America,NA,307899,NA,0,2017,BH,BLZ,84,Belize,2281,275546,19,13,-88.602,17.219
Costa Rica,314,436,CR,188,CR,CRI,Amèrica,Amèrica central,Americas,Central America,NA,4253877,NA,0,2017,CS,CRI,188,Costa Rica,5106,4327228,19,13,-83.946,9.971
Cuba,315,448,CU,192,CU,CUB,Amèrica,Carib,Americas,Caribbean,NA,11451652,NA,0,2017,CU,CUB,192,Cuba,10982,11259905,19,29,-77.781,21.297
Dominica,316,460,DM,212,DM,DMA,Amèrica,Carib,Americas,Caribbean,NA,72660,NA,0,2017,DO,DMA,212,Dominica,75,67827,19,29,-61.356,15.475
El Salvador,317,428,SV,222,SV,SLV,Amèrica,Amèrica central,Americas,Central America,NA,7185218,NA,0,2017,ES,SLV,222,El Salvador,2072,6668356,19,13,-88.866,13.736
Grenada,318,473,GD,308,GD,GRD,Amèrica,Carib,Americas,Caribbean,NA,90739,NA,0,2017,GJ,GRD,308,Grenada,34,105237,19,29,-61.678,12.118
Guatemala,319,416,GT,320,GT,GTM,Amèrica,Amèrica central,Americas,Central America,NA,13276517,NA,0,2017,GT,GTM,320,Guatemala,10843,12709564,19,13,-90.398,15.256
Haití,320,452,HT,332,HT,HTI,Amèrica,Carib,Americas,Caribbean,NA,9035536,NA,0,2017,HA,HTI,332,Haiti,2756,9296291,19,29,-72.278,19.142
Hondures,321,424,HN,340,HN,HND,Amèrica,Amèrica central,Americas,Central America,NA,7792854,NA,0,2017,HO,HND,340,Honduras,11189,683411,19,13,-86.863,14.819
Jamaica,322,464,JM,388,JM,JAM,Amèrica,Carib,Americas,Caribbean,NA,2825928,NA,0,2017,JM,JAM,388,Jamaica,1083,2682469,19,29,-77.32,18.151
Nicaragua,323,432,NI,558,NI,NIC,Amèrica,Amèrica central,Americas,Central America,NA,5891199,NA,0,2017,NU,NIC,558,Nicaragua,12140,5462539,19,13,-85.034,12.84
Panamà,324,442,PA,591,PA,PAN,Amèrica,Amèrica central,Americas,Central America,NA,3360474,NA,0,2017,PM,PAN,591,Panama,7443,3231502,19,13,-80.92,8.384
Saint Vincent i les Grenadines,325,467,VC,670,VC,VCT,Amèrica,Carib,Americas,Caribbean,NA,104574,NA,0,2017,VC,VCT,670,Saint Vincent and the Grenadines,39,119137,19,29,-61.194,13.248
República Dominicana,326,456,DO,214,DO,DOM,Amèrica,Carib,Americas,Caribbean,NA,9650054,NA,0,2017,DR,DOM,214,Dominican Republic,4838,9469601,19,29,-70.729,19.015
Trinidad i Tobago,327,472,TT,780,TT,TTO,Amèrica,Carib,Americas,Caribbean,NA,1310000,NA,0,2017,TD,TTO,780,Trinidad and Tobago,513,1323722,19,29,-61.253,10.468
Saint Lucia,328,465,LC,662,LC,LCA,Amèrica,Carib,Americas,Caribbean,NA,160267,NA,0,2017,ST,LCA,662,Saint Lucia,61,16124,19,29,-60.969,13.898
Saint Kitts i Nevis,329,449,KN,659,KN,KNA,Amèrica,Carib,Americas,Caribbean,NA,40131,NA,0,2017,SC,KNA,659,Saint Kitts and Nevis,36,49138,19,29,-62.769,17.34
Argentina,340,528,AR,32,AR,ARG,Amèrica,Amèrica del sud,Americas,South America,NA,40913584,NA,0,2017,AR,ARG,32,Argentina,273669,38747148,19,5,-65.167,-35.377
Bolívia,341,516,BO,68,BO,BOL,Amèrica,Amèrica del sud,Americas,South America,NA,9775246,NA,0,2017,BL,BOL,68,Bolivia,108438,9182015,19,5,-64.671,-16.715
Brasil,342,508,BR,76,BR,BRA,Amèrica,Amèrica del sud,Americas,South America,NA,198739269,NA,0,2017,BR,BRA,76,Brazil,845942,186830759,19,5,-53.089,-10.772
Colòmbia,343,480,CO,170,CO,COL,Amèrica,Amèrica del sud,Americas,South America,NA,45644023,NA,0,2017,CO,COL,170,Colombia,103870,4494579,19,5,-73.076,3.9
Xile,344,512,CL,152,CL,CHL,Amèrica,Amèrica del sud,Americas,South America,NA,16601707,NA,0,2017,CI,CHL,152,Chile,74880,16295102,19,5,-69.433,-23.389
Equador,345,500,EC,218,EC,ECU,Amèrica,Amèrica del sud,Americas,South America,NA,14573101,NA,0,2017,EC,ECU,218,Ecuador,27684,13060993,19,5,-78.497,-1.385
Guyana,346,488,GY,328,GY,GUY,Amèrica,Amèrica del sud,Americas,South America,NA,772298,NA,0,2017,GY,GUY,328,Guyana,19685,739472,19,5,-58.974,4.792
Paraguai,347,520,PY,600,PY,PRY,Amèrica,Amèrica del sud,Americas,South America,NA,6995655,NA,0,2017,PA,PRY,600,Paraguay,39730,5904342,19,5,-58.391,-23.236
Perú,348,504,PE,604,PE,PER,Amèrica,Amèrica del sud,Americas,South America,NA,29546963,NA,0,2017,PE,PER,604,Peru,128000,27274266,19,5,-75.552,-9.326
Surinam,349,492,SR,740,SR,SUR,Amèrica,Amèrica del sud,Americas,South America,NA,481267,NA,0,2017,NS,SUR,740,Suriname,15600,452468,19,5,-55.912,4.127
Uruguai,350,524,UY,858,UY,URY,Amèrica,Amèrica del sud,Americas,South America,NA,3494382,NA,0,2017,UY,URY,858,Uruguay,17502,3325727,19,5,-56.012,-32.8
Veneçuela,351,484,VE,862,VE,VEN,Amèrica,Amèrica del sud,Americas,South America,NA,26814843,NA,0,2017,VE,VEN,862,Venezuela,88205,26725573,19,5,-66.166,7.125
Saint-Pierre-et-Miquelon,370,408,PM,666,PM,SPM,Amèrica,Amèrica del nord,Americas,Northern America,NA,7051,NA,1,2017,SB,SPM,666,Saint Pierre and Miquelon,0,6346,19,21,-56.325,47.042
Groenlàndia,371,406,GL,304,GL,GRL,Amèrica,Amèrica del nord,Americas,Northern America,NA,57600,NA,1,2017,GL,GRL,304,Greenland,41045,57475,19,21,-41.391,74.719
Illes Caiman,380,463,KY,136,KY,CYM,Amèrica,Carib,Americas,Caribbean,NA,49035,NA,1,2017,CJ,CYM,136,Cayman Islands,26,45591,19,29,-81.198,19.314
Illes Turks i Caicos,381,454,TC,796,TC,TCA,Amèrica,Carib,Americas,Caribbean,NA,22942,NA,1,2017,TK,TCA,796,Turks and Caicos Islands,0,24459,19,29,-71.95,21.902
Illes Verges dels Estats Units,382,457,VI,850,VI,VIR,Amèrica,Carib,Americas,Caribbean,NA,109825,NA,1,2017,VQ,VIR,850,United States Virgin Islands,35,111408,19,29,-64.785,17.741
Guadalupe,383,1,FR,312,GP,GLP,Amèrica,Carib,Americas,Caribbean,1,NA,NA,1,2017,GP,GLP,312,Guadeloupe,169,438403,19,29,-61.441,16.286
Bermudes,384,413,BM,60,BM,BMU,Amèrica,Amèrica del nord,Americas,Northern America,NA,67837,NA,1,2017,BD,BMU,60,Bermuda,5,64174,19,21,-64.709,32.336
Saint-Martin,385,1,FR,663,MF,MAF,Amèrica,Carib,Americas,Caribbean,1,29820,NA,1,2017,RN,MAF,663,Saint Martin,0,0,19,29,-63.041,18.094
Martinica,386,1,FR,474,MQ,MTQ,Amèrica,Carib,Americas,Caribbean,1,NA,NA,1,2017,MB,MTQ,474,Martinique,106,395896,19,29,-61.021,14.653
Montserrat,387,470,MS,500,MS,MSR,Amèrica,Carib,Americas,Caribbean,NA,5097,NA,1,2017,MH,MSR,500,Montserrat,10,5628,19,29,-62.187,16.736
Anguilla,388,446,AI,660,AI,AIA,Amèrica,Carib,Americas,Caribbean,NA,14436,NA,1,2017,AV,AIA,660,Anguilla,0,12256,19,29,-63.032,18.237
Saint-Barthélemy,389,1,BL,652,BL,BLM,Amèrica,Carib,Americas,Caribbean,NA,7448,NA,1,2017,TB,BLM,652,Saint Barthelemy,0,0,19,29,-63.043,18.04
Puerto Rico,390,400,US,630,PR,PRI,Amèrica,Carib,Americas,Caribbean,NA,3971020,NA,1,2017,RQ,PRI,630,Puerto Rico,887,3946779,19,29,-66.466,18.221
Aruba,391,474,AW,533,AW,ABW,Amèrica,Carib,Americas,Caribbean,NA,103065,NA,1,2017,AA,ABW,533,Aruba,0,102897,19,29,-69.977,12.517
Illes Verges Britàniques,393,468,VG,92,VG,VGB,Amèrica,Carib,Americas,Caribbean,NA,24491,NA,1,2017,VI,VGB,92,British Virgin Islands,15,22016,19,29,-64.39,18.483
Guaiana Francesa,394,1,FR,254,GF,GUF,Amèrica,Amèrica del sud,Americas,South America,1,236250,NA,1,2017,FG,GUF,254,French Guiana,8815,192099,19,5,-53.241,3.924
Illes Falkland (Malvines),395,529,FK,238,FK,FLK,Amèrica,Amèrica del sud,Americas,South America,NA,3140,NA,1,2017,FK,FLK,238,Falkland Islands (Malvinas),1217,2975,19,5,-58.694,-51.665
Afganistan,401,660,AF,4,AF,AFG,Àsia,Àsia meridional,Asia,Southern Asia,NA,28400000,NA,0,2017,AF,AFG,4,Afghanistan,65209,25067407,142,34,65.216,33.677
Aràbia Saudí,402,632,SA,682,SA,SAU,Àsia,Àsia occidental,Asia,Western Asia,NA,28686633,NA,0,2017,SA,SAU,682,Saudi Arabia,214969,2361236,142,145,44.585,24.023
Bahrain,403,640,BH,48,BH,BHR,Àsia,Àsia occidental,Asia,Western Asia,NA,727785,NA,0,2017,BA,BHR,48,Bahrain,71,724788,142,145,50.562,26.019
Bangladesh,404,666,BD,50,BD,BGD,Àsia,Àsia meridional,Asia,Southern Asia,NA,156050883,NA,0,2017,BG,BGD,50,Bangladesh,13017,15328112,142,34,89.941,24.218
Myanmar,405,676,MM,104,MM,MMR,Àsia,Àsià sud-oriental,Asia,South-Eastern Asia,NA,48137741,NA,0,2017,BM,MMR,104,Burma,65755,47967266,142,35,96.041,21.718
Xina,407,720,CN,156,CN,CHN,Àsia,Àsia oriental,Asia,Eastern Asia,NA,1338612968,NA,0,2017,CH,CHN,156,China,932743,1312978855,142,30,106.514,33.42
"Emirats Àrabs Units, els",408,647,AE,784,AE,ARE,Àsia,Àsia occidental,Asia,Western Asia,NA,4798491,NA,0,2017,AE,ARE,784,United Arab Emirates,8360,4104291,142,145,54.163,23.549
Filipines,409,708,PH,608,PH,PHL,Àsia,Àsià sud-oriental,Asia,South-Eastern Asia,NA,97976603,NA,0,2017,RP,PHL,608,Philippines,29817,84566163,142,35,122.466,11.118
Índia,410,664,IN,356,IN,IND,Àsia,Àsia meridional,Asia,Southern Asia,NA,1166079217,NA,0,2017,IN,IND,356,India,297319,1134403141,142,34,79.619,22.881
Indonèsia,411,700,ID,360,ID,IDN,Àsia,Àsià sud-oriental,Asia,South-Eastern Asia,NA,240271522,NA,0,2017,ID,IDN,360,Indonesia,181157,226063044,142,35,114.252,-0.976
"Iraq, l'",412,612,IQ,368,IQ,IRQ,Àsia,Àsia occidental,Asia,Western Asia,NA,28945657,NA,0,2017,IZ,IRQ,368,Iraq,43737,27995984,142,145,43.772,33.048
Iran,413,616,IR,364,IR,IRN,Àsia,Àsia meridional,Asia,Southern Asia,NA,66429284,NA,0,2017,IR,IRN,364,Iran (Islamic Republic of),163620,69420607,142,34,54.301,32.565
Israel,414,624,IL,376,IL,ISR,Àsia,Àsia occidental,Asia,Western Asia,NA,7233701,NA,0,2017,IS,ISR,376,Israel,2171,6692037,142,145,34.851,31.026
Japó,415,732,JP,392,JP,JPN,Àsia,Àsia oriental,Asia,Eastern Asia,NA,127078679,NA,0,2017,JA,JPN,392,Japan,36450,12789674,142,30,139.068,36.491
Jordània,416,628,JO,400,JO,JOR,Àsia,Àsia occidental,Asia,Western Asia,NA,6342948,NA,0,2017,JO,JOR,400,Jordan,8824,5544066,142,145,36.319,30.703
Cambodja,417,696,KH,116,KH,KHM,Àsia,Àsià sud-oriental,Asia,South-Eastern Asia,NA,14494293,NA,0,2017,CB,KHM,116,Cambodia,17652,13955507,142,35,104.564,12.714
Kuwait,418,636,KW,414,KW,KWT,Àsia,Àsia occidental,Asia,Western Asia,NA,2691158,NA,0,2017,KU,KWT,414,Kuwait,1782,2700,142,145,47.376,29.476
Lao,419,684,LA,418,LA,LAO,Àsia,Àsià sud-oriental,Asia,South-Eastern Asia,NA,6834942,NA,0,2017,LA,LAO,418,Lao People's Democratic Republic,23080,566391,142,35,102.471,19.905
Líban,420,604,LB,422,LB,LBN,Àsia,Àsia occidental,Asia,Western Asia,NA,4017095,NA,0,2017,LE,LBN,422,Lebanon,1023,401074,142,145,35.888,33.92
Malàisia,421,701,MY,458,MY,MYS,Àsia,Àsià sud-oriental,Asia,South-Eastern Asia,NA,25715819,NA,0,2017,MY,MYS,458,Malaysia,32855,25652985,142,35,102.195,4.201
Maldives,422,667,MV,462,MV,MDV,Àsia,Àsia meridional,Asia,Southern Asia,NA,396334,NA,0,2017,MV,MDV,462,Maldives,30,295297,142,34,72.92,3.548
Mongòlia,423,716,MN,496,MN,MNG,Àsia,Àsia oriental,Asia,Eastern Asia,NA,3041142,NA,0,2017,MG,MNG,496,Mongolia,156650,2580704,142,30,102.876,46.056
Nepal,424,672,NP,524,NP,NPL,Àsia,Àsia meridional,Asia,Southern Asia,NA,28563377,NA,0,2017,NP,NPL,524,Nepal,14300,27093656,142,34,83.939,28.253
Oman,425,649,OM,512,OM,OMN,Àsia,Àsia occidental,Asia,Western Asia,NA,3418085,NA,0,2017,MU,OMN,512,Oman,30950,2507042,142,145,57.407,21.656
Pakistan,426,662,PK,586,PK,PAK,Àsia,Àsia meridional,Asia,Southern Asia,NA,176242949,NA,0,2017,PK,PAK,586,Pakistan,77088,158080591,142,34,69.386,29.967
Qatar,427,644,QA,634,QA,QAT,Àsia,Àsia occidental,Asia,Western Asia,NA,833285,NA,0,2017,QA,QAT,634,Qatar,1100,796186,142,145,51.191,25.316
Corea del Sud,430,728,KR,410,KR,KOR,Àsia,Àsia oriental,Asia,Eastern Asia,NA,48508972,NA,0,2017,KS,KOR,410,"Korea, Republic of",9873,47869837,142,30,128.103,36.504
Corea del Nord,431,724,KP,408,KP,PRK,Àsia,Àsia oriental,Asia,Eastern Asia,NA,22665345,NA,0,2017,KN,PRK,408,"Korea, Democratic People's Republic of",12041,23615611,142,30,126.451,39.778
Singapur,432,706,SG,702,SG,SGP,Àsia,Àsià sud-oriental,Asia,South-Eastern Asia,NA,4657542,NA,0,2017,SN,SGP,702,Singapore,67,4327468,142,35,103.808,1.351
Síria,433,608,SY,760,SY,SYR,Àsia,Àsia occidental,Asia,Western Asia,NA,20178485,NA,0,2017,SY,SYR,760,Syrian Arab Republic,18378,18893881,142,145,38.506,35.013
Sri Lanka,434,669,LK,144,LK,LKA,Àsia,Àsia meridional,Asia,Southern Asia,NA,21324791,NA,0,2017,CE,LKA,144,Sri Lanka,6463,19120763,142,34,80.704,7.612
Tailàndia,435,680,TH,764,TH,THA,Àsia,Àsià sud-oriental,Asia,South-Eastern Asia,NA,65905410,NA,0,2017,TH,THA,764,Thailand,51089,63002911,142,35,100.844,15.7
Turquia,436,52,TR,792,TR,TUR,Àsia,Àsia occidental,Asia,Western Asia,NA,76805524,NA,0,2017,TU,TUR,792,Turkey,76963,72969723,142,145,35.179,39.061
Vietnam,437,690,VN,704,VN,VNM,Àsia,Àsià sud-oriental,Asia,South-Eastern Asia,NA,86967524,NA,0,2017,VM,VNM,704,Viet Nam,32549,85028643,142,35,105.314,21.491
"Taiwan,Xina",438,736,TW,158,TW,TWN,Àsia,Àsia oriental,Asia,Eastern Asia,NA,22974347,China-Taiwan,0,2017,TW,TWN,158,Taiwan,0,0,0,0,120.946,23.754
Brunei,439,703,BN,96,BN,BRN,Àsia,Àsià sud-oriental,Asia,South-Eastern Asia,NA,388190,NA,0,2017,BX,BRN,96,Brunei Darussalam,527,373831,142,35,114.591,4.468
Illes Marshall,440,824,MH,584,MH,MHL,Oceania,Micronèsia,Oceania,Micronesia,NA,64522,NA,0,2017,RM,MHL,584,Marshall Islands,0,5672,9,57,168.963,7.595
"Iemen, el",441,653,YE,887,YE,YEM,Àsia,Àsia occidental,Asia,Western Asia,NA,23822783,NA,0,2017,YM,YEM,887,Yemen,52797,21095679,142,145,48.355,15.807
Azerbaidjan,442,78,AZ,31,AZ,AZE,Àsia,Àsia occidental,Asia,Western Asia,NA,8238672,NA,0,2017,AJ,AZE,31,Azerbaijan,8260,8352021,142,145,47.395,40.43
Kazakhstan,443,79,KZ,398,KZ,KAZ,Àsia,Àsia central,Asia,Central Asia,NA,15399437,NA,0,2017,KZ,KAZ,398,Kazakhstan,269970,15210609,142,143,67.301,48.16
Kirguizstan,444,83,KG,417,KG,KGZ,Àsia,Àsia central,Asia,Central Asia,NA,5431747,NA,0,2017,KG,KGZ,417,Kyrgyzstan,19180,5203547,142,143,74.555,41.465
Tadjikistan,445,82,TJ,762,TJ,TJK,Àsia,Àsia central,Asia,Central Asia,NA,7349145,NA,0,2017,TI,TJK,762,Tajikistan,13996,6550213,142,143,69.42,38.665
Turkmenistan,446,80,TM,795,TM,TKM,Àsia,Àsia central,Asia,Central Asia,NA,4884887,NA,0,2017,TX,TKM,795,Turkmenistan,46993,4833266,142,143,59.384,39.122
Uzbekistan,447,81,UZ,860,UZ,UZB,Àsia,Àsia central,Asia,Central Asia,NA,27606007,NA,0,2017,UZ,UZB,860,Uzbekistan,42540,26593123,142,143,63.17,41.75
Bhutan,448,675,BT,64,BT,BTN,Àsia,Àsia meridional,Asia,Southern Asia,NA,691141,NA,0,2017,BT,BTN,64,Bhutan,4700,637013,142,34,90.429,27.415
Territoris Palestins [o Palestina],449,625,PS,275,PS,PSE,Àsia,Àsia occidental,Asia,Western Asia,NA,2514845,NA,0,2017,NA,PSE,275,Palestine,0,3762005,142,145,35.278,32.037
"Hong Kong, Xina",450,740,HK,344,HK,HKG,Àsia,Àsia oriental,Asia,Eastern Asia,NA,7055071,NA,1,2017,HK,HKG,344,Hong Kong,0,7057418,142,30,114.129,22.423
Guam,454,831,GU,316,GU,GUM,Oceania,Micronèsia,Oceania,Micronesia,NA,178430,NA,1,2017,GQ,GUM,316,Guam,55,16857,9,57,144.707,13.385
"Macao, Xina",455,743,MO,446,MO,MAC,Àsia,Àsia oriental,Asia,Eastern Asia,NA,559846,NA,1,2017,MC,MAC,446,Macau,0,47309,142,30,113.545,22.2
Illes Marianes del Nord,456,820,MP,580,MP,MNP,Oceania,Micronèsia,Oceania,Micronesia,NA,88662,NA,1,2017,CQ,MNP,580,Northern Mariana Islands,0,80258,9,57,145.623,15.005
Austràlia,501,800,AU,36,AU,AUS,Oceania,Austràlia i Nova Zelanda,Oceania,Australia and New Zealand,NA,21262641,NA,0,2017,AS,AUS,36,Australia,768230,20310208,9,53,136.189,-24.973
Fiji,502,815,FJ,242,FJ,FJI,Oceania,Melanèsia,Oceania,Melanesia,NA,944720,NA,0,2017,FJ,FJI,242,Fiji,1827,828046,9,54,177.974,-17.819
Nova Zelanda,504,804,NZ,554,NZ,NZL,Oceania,Austràlia i Nova Zelanda,Oceania,Australia and New Zealand,NA,4213418,NA,0,2017,NZ,NZL,554,New Zealand,26799,4097112,9,53,172.235,-42.634
Papua Nova Guinea,505,801,PG,598,PG,PNG,Oceania,Melanèsia,Oceania,Melanesia,NA,6057263,NA,0,2017,PP,PNG,598,Papua New Guinea,45286,6069715,9,54,143.459,-5.949
Illes Salomó,506,806,SB,90,SB,SLB,Oceania,Melanèsia,Oceania,Melanesia,NA,595613,NA,0,2017,BP,SLB,90,Solomon Islands,2799,472419,9,54,160.109,-9.611
Samoa,507,819,WS,882,WS,WSM,Oceania,Polinèsia,Oceania,Polynesia,NA,219998,NA,0,2017,WS,WSM,882,Samoa,283,183845,9,61,-172.414,-13.652
Tonga,508,817,TO,776,TO,TON,Oceania,Polinèsia,Oceania,Polynesia,NA,120898,NA,0,2017,TN,TON,776,Tonga,72,99361,9,61,-175.185,-21.202
Vanuatu,509,816,VU,548,VU,VUT,Oceania,Melanèsia,Oceania,Melanesia,NA,218519,NA,0,2017,NH,VUT,548,Vanuatu,1219,215366,9,54,166.899,-15.376
Micronèsia,511,823,FM,583,FM,FSM,Oceania,Micronèsia,Oceania,Micronesia,NA,107434,NA,0,2017,FM,FSM,583,"Micronesia, Federated States of",70,110058,9,57,158.235,6.883
Tuvalu,512,807,TV,798,TV,TUV,Oceania,Polinèsia,Oceania,Polynesia,NA,12373,NA,0,2017,TV,TUV,798,Tuvalu,3,10441,9,61,179.219,-8.514
Illes Cook,513,837,CK,184,CK,COK,Oceania,Polinèsia,Oceania,Polynesia,NA,11870,NA,1,2017,CW,COK,184,Cook Islands,24,13984,9,61,-159.782,-21.219
Kiribati,514,812,KI,296,KI,KIR,Oceania,Micronèsia,Oceania,Micronesia,NA,112850,NA,0,2017,KR,KIR,296,Kiribati,73,92003,9,57,175.036,-1.508
Nauru,515,803,NR,520,NR,NRU,Oceania,Micronèsia,Oceania,Micronesia,NA,14019,NA,0,2017,NR,NRU,520,Nauru,2,10111,9,57,166.93,-0.522
Palau,516,825,PW,585,PW,PLW,Oceania,Micronèsia,Oceania,Micronesia,NA,20796,NA,0,2017,PS,PLW,585,Palau,0,20127,9,57,134.57,7.501
Timor-Leste,517,626,TL,626,TL,TLS,Àsia,Àsià sud-oriental,Asia,South-Eastern Asia,NA,1131612,NA,0,2017,TT,TLS,626,Timor-Leste,1487,1067285,142,35,125.878,-8.822
Polinèsia Francesa,520,822,PF,258,PF,PYF,Oceania,Polinèsia,Oceania,Polynesia,NA,287032,NA,1,2017,FP,PYF,258,French Polynesia,366,255632,9,61,-149.462,-17.626
Illa Norfolk,521,836,NF,574,NF,NFK,Oceania,Austràlia i Nova Zelanda,Oceania,Australia and New Zealand,NA,2141,NA,1,2017,NF,NFK,574,Norfolk Island,0,0,9,53,167.953,-29.037
Niue,523,838,NU,570,NU,NIU,Oceania,Polinèsia,Oceania,Polynesia,NA,1398,NA,1,2017,NE,NIU,570,Niue,26,1632,9,61,-169.869,-19.052
Pitcairn,524,813,PN,612,PN,PCN,Oceania,Polinèsia,Oceania,Polynesia,NA,48,NA,1,2017,PC,PCN,612,Pitcairn Islands,0,5,9,61,-128.316,-24.366
Tokelau,525,839,TK,772,TK,TKL,Oceania,Polinèsia,Oceania,Polynesia,NA,NA,NA,1,2017,TL,TKL,772,Tokelau,1,1401,9,61,-171.853,-9.193
Nova Caledònia,526,809,NC,540,NC,NCL,Oceania,Melanèsia,Oceania,Melanesia,NA,227436,NA,1,2017,NC,NCL,540,New Caledonia,1828,234185,9,54,165.447,-21.359
Wallis i Futuna,527,811,WF,876,WF,WLF,Oceania,Polinèsia,Oceania,Polynesia,NA,15289,NA,1,2017,WF,WLF,876,Wallis and Futuna Islands,14,15079,9,61,-178.131,-14.289
Samoa Americana,528,830,AS,16,AS,ASM,Oceania,Polinèsia,Oceania,Polynesia,NA,65628,NA,1,2017,AQ,ASM,16,American Samoa,20,64051,9,61,-170.73,-14.318
Albània,101,70,AL,8,AL,ALB,Europa,Europa meridional,Europe,Southern Europe,NA,3639453,NA,0,2018,AL,ALB,8,Albania,2740,3153731,150,39,20.068,41.143
Àustria,102,38,AT,40,AT,AUT,Europa,Europa occidental,Europe,Western Europe,1,8210281,NA,0,2018,AU,AUT,40,Austria,8245,8291979,150,155,14.912,47.683
Bèlgica,103,17,BE,56,BE,BEL,Europa,Europa occidental,Europe,Western Europe,1,10414336,NA,0,2018,BE,BEL,56,Belgium,0,10398049,150,155,4.664,50.643
Bulgària,104,68,BG,100,BG,BGR,Europa,Europa oriental,Europe,Eastern Europe,1,7204687,NA,0,2018,BU,BGR,100,Bulgaria,11063,7744591,150,151,25.231,42.761
Xipre,106,600,CY,196,CY,CYP,Àsia,Àsia occidental,Asia,Western Asia,1,531640,NA,0,2018,CY,CYP,196,Cyprus,924,836321,142,145,33.219,35.043
Dinamarca,107,8,DK,208,DK,DNK,Europa,Europa septentrional,Europe,Northern Europe,1,5500510,NA,0,2018,DA,DNK,208,Denmark,4243,5416945,150,154,9.264,56.058
Espanya,108,11,ES,724,ES,ESP,Europa,Europa meridional,Europe,Southern Europe,1,40525002,NA,0,2018,SP,ESP,724,Spain,49904,43397491,150,39,-3.649,40.227
Finlàndia,109,32,FI,246,FI,FIN,Europa,Europa septentrional,Europe,Northern Europe,1,5250275,NA,0,2018,FI,FIN,246,Finland,30459,5246004,150,154,26.272,64.504
França,110,1,FR,250,FR,FRA,Europa,Europa occidental,Europe,Western Europe,1,64057792,NA,0,2018,FR,FRA,250,France,55010,60990544,150,155,2.55,46.565
Grècia,111,9,GR,300,GR,GRC,Europa,Europa meridional,Europe,Southern Europe,1,10737428,NA,0,2018,GR,GRC,300,Greece,12890,11099737,150,39,21.766,39.666
Hongria,112,64,HU,348,HU,HUN,Europa,Europa oriental,Europe,Eastern Europe,1,9905596,NA,0,2018,HU,HUN,348,Hungary,9210,10086387,150,151,19.134,47.07
Irlanda,113,7,IE,372,IE,IRL,Europa,Europa septentrional,Europe,Northern Europe,1,4203200,NA,0,2018,EI,IRL,372,Ireland,6889,4143294,150,154,-8.152,53.177
Islàndia,114,24,IS,352,IS,ISL,Europa,Europa septentrional,Europe,Northern Europe,NA,306694,NA,0,2018,IC,ISL,352,Iceland,10025,295732,150,154,-18.48,64.764
Itàlia,115,5,IT,380,IT,ITA,Europa,Europa meridional,Europe,Southern Europe,1,58126212,NA,0,2018,IT,ITA,380,Italy,29411,5864636,150,39,10.44,44.931
Liechtenstein,116,37,LI,438,LI,LIE,Europa,Europa occidental,Europe,Western Europe,NA,34761,NA,0,2018,LS,LIE,438,Liechtenstein,16,34598,150,155,9.555,47.153
Luxemburg,117,18,LU,442,LU,LUX,Europa,Europa occidental,Europe,Western Europe,1,491775,NA,0,2018,LU,LUX,442,Luxembourg,0,456613,150,155,6.088,49.771
Malta,118,46,MT,470,MT,MLT,Europa,Europa meridional,Europe,Southern Europe,1,405165,NA,0,2018,MT,MLT,470,Malta,32,402617,150,39,14.442,35.89
Mònaco,119,1,FR,492,MC,MCO,Europa,Europa occidental,Europe,Western Europe,NA,32965,NA,0,2018,MN,MCO,492,Monaco,0,325,150,155,7.412,43.75
Noruega,120,28,NO,578,NO,NOR,Europa,Europa septentrional,Europe,Northern Europe,NA,4676305,NA,0,2018,NO,NOR,578,Norway,30625,4638836,150,154,8.74,61.152
Països Baixos,121,3,NL,528,NL,NLD,Europa,Europa occidental,Europe,Western Europe,1,16715999,NA,0,2018,NL,NLD,528,Netherlands,3388,1632769,150,155,5.389,52.077
Polònia,122,60,PL,616,PL,POL,Europa,Europa oriental,Europe,Eastern Europe,1,38482919,NA,0,2018,PL,POL,616,Poland,30629,38195558,150,151,19.401,52.125
Portugal,123,10,PT,620,PT,PRT,Europa,Europa meridional,Europe,Southern Europe,1,10707924,NA,0,2018,PO,PRT,620,Portugal,9150,10528226,150,39,-8.058,40.309
Andorra,124,43,AD,20,AD,AND,Europa,Europa meridional,Europe,Southern Europe,NA,83888,NA,0,2018,AN,AND,20,Andorra,0,73483,150,39,1.576,42.549
Regne Unit,125,6,GB,826,GB,GBR,Europa,Europa septentrional,Europe,Northern Europe,1,61113205,NA,0,2018,UK,GBR,826,United Kingdom,24193,60244834,150,154,-2.9,54.16
Alemanya,126,4,DE,276,DE,DEU,Europa,Europa occidental,Europe,Western Europe,1,82329758,NA,0,2018,GM,DEU,276,Germany,34895,82652369,150,155,9.851,51.11
Romania,128,66,RO,642,RO,ROU,Europa,Europa oriental,Europe,Eastern Europe,1,22215421,NA,0,2018,RO,ROU,642,Romania,22987,21627557,150,151,24.969,45.844
San Marino,129,47,SM,674,SM,SMR,Europa,Europa meridional,Europe,Southern Europe,NA,30324,NA,0,2018,SM,SMR,674,San Marino,0,30214,150,39,12.46,43.942
Santa Seu,130,45,VA,336,VA,VAT,Europa,Europa meridional,Europe,Southern Europe,NA,826,NA,0,2018,VT,VAT,336,Holy See (Vatican City),0,783,150,39,12.451,41.904
Suècia,131,30,SE,752,SE,SWE,Europa,Europa septentrional,Europe,Northern Europe,1,9059651,NA,0,2018,SW,SWE,752,Sweden,41033,9038049,150,154,15.27,62.011
Suïssa,132,39,CH,756,CH,CHE,Europa,Europa occidental,Europe,Western Europe,NA,7604467,NA,0,2018,SZ,CHE,756,Switzerland,4000,7424389,150,155,7.908,46.861
Ucraïna,135,72,UA,804,UA,UKR,Europa,Europa oriental,Europe,Eastern Europe,NA,45700395,NA,0,2018,UP,UKR,804,Ukraine,57935,46917544,150,151,31.388,49.016
Letònia,136,54,LV,428,LV,LVA,Europa,Europa septentrional,Europe,Northern Europe,1,2231503,NA,0,2018,LG,LVA,428,Latvia,6205,2301793,150,154,25.641,56.858
Moldàvia,137,74,MD,498,MD,MDA,Europa,Europa oriental,Europe,Eastern Europe,NA,4320748,NA,0,2018,MD,MDA,498,Republic of Moldova,3288,3876661,150,151,28.599,47.193
Belarús,138,73,BY,112,BY,BLR,Europa,Europa oriental,Europe,Eastern Europe,NA,9648533,NA,0,2018,BO,BLR,112,Belarus,20748,9795287,150,151,28.047,53.54
Geòrgia,139,76,GE,268,GE,GEO,Àsia,Àsia occidental,Asia,Western Asia,NA,4615807,NA,0,2018,GG,GEO,268,Georgia,6949,4473409,142,145,43.518,42.176
Estònia,141,53,EE,233,EE,EST,Europa,Europa septentrional,Europe,Northern Europe,1,1299371,NA,0,2018,EN,EST,233,Estonia,4239,1344312,150,154,25.793,58.674
Lituània,142,55,LT,440,LT,LTU,Europa,Europa septentrional,Europe,Northern Europe,1,3555179,NA,0,2018,LH,LTU,440,Lithuania,6268,3425077,150,154,23.897,55.336
Txèquia,143,61,CZ,203,CZ,CZE,Europa,Europa oriental,Europe,Eastern Europe,1,10211904,NA,0,2018,EZ,CZE,203,Czech Republic,7727,10191762,150,151,15.338,49.743
Eslovàquia,144,63,SK,703,SK,SVK,Europa,Europa oriental,Europe,Eastern Europe,1,5463046,NA,0,2018,LO,SVK,703,Slovakia,4808,5386995,150,151,19.491,48.707
Bòsnia i Hercegovina,145,93,BA,70,BA,BIH,Europa,Europa meridional,Europe,Southern Europe,NA,4613414,NA,0,2018,BK,BIH,70,Bosnia and Herzegovina,5120,3915238,150,39,17.786,44.169
Croàcia,146,92,HR,191,HR,HRV,Europa,Europa meridional,Europe,Southern Europe,1,4489409,NA,0,2018,HR,HRV,191,Croatia,5592,4455149,150,39,16.693,45.723
Eslovènia,147,91,SI,705,SI,SVN,Europa,Europa meridional,Europe,Southern Europe,1,2005692,NA,0,2018,SI,SVN,705,Slovenia,2014,1999425,150,39,14.827,46.124
Armènia,148,77,AM,51,AM,ARM,Àsia,Àsia occidental,Asia,Western Asia,NA,2967004,NA,0,2018,AM,ARM,51,Armenia,2820,3017661,142,145,44.563,40.534
Rússia,154,75,RU,643,RU,RUS,Europa,Europa oriental,Europe,Eastern Europe,NA,140041247,NA,0,2018,RS,RUS,643,Russia,1638094,143953092,150,151,96.689,61.988
Macedònia,156,96,MK,807,MK,MKD,Europa,Europa meridional,Europe,Southern Europe,NA,2066718,NA,0,2018,MK,MKD,807,The former Yugoslav Republic of Macedonia,2543,2033655,150,39,21.698,41.6
Sèrbia,157,98,XS,688,RS,SRB,Europa,Europa meridional,Europe,Southern Europe,NA,7379339,NA,0,2018,RB,SRB,688,Serbia,0,9863026,150,39,20.806,44.032
Montenegro,158,97,ME,499,ME,MNE,Europa,Europa meridional,Europe,Southern Europe,NA,672180,NA,0,2018,MJ,MNE,499,Montenegro,0,607969,150,39,19.254,42.792
Guernsey,170,6,GB,831,GG,GGY,Europa,Europa septentrional,Europe,Northern Europe,NA,65870,NA,1,2018,GK,GGY,831,Guernsey,0,0,150,154,-2.576,49.459
Svalbard i Jan Mayen,171,28,NO,744,SJ,SJM,Europa,Europa septentrional,Europe,Northern Europe,NA,NA,NA,1,2018,SV,SJM,744,Svalbard,0,0,150,154,18.374,78.83
Fèroe,172,41,FO,234,FO,FRO,Europa,Europa septentrional,Europe,Northern Europe,NA,48856,NA,1,2018,FO,FRO,234,Faroe Islands,0,48205,150,154,-6.864,62.05
Illa de Man,173,6,GB,833,IM,IMN,Europa,Europa septentrional,Europe,Northern Europe,NA,76512,NA,1,2018,IM,IMN,833,Isle of Man,0,78357,150,154,-4.527,54.229
Gibraltar,174,44,GI,292,GI,GIB,Europa,Europa meridional,Europe,Southern Europe,1,NA,NA,1,2018,GI,GIB,292,Gibraltar,0,291,150,39,-5.345,36.138
Jersey,176,6,GB,832,JE,JEY,Europa,Europa septentrional,Europe,Northern Europe,NA,91626,NA,1,2018,JE,JEY,832,Jersey,0,0,150,154,-2.129,49.219
Aland,177,32,FI,248,AX,ALA,Europa,Europa septentrional,Europe,Northern Europe,1,27153,NA,1,2018,NA,ALA,248,Aaland Islands,0,0,150,154,19.952,60.198
Burkina Faso,201,236,BF,854,BF,BFA,Àfrica,Àfrica occidental,Africa,Western Africa,NA,15746232,NA,0,2018,UV,BFA,854,Burkina Faso,27360,13933363,2,11,-1.74,12.278
Angola,202,330,AO,24,AO,AGO,Àfrica,Àfrica central,Africa,Middle Africa,NA,12799293,NA,0,2018,AO,AGO,24,Angola,124670,16095214,2,17,17.544,-12.296
Algèria,203,208,DZ,12,DZ,DZA,Àfrica,Àfrica septentrional,Africa,Northern Africa,NA,34178188,NA,0,2018,AG,DZA,12,Algeria,238174,32854159,2,15,2.632,28.163
Benín,204,284,BJ,204,BJ,BEN,Àfrica,Àfrica occidental,Africa,Western Africa,NA,8791832,NA,0,2018,BN,BEN,204,Benin,11062,8490301,2,11,2.469,10.541
Botswana,205,391,BW,72,BW,BWA,Àfrica,Àfrica meridional,Africa,Southern Africa,NA,1990876,NA,0,2018,BC,BWA,72,Botswana,56673,1835938,2,18,23.815,-22.182
Burundi,206,328,BI,108,BI,BDI,Àfrica,Àfrica oriental,Africa,Eastern Africa,NA,8988091,NA,0,2018,BY,BDI,108,Burundi,2568,7858791,2,14,29.887,-3.356
Cap Verd,207,247,CV,132,CV,CPV,Àfrica,Àfrica occidental,Africa,Western Africa,NA,429474,NA,0,2018,CV,CPV,132,Cape Verde,403,506807,2,11,-23.634,15.071
Camerun,208,302,CM,120,CM,CMR,Àfrica,Àfrica central,Africa,Middle Africa,NA,18879301,NA,0,2018,CM,CMR,120,Cameroon,46540,17795149,2,17,12.277,5.133
"Comores, les",209,375,KM,174,KM,COM,Àfrica,Àfrica oriental,Africa,Eastern Africa,NA,752438,NA,0,2018,CN,COM,174,Comoros,223,797902,2,14,43.337,-11.758
Congo,210,318,CG,178,CG,COG,Àfrica,Àfrica central,Africa,Middle Africa,NA,4012809,NA,0,2018,CF,COG,178,Congo,34150,3609851,2,17,15.986,-0.055
Costa d'Ivori,211,272,CI,384,CI,CIV,Àfrica,Àfrica occidental,Africa,Western Africa,NA,20617068,NA,0,2018,IV,CIV,384,Cote d'Ivoire,31800,18584701,2,11,-5.556,7.632
Djibouti,212,338,DJ,262,DJ,DJI,Àfrica,Àfrica oriental,Africa,Eastern Africa,NA,516055,NA,0,2018,DJ,DJI,262,Djibouti,2318,804206,2,14,42.516,11.9
Egipte,213,220,EG,818,EG,EGY,Àfrica,Àfrica septentrional,Africa,Northern Africa,NA,83082869,NA,0,2018,EG,EGY,818,Egypt,99545,72849793,2,15,29.872,26.494
Etiòpia,214,334,ET,231,ET,ETH,Àfrica,Àfrica oriental,Africa,Eastern Africa,NA,85237338,NA,0,2018,ET,ETH,231,Ethiopia,100000,78985857,2,14,39.616,8.626
Gabon,215,314,GA,266,GA,GAB,Àfrica,Àfrica central,Africa,Middle Africa,NA,1514993,NA,0,2018,GB,GAB,266,Gabon,25767,1290693,2,17,11.797,-0.591
Gàmbia,216,252,GM,270,GM,GMB,Àfrica,Àfrica occidental,Africa,Western Africa,NA,1782893,NA,0,2018,GA,GMB,270,Gambia,1000,1617029,2,11,-15.386,13.453
Ghana,217,276,GH,288,GH,GHA,Àfrica,Àfrica occidental,Africa,Western Africa,NA,23832495,NA,0,2018,GH,GHA,288,Ghana,22754,2253501,2,11,-1.207,7.96
Guinea,218,260,GN,324,GN,GIN,Àfrica,Àfrica occidental,Africa,Western Africa,NA,10057975,NA,0,2018,GV,GIN,324,Guinea,24572,9002656,2,11,-10.942,10.439
Guinea-Bissau,219,257,GW,624,GW,GNB,Àfrica,Àfrica occidental,Africa,Western Africa,NA,1533964,NA,0,2018,PU,GNB,624,Guinea-Bissau,2812,1596929,2,11,-14.651,12.125
Guinea Equatorial,220,310,GQ,226,GQ,GNQ,Àfrica,Àfrica central,Africa,Middle Africa,NA,633441,NA,0,2018,EK,GNQ,226,Equatorial Guinea,2805,484098,2,17,10.488,1.607
Kenya,221,346,KE,404,KE,KEN,Àfrica,Àfrica oriental,Africa,Eastern Africa,NA,39002772,NA,0,2018,KE,KEN,404,Kenya,56914,35598952,2,14,37.858,0.53
Lesotho,222,395,LS,426,LS,LSO,Àfrica,Àfrica meridional,Africa,Southern Africa,NA,2130819,NA,0,2018,LT,LSO,426,Lesotho,3035,1980831,2,18,28.243,-29.581
Libèria,223,268,LR,430,LR,LBR,Àfrica,Àfrica occidental,Africa,Western Africa,NA,3441790,NA,0,2018,LI,LBR,430,Liberia,9632,3441796,2,11,-9.657,6.682
Líbia,224,216,LY,434,LY,LBY,Àfrica,Àfrica septentrional,Africa,Northern Africa,NA,6310434,NA,0,2018,LY,LBY,434,Libyan Arab Jamahiriya,175954,5918217,2,15,18.023,27.044
Madagascar,225,370,MG,450,MG,MDG,Àfrica,Àfrica oriental,Africa,Eastern Africa,NA,20653556,NA,0,2018,MA,MDG,450,Madagascar,58154,18642586,2,14,46.706,-19.374
Malawi,226,386,MW,454,MW,MWI,Àfrica,Àfrica oriental,Africa,Eastern Africa,NA,14268711,NA,0,2018,MI,MWI,454,Malawi,9408,13226091,2,14,33.808,-13.4
Mali,227,232,ML,466,ML,MLI,Àfrica,Àfrica occidental,Africa,Western Africa,NA,12666987,NA,0,2018,ML,MLI,466,Mali,122019,1161109,2,11,-3.524,17.35
"Marroc, el",228,204,MA,504,MA,MAR,Àfrica,Àfrica septentrional,Africa,Northern Africa,NA,34859364,NA,0,2018,MO,MAR,504,Morocco,44630,30494991,2,15,-5.758,32.706
Maurici,229,373,MU,480,MU,MUS,Àfrica,Àfrica oriental,Africa,Eastern Africa,NA,1284264,NA,0,2018,MP,MUS,480,Mauritius,203,1241173,2,14,57.583,-20.255
Mauritània,230,228,MR,478,MR,MRT,Àfrica,Àfrica occidental,Africa,Western Africa,NA,3129486,NA,0,2018,MR,MRT,478,Mauritania,102522,2963105,2,11,-10.332,20.26
Moçambic,231,366,MZ,508,MZ,MOZ,Àfrica,Àfrica oriental,Africa,Eastern Africa,NA,21669278,NA,0,2018,MZ,MOZ,508,Mozambique,78409,20532675,2,14,37.923,-14.422
Namíbia,232,389,NA,516,NA,NAM,Àfrica,Àfrica meridional,Africa,Southern Africa,NA,2108665,NA,0,2018,WA,NAM,516,Namibia,82329,2019677,2,18,17.218,-22.133
Níger,233,240,NE,562,NE,NER,Àfrica,Àfrica occidental,Africa,Western Africa,NA,15306252,NA,0,2018,NG,NER,562,Niger,126670,1326419,2,11,9.398,17.426
Nigèria,234,288,NG,566,NG,NGA,Àfrica,Àfrica occidental,Africa,Western Africa,NA,149229090,NA,0,2018,NI,NGA,566,Nigeria,91077,141356083,2,11,8.105,9.594
República Centreafricana,235,306,CF,140,CF,CAF,Àfrica,Àfrica central,Africa,Middle Africa,NA,4511488,NA,0,2018,CT,CAF,140,Central African Republic,62298,4191429,2,17,20.483,6.571
Sud-àfrica,236,388,ZA,710,ZA,ZAF,Àfrica,Àfrica meridional,Africa,Southern Africa,NA,49052489,NA,0,2018,SF,ZAF,710,South Africa,121447,47938663,2,18,23.121,-30.558
Ruanda,237,324,RW,646,RW,RWA,Àfrica,Àfrica oriental,Africa,Eastern Africa,NA,10473282,NA,0,2018,RW,RWA,646,Rwanda,2467,9233793,2,14,29.917,-1.998
São Tomé i Príncipe,238,311,ST,678,ST,STP,Àfrica,Àfrica central,Africa,Middle Africa,NA,212679,NA,0,2018,TP,STP,678,Sao Tome and Principe,96,152622,2,17,6.629,0.201
Senegal,239,248,SN,686,SN,SEN,Àfrica,Àfrica occidental,Africa,Western Africa,NA,13711597,NA,0,2018,SG,SEN,686,Senegal,19253,1177034,2,11,-14.881,15.013
Seychelles,240,355,SC,690,SC,SYC,Àfrica,Àfrica oriental,Africa,Eastern Africa,NA,87476,NA,0,2018,SE,SYC,690,Seychelles,46,85532,2,14,55.474,-4.647
Sierra Leone,241,264,SL,694,SL,SLE,Àfrica,Àfrica occidental,Africa,Western Africa,NA,6440053,NA,0,2018,SL,SLE,694,Sierra Leone,7162,5586403,2,11,-11.792,8.56
Somàlia,242,342,SO,706,SO,SOM,Àfrica,Àfrica oriental,Africa,Eastern Africa,NA,9832017,NA,0,2018,SO,SOM,706,Somalia,62734,8196395,2,14,48.316,9.774
"Sudan, el",243,224,SD,729,SD,SDN,Àfrica,Àfrica septentrional,Africa,Northern Africa,NA,30894000,NA,0,2018,SU,SDN,736,Sudan,237600,36899747,2,15,30.05,13.832
Swaziland,244,393,SZ,748,SZ,SWZ,Àfrica,Àfrica meridional,Africa,Southern Africa,NA,1123913,NA,0,2018,WZ,SWZ,748,Swaziland,1720,1124529,2,18,31.497,-26.562
Tanzània,245,352,TZ,834,TZ,TZA,Àfrica,Àfrica oriental,Africa,Eastern Africa,NA,41048532,NA,0,2018,TZ,TZA,834,United Republic of Tanzania,88359,38477873,2,14,34.823,-6.27
Txad,246,244,TD,148,TD,TCD,Àfrica,Àfrica central,Africa,Middle Africa,NA,10329208,NA,0,2018,CD,TCD,148,Chad,125920,10145609,2,17,18.665,15.361
Togo,247,280,TG,768,TG,TGO,Àfrica,Àfrica occidental,Africa,Western Africa,NA,6019877,NA,0,2018,TO,TGO,768,Togo,5439,6238572,2,11,1.081,8.799
Tunísia,248,212,TN,788,TN,TUN,Àfrica,Àfrica septentrional,Africa,Northern Africa,NA,10486339,NA,0,2018,TS,TUN,788,Tunisia,15536,10104685,2,15,9.596,35.383
Uganda,249,350,UG,800,UG,UGA,Àfrica,Àfrica oriental,Africa,Eastern Africa,NA,32369558,NA,0,2018,UG,UGA,800,Uganda,19710,28947181,2,14,32.386,1.28
República Democràtica del Congo,250,322,CD,180,CD,COD,Àfrica,Àfrica central,Africa,Middle Africa,NA,68692542,NA,0,2018,CG,COD,180,Democratic Republic of the Congo,226705,58740547,2,17,23.654,-2.876
Zàmbia,251,378,ZM,894,ZM,ZMB,Àfrica,Àfrica oriental,Africa,Eastern Africa,NA,11862740,NA,0,2018,ZA,ZMB,894,Zambia,74339,11478317,2,14,26.32,-14.614
Zimbàbue,252,382,ZW,716,ZW,ZWE,Àfrica,Àfrica oriental,Africa,Eastern Africa,NA,11392629,NA,0,2018,ZI,ZWE,716,Zimbabwe,38685,13119679,2,14,29.872,-19
Eritrea,253,336,ER,232,ER,ERI,Àfrica,Àfrica oriental,Africa,Eastern Africa,NA,5647168,NA,0,2018,ER,ERI,232,Eritrea,10100,4526722,2,14,38.219,16.045
"Sudan del Sud, el",254,224,SS,728,SS,SSD,Àfrica,Àfrica septentrional,Africa,Northern Africa,NA,8260490,NA,0,2018,NA,NA,NA,NA,NA,NA,NA,NA,31.6,4.85
"Saint Helena, Ascenció i Tristan da Cunha",260,329,SH,654,SH,SHN,Àfrica,Àfrica occidental,Africa,Western Africa,NA,7637,NA,1,2018,SH,SHN,654,Saint Helena,0,6399,2,11,-5.71,-15.953
"Reunió, la",261,1,FR,638,RE,REU,Àfrica,Àfrica oriental,Africa,Eastern Africa,1,NA,NA,1,2018,RE,REU,638,Reunion,250,785159,2,14,55.538,-21.122
Mayotte,262,377,YT,175,YT,MYT,Àfrica,Àfrica oriental,Africa,Eastern Africa,1,NA,NA,1,2018,MF,MYT,175,Mayotte,0,0,2,14,45.155,-12.777
Sàhara Occidental,263,NA,EH,732,EH,ESH,Àfrica,Àfrica septentrional,Africa,Northern Africa,NA,NA,NA,0,2018,WI,ESH,732,Western Sahara,0,440428,2,15,-13.706,24.554
Canadà,301,404,CA,124,CA,CAN,Amèrica,Amèrica del nord,Americas,Northern America,NA,33487208,NA,0,2018,CA,CAN,124,Canada,909351,32270507,19,21,-109.433,59.081
"Estats Units, els",302,400,US,840,US,USA,Amèrica,Amèrica del nord,Americas,Northern America,NA,307212123,NA,0,2018,US,USA,840,United States,915896,299846449,19,21,-98.606,39.622
Mèxic,303,412,MX,484,MX,MEX,Amèrica,Amèrica central,Americas,Central America,NA,111211789,NA,0,2018,MX,MEX,484,Mexico,190869,104266392,19,13,-102.535,23.951
Antigua i Barbuda,310,459,AG,28,AG,ATG,Amèrica,Carib,Americas,Caribbean,NA,85632,NA,0,2018,AC,ATG,28,Antigua and Barbuda,44,83039,19,29,-61.783,17.078
"Bahames, les",311,453,BS,44,BS,BHS,Amèrica,Carib,Americas,Caribbean,NA,309156,NA,0,2018,BF,BHS,44,Bahamas,1001,323295,19,29,-78.014,24.628
Barbados,312,469,BB,52,BB,BRB,Amèrica,Carib,Americas,Caribbean,NA,284589,NA,0,2018,BB,BRB,52,Barbados,43,291933,19,29,-59.559,13.153
Belize,313,421,BZ,84,BZ,BLZ,Amèrica,Amèrica central,Americas,Central America,NA,307899,NA,0,2018,BH,BLZ,84,Belize,2281,275546,19,13,-88.602,17.219
Costa Rica,314,436,CR,188,CR,CRI,Amèrica,Amèrica central,Americas,Central America,NA,4253877,NA,0,2018,CS,CRI,188,Costa Rica,5106,4327228,19,13,-83.946,9.971
Cuba,315,448,CU,192,CU,CUB,Amèrica,Carib,Americas,Caribbean,NA,11451652,NA,0,2018,CU,CUB,192,Cuba,10982,11259905,19,29,-77.781,21.297
Dominica,316,460,DM,212,DM,DMA,Amèrica,Carib,Americas,Caribbean,NA,72660,NA,0,2018,DO,DMA,212,Dominica,75,67827,19,29,-61.356,15.475
El Salvador,317,428,SV,222,SV,SLV,Amèrica,Amèrica central,Americas,Central America,NA,7185218,NA,0,2018,ES,SLV,222,El Salvador,2072,6668356,19,13,-88.866,13.736
Grenada,318,473,GD,308,GD,GRD,Amèrica,Carib,Americas,Caribbean,NA,90739,NA,0,2018,GJ,GRD,308,Grenada,34,105237,19,29,-61.678,12.118
Guatemala,319,416,GT,320,GT,GTM,Amèrica,Amèrica central,Americas,Central America,NA,13276517,NA,0,2018,GT,GTM,320,Guatemala,10843,12709564,19,13,-90.398,15.256
Haití,320,452,HT,332,HT,HTI,Amèrica,Carib,Americas,Caribbean,NA,9035536,NA,0,2018,HA,HTI,332,Haiti,2756,9296291,19,29,-72.278,19.142
Hondures,321,424,HN,340,HN,HND,Amèrica,Amèrica central,Americas,Central America,NA,7792854,NA,0,2018,HO,HND,340,Honduras,11189,683411,19,13,-86.863,14.819
Jamaica,322,464,JM,388,JM,JAM,Amèrica,Carib,Americas,Caribbean,NA,2825928,NA,0,2018,JM,JAM,388,Jamaica,1083,2682469,19,29,-77.32,18.151
Nicaragua,323,432,NI,558,NI,NIC,Amèrica,Amèrica central,Americas,Central America,NA,5891199,NA,0,2018,NU,NIC,558,Nicaragua,12140,5462539,19,13,-85.034,12.84
Panamà,324,442,PA,591,PA,PAN,Amèrica,Amèrica central,Americas,Central America,NA,3360474,NA,0,2018,PM,PAN,591,Panama,7443,3231502,19,13,-80.92,8.384
Saint Vincent i les Grenadines,325,467,VC,670,VC,VCT,Amèrica,Carib,Americas,Caribbean,NA,104574,NA,0,2018,VC,VCT,670,Saint Vincent and the Grenadines,39,119137,19,29,-61.194,13.248
República Dominicana,326,456,DO,214,DO,DOM,Amèrica,Carib,Americas,Caribbean,NA,9650054,NA,0,2018,DR,DOM,214,Dominican Republic,4838,9469601,19,29,-70.729,19.015
Trinidad i Tobago,327,472,TT,780,TT,TTO,Amèrica,Carib,Americas,Caribbean,NA,1310000,NA,0,2018,TD,TTO,780,Trinidad and Tobago,513,1323722,19,29,-61.253,10.468
Saint Lucia,328,465,LC,662,LC,LCA,Amèrica,Carib,Americas,Caribbean,NA,160267,NA,0,2018,ST,LCA,662,Saint Lucia,61,16124,19,29,-60.969,13.898
Saint Kitts i Nevis,329,449,KN,659,KN,KNA,Amèrica,Carib,Americas,Caribbean,NA,40131,NA,0,2018,SC,KNA,659,Saint Kitts and Nevis,36,49138,19,29,-62.769,17.34
Argentina,340,528,AR,32,AR,ARG,Amèrica,Amèrica del sud,Americas,South America,NA,40913584,NA,0,2018,AR,ARG,32,Argentina,273669,38747148,19,5,-65.167,-35.377
Bolívia,341,516,BO,68,BO,BOL,Amèrica,Amèrica del sud,Americas,South America,NA,9775246,NA,0,2018,BL,BOL,68,Bolivia,108438,9182015,19,5,-64.671,-16.715
Brasil,342,508,BR,76,BR,BRA,Amèrica,Amèrica del sud,Americas,South America,NA,198739269,NA,0,2018,BR,BRA,76,Brazil,845942,186830759,19,5,-53.089,-10.772
Colòmbia,343,480,CO,170,CO,COL,Amèrica,Amèrica del sud,Americas,South America,NA,45644023,NA,0,2018,CO,COL,170,Colombia,103870,4494579,19,5,-73.076,3.9
Xile,344,512,CL,152,CL,CHL,Amèrica,Amèrica del sud,Americas,South America,NA,16601707,NA,0,2018,CI,CHL,152,Chile,74880,16295102,19,5,-69.433,-23.389
Equador,345,500,EC,218,EC,ECU,Amèrica,Amèrica del sud,Americas,South America,NA,14573101,NA,0,2018,EC,ECU,218,Ecuador,27684,13060993,19,5,-78.497,-1.385
Guyana,346,488,GY,328,GY,GUY,Amèrica,Amèrica del sud,Americas,South America,NA,772298,NA,0,2018,GY,GUY,328,Guyana,19685,739472,19,5,-58.974,4.792
Paraguai,347,520,PY,600,PY,PRY,Amèrica,Amèrica del sud,Americas,South America,NA,6995655,NA,0,2018,PA,PRY,600,Paraguay,39730,5904342,19,5,-58.391,-23.236
Perú,348,504,PE,604,PE,PER,Amèrica,Amèrica del sud,Americas,South America,NA,29546963,NA,0,2018,PE,PER,604,Peru,128000,27274266,19,5,-75.552,-9.326
Surinam,349,492,SR,740,SR,SUR,Amèrica,Amèrica del sud,Americas,South America,NA,481267,NA,0,2018,NS,SUR,740,Suriname,15600,452468,19,5,-55.912,4.127
Uruguai,350,524,UY,858,UY,URY,Amèrica,Amèrica del sud,Americas,South America,NA,3494382,NA,0,2018,UY,URY,858,Uruguay,17502,3325727,19,5,-56.012,-32.8
Veneçuela,351,484,VE,862,VE,VEN,Amèrica,Amèrica del sud,Americas,South America,NA,26814843,NA,0,2018,VE,VEN,862,Venezuela,88205,26725573,19,5,-66.166,7.125
Saint-Pierre-et-Miquelon,370,408,PM,666,PM,SPM,Amèrica,Amèrica del nord,Americas,Northern America,NA,7051,NA,1,2018,SB,SPM,666,Saint Pierre and Miquelon,0,6346,19,21,-56.325,47.042
Groenlàndia,371,406,GL,304,GL,GRL,Amèrica,Amèrica del nord,Americas,Northern America,NA,57600,NA,1,2018,GL,GRL,304,Greenland,41045,57475,19,21,-41.391,74.719
Illes Caiman,380,463,KY,136,KY,CYM,Amèrica,Carib,Americas,Caribbean,NA,49035,NA,1,2018,CJ,CYM,136,Cayman Islands,26,45591,19,29,-81.198,19.314
Illes Turks i Caicos,381,454,TC,796,TC,TCA,Amèrica,Carib,Americas,Caribbean,NA,22942,NA,1,2018,TK,TCA,796,Turks and Caicos Islands,0,24459,19,29,-71.95,21.902
Illes Verges dels Estats Units,382,457,VI,850,VI,VIR,Amèrica,Carib,Americas,Caribbean,NA,109825,NA,1,2018,VQ,VIR,850,United States Virgin Islands,35,111408,19,29,-64.785,17.741
Guadalupe,383,1,FR,312,GP,GLP,Amèrica,Carib,Americas,Caribbean,1,NA,NA,1,2018,GP,GLP,312,Guadeloupe,169,438403,19,29,-61.441,16.286
Bermudes,384,413,BM,60,BM,BMU,Amèrica,Amèrica del nord,Americas,Northern America,NA,67837,NA,1,2018,BD,BMU,60,Bermuda,5,64174,19,21,-64.709,32.336
Saint-Martin,385,1,FR,663,MF,MAF,Amèrica,Carib,Americas,Caribbean,1,29820,NA,1,2018,RN,MAF,663,Saint Martin,0,0,19,29,-63.041,18.094
Martinica,386,1,FR,474,MQ,MTQ,Amèrica,Carib,Americas,Caribbean,1,NA,NA,1,2018,MB,MTQ,474,Martinique,106,395896,19,29,-61.021,14.653
Montserrat,387,470,MS,500,MS,MSR,Amèrica,Carib,Americas,Caribbean,NA,5097,NA,1,2018,MH,MSR,500,Montserrat,10,5628,19,29,-62.187,16.736
Anguilla,388,446,AI,660,AI,AIA,Amèrica,Carib,Americas,Caribbean,NA,14436,NA,1,2018,AV,AIA,660,Anguilla,0,12256,19,29,-63.032,18.237
Saint-Barthélemy,389,1,BL,652,BL,BLM,Amèrica,Carib,Americas,Caribbean,NA,7448,NA,1,2018,TB,BLM,652,Saint Barthelemy,0,0,19,29,-63.043,18.04
Puerto Rico,390,400,US,630,PR,PRI,Amèrica,Carib,Americas,Caribbean,NA,3971020,NA,1,2018,RQ,PRI,630,Puerto Rico,887,3946779,19,29,-66.466,18.221
Aruba,391,474,AW,533,AW,ABW,Amèrica,Carib,Americas,Caribbean,NA,103065,NA,1,2018,AA,ABW,533,Aruba,0,102897,19,29,-69.977,12.517
Illes Verges Britàniques,393,468,VG,92,VG,VGB,Amèrica,Carib,Americas,Caribbean,NA,24491,NA,1,2018,VI,VGB,92,British Virgin Islands,15,22016,19,29,-64.39,18.483
Guaiana Francesa,394,1,FR,254,GF,GUF,Amèrica,Amèrica del sud,Americas,South America,1,236250,NA,1,2018,FG,GUF,254,French Guiana,8815,192099,19,5,-53.241,3.924
Illes Falkland (Malvines),395,529,FK,238,FK,FLK,Amèrica,Amèrica del sud,Americas,South America,NA,3140,NA,1,2018,FK,FLK,238,Falkland Islands (Malvinas),1217,2975,19,5,-58.694,-51.665
Afganistan,401,660,AF,4,AF,AFG,Àsia,Àsia meridional,Asia,Southern Asia,NA,28400000,NA,0,2018,AF,AFG,4,Afghanistan,65209,25067407,142,34,65.216,33.677
Aràbia Saudí,402,632,SA,682,SA,SAU,Àsia,Àsia occidental,Asia,Western Asia,NA,28686633,NA,0,2018,SA,SAU,682,Saudi Arabia,214969,2361236,142,145,44.585,24.023
Bahrain,403,640,BH,48,BH,BHR,Àsia,Àsia occidental,Asia,Western Asia,NA,727785,NA,0,2018,BA,BHR,48,Bahrain,71,724788,142,145,50.562,26.019
Bangladesh,404,666,BD,50,BD,BGD,Àsia,Àsia meridional,Asia,Southern Asia,NA,156050883,NA,0,2018,BG,BGD,50,Bangladesh,13017,15328112,142,34,89.941,24.218
Myanmar,405,676,MM,104,MM,MMR,Àsia,Àsià sud-oriental,Asia,South-Eastern Asia,NA,48137741,NA,0,2018,BM,MMR,104,Burma,65755,47967266,142,35,96.041,21.718
Xina,407,720,CN,156,CN,CHN,Àsia,Àsia oriental,Asia,Eastern Asia,NA,1338612968,NA,0,2018,CH,CHN,156,China,932743,1312978855,142,30,106.514,33.42
"Emirats Àrabs Units, els",408,647,AE,784,AE,ARE,Àsia,Àsia occidental,Asia,Western Asia,NA,4798491,NA,0,2018,AE,ARE,784,United Arab Emirates,8360,4104291,142,145,54.163,23.549
Filipines,409,708,PH,608,PH,PHL,Àsia,Àsià sud-oriental,Asia,South-Eastern Asia,NA,97976603,NA,0,2018,RP,PHL,608,Philippines,29817,84566163,142,35,122.466,11.118
Índia,410,664,IN,356,IN,IND,Àsia,Àsia meridional,Asia,Southern Asia,NA,1166079217,NA,0,2018,IN,IND,356,India,297319,1134403141,142,34,79.619,22.881
Indonèsia,411,700,ID,360,ID,IDN,Àsia,Àsià sud-oriental,Asia,South-Eastern Asia,NA,240271522,NA,0,2018,ID,IDN,360,Indonesia,181157,226063044,142,35,114.252,-0.976
"Iraq, l'",412,612,IQ,368,IQ,IRQ,Àsia,Àsia occidental,Asia,Western Asia,NA,28945657,NA,0,2018,IZ,IRQ,368,Iraq,43737,27995984,142,145,43.772,33.048
Iran,413,616,IR,364,IR,IRN,Àsia,Àsia meridional,Asia,Southern Asia,NA,66429284,NA,0,2018,IR,IRN,364,Iran (Islamic Republic of),163620,69420607,142,34,54.301,32.565
Israel,414,624,IL,376,IL,ISR,Àsia,Àsia occidental,Asia,Western Asia,NA,7233701,NA,0,2018,IS,ISR,376,Israel,2171,6692037,142,145,34.851,31.026
Japó,415,732,JP,392,JP,JPN,Àsia,Àsia oriental,Asia,Eastern Asia,NA,127078679,NA,0,2018,JA,JPN,392,Japan,36450,12789674,142,30,139.068,36.491
Jordània,416,628,JO,400,JO,JOR,Àsia,Àsia occidental,Asia,Western Asia,NA,6342948,NA,0,2018,JO,JOR,400,Jordan,8824,5544066,142,145,36.319,30.703
Cambodja,417,696,KH,116,KH,KHM,Àsia,Àsià sud-oriental,Asia,South-Eastern Asia,NA,14494293,NA,0,2018,CB,KHM,116,Cambodia,17652,13955507,142,35,104.564,12.714
Kuwait,418,636,KW,414,KW,KWT,Àsia,Àsia occidental,Asia,Western Asia,NA,2691158,NA,0,2018,KU,KWT,414,Kuwait,1782,2700,142,145,47.376,29.476
Lao,419,684,LA,418,LA,LAO,Àsia,Àsià sud-oriental,Asia,South-Eastern Asia,NA,6834942,NA,0,2018,LA,LAO,418,Lao People's Democratic Republic,23080,566391,142,35,102.471,19.905
Líban,420,604,LB,422,LB,LBN,Àsia,Àsia occidental,Asia,Western Asia,NA,4017095,NA,0,2018,LE,LBN,422,Lebanon,1023,401074,142,145,35.888,33.92
Malàisia,421,701,MY,458,MY,MYS,Àsia,Àsià sud-oriental,Asia,South-Eastern Asia,NA,25715819,NA,0,2018,MY,MYS,458,Malaysia,32855,25652985,142,35,102.195,4.201
Maldives,422,667,MV,462,MV,MDV,Àsia,Àsia meridional,Asia,Southern Asia,NA,396334,NA,0,2018,MV,MDV,462,Maldives,30,295297,142,34,72.92,3.548
Mongòlia,423,716,MN,496,MN,MNG,Àsia,Àsia oriental,Asia,Eastern Asia,NA,3041142,NA,0,2018,MG,MNG,496,Mongolia,156650,2580704,142,30,102.876,46.056
Nepal,424,672,NP,524,NP,NPL,Àsia,Àsia meridional,Asia,Southern Asia,NA,28563377,NA,0,2018,NP,NPL,524,Nepal,14300,27093656,142,34,83.939,28.253
Oman,425,649,OM,512,OM,OMN,Àsia,Àsia occidental,Asia,Western Asia,NA,3418085,NA,0,2018,MU,OMN,512,Oman,30950,2507042,142,145,57.407,21.656
Pakistan,426,662,PK,586,PK,PAK,Àsia,Àsia meridional,Asia,Southern Asia,NA,176242949,NA,0,2018,PK,PAK,586,Pakistan,77088,158080591,142,34,69.386,29.967
Qatar,427,644,QA,634,QA,QAT,Àsia,Àsia occidental,Asia,Western Asia,NA,833285,NA,0,2018,QA,QAT,634,Qatar,1100,796186,142,145,51.191,25.316
Corea del Sud,430,728,KR,410,KR,KOR,Àsia,Àsia oriental,Asia,Eastern Asia,NA,48508972,NA,0,2018,KS,KOR,410,"Korea, Republic of",9873,47869837,142,30,128.103,36.504
Corea del Nord,431,724,KP,408,KP,PRK,Àsia,Àsia oriental,Asia,Eastern Asia,NA,22665345,NA,0,2018,KN,PRK,408,"Korea, Democratic People's Republic of",12041,23615611,142,30,126.451,39.778
Singapur,432,706,SG,702,SG,SGP,Àsia,Àsià sud-oriental,Asia,South-Eastern Asia,NA,4657542,NA,0,2018,SN,SGP,702,Singapore,67,4327468,142,35,103.808,1.351
Síria,433,608,SY,760,SY,SYR,Àsia,Àsia occidental,Asia,Western Asia,NA,20178485,NA,0,2018,SY,SYR,760,Syrian Arab Republic,18378,18893881,142,145,38.506,35.013
Sri Lanka,434,669,LK,144,LK,LKA,Àsia,Àsia meridional,Asia,Southern Asia,NA,21324791,NA,0,2018,CE,LKA,144,Sri Lanka,6463,19120763,142,34,80.704,7.612
Tailàndia,435,680,TH,764,TH,THA,Àsia,Àsià sud-oriental,Asia,South-Eastern Asia,NA,65905410,NA,0,2018,TH,THA,764,Thailand,51089,63002911,142,35,100.844,15.7
Turquia,436,52,TR,792,TR,TUR,Àsia,Àsia occidental,Asia,Western Asia,NA,76805524,NA,0,2018,TU,TUR,792,Turkey,76963,72969723,142,145,35.179,39.061
Vietnam,437,690,VN,704,VN,VNM,Àsia,Àsià sud-oriental,Asia,South-Eastern Asia,NA,86967524,NA,0,2018,VM,VNM,704,Viet Nam,32549,85028643,142,35,105.314,21.491
"Taiwan,Xina",438,736,TW,158,TW,TWN,Àsia,Àsia oriental,Asia,Eastern Asia,NA,22974347,China-Taiwan,0,2018,TW,TWN,158,Taiwan,0,0,0,0,120.946,23.754
Brunei,439,703,BN,96,BN,BRN,Àsia,Àsià sud-oriental,Asia,South-Eastern Asia,NA,388190,NA,0,2018,BX,BRN,96,Brunei Darussalam,527,373831,142,35,114.591,4.468
Illes Marshall,440,824,MH,584,MH,MHL,Oceania,Micronèsia,Oceania,Micronesia,NA,64522,NA,0,2018,RM,MHL,584,Marshall Islands,0,5672,9,57,168.963,7.595
"Iemen, el",441,653,YE,887,YE,YEM,Àsia,Àsia occidental,Asia,Western Asia,NA,23822783,NA,0,2018,YM,YEM,887,Yemen,52797,21095679,142,145,48.355,15.807
Azerbaidjan,442,78,AZ,31,AZ,AZE,Àsia,Àsia occidental,Asia,Western Asia,NA,8238672,NA,0,2018,AJ,AZE,31,Azerbaijan,8260,8352021,142,145,47.395,40.43
Kazakhstan,443,79,KZ,398,KZ,KAZ,Àsia,Àsia central,Asia,Central Asia,NA,15399437,NA,0,2018,KZ,KAZ,398,Kazakhstan,269970,15210609,142,143,67.301,48.16
Kirguizstan,444,83,KG,417,KG,KGZ,Àsia,Àsia central,Asia,Central Asia,NA,5431747,NA,0,2018,KG,KGZ,417,Kyrgyzstan,19180,5203547,142,143,74.555,41.465
Tadjikistan,445,82,TJ,762,TJ,TJK,Àsia,Àsia central,Asia,Central Asia,NA,7349145,NA,0,2018,TI,TJK,762,Tajikistan,13996,6550213,142,143,69.42,38.665
Turkmenistan,446,80,TM,795,TM,TKM,Àsia,Àsia central,Asia,Central Asia,NA,4884887,NA,0,2018,TX,TKM,795,Turkmenistan,46993,4833266,142,143,59.384,39.122
Uzbekistan,447,81,UZ,860,UZ,UZB,Àsia,Àsia central,Asia,Central Asia,NA,27606007,NA,0,2018,UZ,UZB,860,Uzbekistan,42540,26593123,142,143,63.17,41.75
Bhutan,448,675,BT,64,BT,BTN,Àsia,Àsia meridional,Asia,Southern Asia,NA,691141,NA,0,2018,BT,BTN,64,Bhutan,4700,637013,142,34,90.429,27.415
Territoris Palestins [o Palestina],449,625,PS,275,PS,PSE,Àsia,Àsia occidental,Asia,Western Asia,NA,2514845,NA,0,2018,NA,PSE,275,Palestine,0,3762005,142,145,35.278,32.037
"Hong Kong, Xina",450,740,HK,344,HK,HKG,Àsia,Àsia oriental,Asia,Eastern Asia,NA,7055071,NA,1,2018,HK,HKG,344,Hong Kong,0,7057418,142,30,114.129,22.423
Guam,454,831,GU,316,GU,GUM,Oceania,Micronèsia,Oceania,Micronesia,NA,178430,NA,1,2018,GQ,GUM,316,Guam,55,16857,9,57,144.707,13.385
"Macao, Xina",455,743,MO,446,MO,MAC,Àsia,Àsia oriental,Asia,Eastern Asia,NA,559846,NA,1,2018,MC,MAC,446,Macau,0,47309,142,30,113.545,22.2
Illes Marianes del Nord,456,820,MP,580,MP,MNP,Oceania,Micronèsia,Oceania,Micronesia,NA,88662,NA,1,2018,CQ,MNP,580,Northern Mariana Islands,0,80258,9,57,145.623,15.005
Austràlia,501,800,AU,36,AU,AUS,Oceania,Austràlia i Nova Zelanda,Oceania,Australia and New Zealand,NA,21262641,NA,0,2018,AS,AUS,36,Australia,768230,20310208,9,53,136.189,-24.973
Fiji,502,815,FJ,242,FJ,FJI,Oceania,Melanèsia,Oceania,Melanesia,NA,944720,NA,0,2018,FJ,FJI,242,Fiji,1827,828046,9,54,177.974,-17.819
Nova Zelanda,504,804,NZ,554,NZ,NZL,Oceania,Austràlia i Nova Zelanda,Oceania,Australia and New Zealand,NA,4213418,NA,0,2018,NZ,NZL,554,New Zealand,26799,4097112,9,53,172.235,-42.634
Papua Nova Guinea,505,801,PG,598,PG,PNG,Oceania,Melanèsia,Oceania,Melanesia,NA,6057263,NA,0,2018,PP,PNG,598,Papua New Guinea,45286,6069715,9,54,143.459,-5.949
Illes Salomó,506,806,SB,90,SB,SLB,Oceania,Melanèsia,Oceania,Melanesia,NA,595613,NA,0,2018,BP,SLB,90,Solomon Islands,2799,472419,9,54,160.109,-9.611
Samoa,507,819,WS,882,WS,WSM,Oceania,Polinèsia,Oceania,Polynesia,NA,219998,NA,0,2018,WS,WSM,882,Samoa,283,183845,9,61,-172.414,-13.652
Tonga,508,817,TO,776,TO,TON,Oceania,Polinèsia,Oceania,Polynesia,NA,120898,NA,0,2018,TN,TON,776,Tonga,72,99361,9,61,-175.185,-21.202
Vanuatu,509,816,VU,548,VU,VUT,Oceania,Melanèsia,Oceania,Melanesia,NA,218519,NA,0,2018,NH,VUT,548,Vanuatu,1219,215366,9,54,166.899,-15.376
Micronèsia,511,823,FM,583,FM,FSM,Oceania,Micronèsia,Oceania,Micronesia,NA,107434,NA,0,2018,FM,FSM,583,"Micronesia, Federated States of",70,110058,9,57,158.235,6.883
Tuvalu,512,807,TV,798,TV,TUV,Oceania,Polinèsia,Oceania,Polynesia,NA,12373,NA,0,2018,TV,TUV,798,Tuvalu,3,10441,9,61,179.219,-8.514
Illes Cook,513,837,CK,184,CK,COK,Oceania,Polinèsia,Oceania,Polynesia,NA,11870,NA,1,2018,CW,COK,184,Cook Islands,24,13984,9,61,-159.782,-21.219
Kiribati,514,812,KI,296,KI,KIR,Oceania,Micronèsia,Oceania,Micronesia,NA,112850,NA,0,2018,KR,KIR,296,Kiribati,73,92003,9,57,175.036,-1.508
Nauru,515,803,NR,520,NR,NRU,Oceania,Micronèsia,Oceania,Micronesia,NA,14019,NA,0,2018,NR,NRU,520,Nauru,2,10111,9,57,166.93,-0.522
Palau,516,825,PW,585,PW,PLW,Oceania,Micronèsia,Oceania,Micronesia,NA,20796,NA,0,2018,PS,PLW,585,Palau,0,20127,9,57,134.57,7.501
Timor-Leste,517,626,TL,626,TL,TLS,Àsia,Àsià sud-oriental,Asia,South-Eastern Asia,NA,1131612,NA,0,2018,TT,TLS,626,Timor-Leste,1487,1067285,142,35,125.878,-8.822
Polinèsia Francesa,520,822,PF,258,PF,PYF,Oceania,Polinèsia,Oceania,Polynesia,NA,287032,NA,1,2018,FP,PYF,258,French Polynesia,366,255632,9,61,-149.462,-17.626
Illa Norfolk,521,836,NF,574,NF,NFK,Oceania,Austràlia i Nova Zelanda,Oceania,Australia and New Zealand,NA,2141,NA,1,2018,NF,NFK,574,Norfolk Island,0,0,9,53,167.953,-29.037
Niue,523,838,NU,570,NU,NIU,Oceania,Polinèsia,Oceania,Polynesia,NA,1398,NA,1,2018,NE,NIU,570,Niue,26,1632,9,61,-169.869,-19.052
Pitcairn,524,813,PN,612,PN,PCN,Oceania,Polinèsia,Oceania,Polynesia,NA,48,NA,1,2018,PC,PCN,612,Pitcairn Islands,0,5,9,61,-128.316,-24.366
Tokelau,525,839,TK,772,TK,TKL,Oceania,Polinèsia,Oceania,Polynesia,NA,NA,NA,1,2018,TL,TKL,772,Tokelau,1,1401,9,61,-171.853,-9.193
Nova Caledònia,526,809,NC,540,NC,NCL,Oceania,Melanèsia,Oceania,Melanesia,NA,227436,NA,1,2018,NC,NCL,540,New Caledonia,1828,234185,9,54,165.447,-21.359
Wallis i Futuna,527,811,WF,876,WF,WLF,Oceania,Polinèsia,Oceania,Polynesia,NA,15289,NA,1,2018,WF,WLF,876,Wallis and Futuna Islands,14,15079,9,61,-178.131,-14.289
Samoa Americana,528,830,AS,16,AS,ASM,Oceania,Polinèsia,Oceania,Polynesia,NA,65628,NA,1,2018,AQ,ASM,16,American Samoa,20,64051,9,61,-170.73,-14.318
Albània,101,70,AL,8,AL,ALB,Europa,Europa meridional,Europe,Southern Europe,NA,3639453,Albania,0,2019,AL,ALB,8,Albania,2740,3153731,150,39,20.068,41.143
Àustria,102,38,AT,40,AT,AUT,Europa,Europa occidental,Europe,Western Europe,1,8210281,Austria,0,2019,AU,AUT,40,Austria,8245,8291979,150,155,14.912,47.683
Bèlgica,103,17,BE,56,BE,BEL,Europa,Europa occidental,Europe,Western Europe,1,10414336,Belgium,0,2019,BE,BEL,56,Belgium,0,10398049,150,155,4.664,50.643
Bulgària,104,68,BG,100,BG,BGR,Europa,Europa oriental,Europe,Eastern Europe,1,7204687,Bulgaria,0,2019,BU,BGR,100,Bulgaria,11063,7744591,150,151,25.231,42.761
Xipre,106,600,CY,196,CY,CYP,Àsia,Àsia occidental,Asia,Western Asia,1,531640,Cyprus,0,2019,CY,CYP,196,Cyprus,924,836321,142,145,33.219,35.043
Dinamarca,107,8,DK,208,DK,DNK,Europa,Europa septentrional,Europe,Northern Europe,1,5500510,Denmark,0,2019,DA,DNK,208,Denmark,4243,5416945,150,154,9.264,56.058
Espanya,108,11,ES,724,ES,ESP,Europa,Europa meridional,Europe,Southern Europe,1,40525002,Spain,0,2019,SP,ESP,724,Spain,49904,43397491,150,39,-3.649,40.227
Finlàndia,109,32,FI,246,FI,FIN,Europa,Europa septentrional,Europe,Northern Europe,1,5250275,Finland,0,2019,FI,FIN,246,Finland,30459,5246004,150,154,26.272,64.504
França,110,1,FR,250,FR,FRA,Europa,Europa occidental,Europe,Western Europe,1,64057792,France,0,2019,FR,FRA,250,France,55010,60990544,150,155,2.55,46.565
Grècia,111,9,GR,300,GR,GRC,Europa,Europa meridional,Europe,Southern Europe,1,10737428,Greece,0,2019,GR,GRC,300,Greece,12890,11099737,150,39,21.766,39.666
Hongria,112,64,HU,348,HU,HUN,Europa,Europa oriental,Europe,Eastern Europe,1,9905596,Hungary,0,2019,HU,HUN,348,Hungary,9210,10086387,150,151,19.134,47.07
Irlanda,113,7,IE,372,IE,IRL,Europa,Europa septentrional,Europe,Northern Europe,1,4203200,Ireland,0,2019,EI,IRL,372,Ireland,6889,4143294,150,154,-8.152,53.177
Islàndia,114,24,IS,352,IS,ISL,Europa,Europa septentrional,Europe,Northern Europe,NA,306694,Iceland,0,2019,IC,ISL,352,Iceland,10025,295732,150,154,-18.48,64.764
Itàlia,115,5,IT,380,IT,ITA,Europa,Europa meridional,Europe,Southern Europe,1,58126212,Italy,0,2019,IT,ITA,380,Italy,29411,5864636,150,39,10.44,44.931
Liechtenstein,116,37,LI,438,LI,LIE,Europa,Europa occidental,Europe,Western Europe,NA,34761,Liechtenstein,0,2019,LS,LIE,438,Liechtenstein,16,34598,150,155,9.555,47.153
Luxemburg,117,18,LU,442,LU,LUX,Europa,Europa occidental,Europe,Western Europe,1,491775,Luxembourg,0,2019,LU,LUX,442,Luxembourg,0,456613,150,155,6.088,49.771
Malta,118,46,MT,470,MT,MLT,Europa,Europa meridional,Europe,Southern Europe,1,405165,Malta,0,2019,MT,MLT,470,Malta,32,402617,150,39,14.442,35.89
Mònaco,119,1,FR,492,MC,MCO,Europa,Europa occidental,Europe,Western Europe,NA,32965,Monaco,0,2019,MN,MCO,492,Monaco,0,325,150,155,7.412,43.75
Noruega,120,28,NO,578,NO,NOR,Europa,Europa septentrional,Europe,Northern Europe,NA,4676305,Norway,0,2019,NO,NOR,578,Norway,30625,4638836,150,154,8.74,61.152
Països Baixos,121,3,NL,528,NL,NLD,Europa,Europa occidental,Europe,Western Europe,1,16715999,Netherlands,0,2019,NL,NLD,528,Netherlands,3388,1632769,150,155,5.389,52.077
Polònia,122,60,PL,616,PL,POL,Europa,Europa oriental,Europe,Eastern Europe,1,38482919,Poland,0,2019,PL,POL,616,Poland,30629,38195558,150,151,19.401,52.125
Portugal,123,10,PT,620,PT,PRT,Europa,Europa meridional,Europe,Southern Europe,1,10707924,Portugal,0,2019,PO,PRT,620,Portugal,9150,10528226,150,39,-8.058,40.309
Andorra,124,43,AD,20,AD,AND,Europa,Europa meridional,Europe,Southern Europe,NA,83888,Andorra,0,2019,AN,AND,20,Andorra,0,73483,150,39,1.576,42.549
Regne Unit,125,6,GB,826,GB,GBR,Europa,Europa septentrional,Europe,Northern Europe,1,61113205,United Kingdom,0,2019,UK,GBR,826,United Kingdom,24193,60244834,150,154,-2.9,54.16
Alemanya,126,4,DE,276,DE,DEU,Europa,Europa occidental,Europe,Western Europe,1,82329758,Germany,0,2019,GM,DEU,276,Germany,34895,82652369,150,155,9.851,51.11
Romania,128,66,RO,642,RO,ROU,Europa,Europa oriental,Europe,Eastern Europe,1,22215421,Romania,0,2019,RO,ROU,642,Romania,22987,21627557,150,151,24.969,45.844
San Marino,129,47,SM,674,SM,SMR,Europa,Europa meridional,Europe,Southern Europe,NA,30324,San Marino,0,2019,SM,SMR,674,San Marino,0,30214,150,39,12.46,43.942
Santa Seu,130,45,VA,336,VA,VAT,Europa,Europa meridional,Europe,Southern Europe,NA,826,Holy See (Vatican City State),0,2019,VT,VAT,336,Holy See (Vatican City),0,783,150,39,12.451,41.904
Suècia,131,30,SE,752,SE,SWE,Europa,Europa septentrional,Europe,Northern Europe,1,9059651,Sweden,0,2019,SW,SWE,752,Sweden,41033,9038049,150,154,15.27,62.011
Suïssa,132,39,CH,756,CH,CHE,Europa,Europa occidental,Europe,Western Europe,NA,7604467,Switzerland,0,2019,SZ,CHE,756,Switzerland,4000,7424389,150,155,7.908,46.861
Ucraïna,135,72,UA,804,UA,UKR,Europa,Europa oriental,Europe,Eastern Europe,NA,45700395,Ukraine,0,2019,UP,UKR,804,Ukraine,57935,46917544,150,151,31.388,49.016
Letònia,136,54,LV,428,LV,LVA,Europa,Europa septentrional,Europe,Northern Europe,1,2231503,Latvia,0,2019,LG,LVA,428,Latvia,6205,2301793,150,154,25.641,56.858
Moldàvia,137,74,MD,498,MD,MDA,Europa,Europa oriental,Europe,Eastern Europe,NA,4320748,"Moldova, Republic Of",0,2019,MD,MDA,498,Republic of Moldova,3288,3876661,150,151,28.599,47.193
Belarús,138,73,BY,112,BY,BLR,Europa,Europa oriental,Europe,Eastern Europe,NA,9648533,Belarus,0,2019,BO,BLR,112,Belarus,20748,9795287,150,151,28.047,53.54
Geòrgia,139,76,GE,268,GE,GEO,Àsia,Àsia occidental,Asia,Western Asia,NA,4615807,Georgia,0,2019,GG,GEO,268,Georgia,6949,4473409,142,145,43.518,42.176
Estònia,141,53,EE,233,EE,EST,Europa,Europa septentrional,Europe,Northern Europe,1,1299371,Estonia,0,2019,EN,EST,233,Estonia,4239,1344312,150,154,25.793,58.674
Lituània,142,55,LT,440,LT,LTU,Europa,Europa septentrional,Europe,Northern Europe,1,3555179,Lithuania,0,2019,LH,LTU,440,Lithuania,6268,3425077,150,154,23.897,55.336
Txèquia,143,61,CZ,203,CZ,CZE,Europa,Europa oriental,Europe,Eastern Europe,1,10211904,Czech Republic,0,2019,EZ,CZE,203,Czech Republic,7727,10191762,150,151,15.338,49.743
Eslovàquia,144,63,SK,703,SK,SVK,Europa,Europa oriental,Europe,Eastern Europe,1,5463046,Slovakia,0,2019,LO,SVK,703,Slovakia,4808,5386995,150,151,19.491,48.707
Bòsnia i Hercegovina,145,93,BA,70,BA,BIH,Europa,Europa meridional,Europe,Southern Europe,NA,4613414,Bosnia And Herzegovina,0,2019,BK,BIH,70,Bosnia and Herzegovina,5120,3915238,150,39,17.786,44.169
Croàcia,146,92,HR,191,HR,HRV,Europa,Europa meridional,Europe,Southern Europe,1,4489409,Croatia,0,2019,HR,HRV,191,Croatia,5592,4455149,150,39,16.693,45.723
Eslovènia,147,91,SI,705,SI,SVN,Europa,Europa meridional,Europe,Southern Europe,1,2005692,Slovenia,0,2019,SI,SVN,705,Slovenia,2014,1999425,150,39,14.827,46.124
Armènia,148,77,AM,51,AM,ARM,Àsia,Àsia occidental,Asia,Western Asia,NA,2967004,Armenia,0,2019,AM,ARM,51,Armenia,2820,3017661,142,145,44.563,40.534
Rússia,154,75,RU,643,RU,RUS,Europa,Europa oriental,Europe,Eastern Europe,NA,140041247,Russian Federation,0,2019,RS,RUS,643,Russia,1638094,143953092,150,151,96.689,61.988
Macedònia,156,96,MK,807,MK,MKD,Europa,Europa meridional,Europe,Southern Europe,NA,2066718,"Macedonia, The Former Yugoslav Republic Of",0,2019,MK,MKD,807,The former Yugoslav Republic of Macedonia,2543,2033655,150,39,21.698,41.6
Sèrbia,157,98,XS,688,RS,SRB,Europa,Europa meridional,Europe,Southern Europe,NA,7379339,Serbia,0,2019,RB,SRB,688,Serbia,0,9863026,150,39,20.806,44.032
Montenegro,158,97,ME,499,ME,MNE,Europa,Europa meridional,Europe,Southern Europe,NA,672180,Montenegro,0,2019,MJ,MNE,499,Montenegro,0,607969,150,39,19.254,42.792
Guernsey,170,6,GB,831,GG,GGY,Europa,Europa septentrional,Europe,Northern Europe,NA,65870,Guernsey,1,2019,GK,GGY,831,Guernsey,0,0,150,154,-2.576,49.459
Svalbard i Jan Mayen,171,28,NO,744,SJ,SJM,Europa,Europa septentrional,Europe,Northern Europe,NA,NA,Svalbard And Jan Mayen,1,2019,SV,SJM,744,Svalbard,0,0,150,154,18.374,78.83
Fèroe,172,41,FO,234,FO,FRO,Europa,Europa septentrional,Europe,Northern Europe,NA,48856,Faroe Islands,1,2019,FO,FRO,234,Faroe Islands,0,48205,150,154,-6.864,62.05
Illa de Man,173,6,GB,833,IM,IMN,Europa,Europa septentrional,Europe,Northern Europe,NA,76512,Isle Of Man,1,2019,IM,IMN,833,Isle of Man,0,78357,150,154,-4.527,54.229
Gibraltar,174,44,GI,292,GI,GIB,Europa,Europa meridional,Europe,Southern Europe,1,NA,Gibraltar,1,2019,GI,GIB,292,Gibraltar,0,291,150,39,-5.345,36.138
Jersey,176,6,GB,832,JE,JEY,Europa,Europa septentrional,Europe,Northern Europe,NA,91626,Jersey,1,2019,JE,JEY,832,Jersey,0,0,150,154,-2.129,49.219
Aland,177,32,FI,248,AX,ALA,Europa,Europa septentrional,Europe,Northern Europe,1,27153,Aland Islands,1,2019,NA,ALA,248,Aaland Islands,0,0,150,154,19.952,60.198
Burkina Faso,201,236,BF,854,BF,BFA,Àfrica,Àfrica occidental,Africa,Western Africa,NA,15746232,Burkina Faso,0,2019,UV,BFA,854,Burkina Faso,27360,13933363,2,11,-1.74,12.278
Angola,202,330,AO,24,AO,AGO,Àfrica,Àfrica central,Africa,Middle Africa,NA,12799293,Angola,0,2019,AO,AGO,24,Angola,124670,16095214,2,17,17.544,-12.296
Algèria,203,208,DZ,12,DZ,DZA,Àfrica,Àfrica septentrional,Africa,Northern Africa,NA,34178188,Algeria,0,2019,AG,DZA,12,Algeria,238174,32854159,2,15,2.632,28.163
Benín,204,284,BJ,204,BJ,BEN,Àfrica,Àfrica occidental,Africa,Western Africa,NA,8791832,Benin,0,2019,BN,BEN,204,Benin,11062,8490301,2,11,2.469,10.541
Botswana,205,391,BW,72,BW,BWA,Àfrica,Àfrica meridional,Africa,Southern Africa,NA,1990876,Botswana,0,2019,BC,BWA,72,Botswana,56673,1835938,2,18,23.815,-22.182
Burundi,206,328,BI,108,BI,BDI,Àfrica,Àfrica oriental,Africa,Eastern Africa,NA,8988091,Burundi,0,2019,BY,BDI,108,Burundi,2568,7858791,2,14,29.887,-3.356
Cap Verd,207,247,CV,132,CV,CPV,Àfrica,Àfrica occidental,Africa,Western Africa,NA,429474,Cape Verde,0,2019,CV,CPV,132,Cape Verde,403,506807,2,11,-23.634,15.071
Camerun,208,302,CM,120,CM,CMR,Àfrica,Àfrica central,Africa,Middle Africa,NA,18879301,Cameroon,0,2019,CM,CMR,120,Cameroon,46540,17795149,2,17,12.277,5.133
"Comores, les",209,375,KM,174,KM,COM,Àfrica,Àfrica oriental,Africa,Eastern Africa,NA,752438,Comoros,0,2019,CN,COM,174,Comoros,223,797902,2,14,43.337,-11.758
Congo,210,318,CG,178,CG,COG,Àfrica,Àfrica central,Africa,Middle Africa,NA,4012809,"Congo, Republic Of",0,2019,CF,COG,178,Congo,34150,3609851,2,17,15.986,-0.055
Costa d'Ivori,211,272,CI,384,CI,CIV,Àfrica,Àfrica occidental,Africa,Western Africa,NA,20617068,Cote D'Ivoire,0,2019,IV,CIV,384,Cote d'Ivoire,31800,18584701,2,11,-5.556,7.632
Djibouti,212,338,DJ,262,DJ,DJI,Àfrica,Àfrica oriental,Africa,Eastern Africa,NA,516055,Djibouti,0,2019,DJ,DJI,262,Djibouti,2318,804206,2,14,42.516,11.9
Egipte,213,220,EG,818,EG,EGY,Àfrica,Àfrica septentrional,Africa,Northern Africa,NA,83082869,Egypt,0,2019,EG,EGY,818,Egypt,99545,72849793,2,15,29.872,26.494
Etiòpia,214,334,ET,231,ET,ETH,Àfrica,Àfrica oriental,Africa,Eastern Africa,NA,85237338,Ethiopia,0,2019,ET,ETH,231,Ethiopia,100000,78985857,2,14,39.616,8.626
Gabon,215,314,GA,266,GA,GAB,Àfrica,Àfrica central,Africa,Middle Africa,NA,1514993,Gabon,0,2019,GB,GAB,266,Gabon,25767,1290693,2,17,11.797,-0.591
Gàmbia,216,252,GM,270,GM,GMB,Àfrica,Àfrica occidental,Africa,Western Africa,NA,1782893,Gambia,0,2019,GA,GMB,270,Gambia,1000,1617029,2,11,-15.386,13.453
Ghana,217,276,GH,288,GH,GHA,Àfrica,Àfrica occidental,Africa,Western Africa,NA,23832495,Ghana,0,2019,GH,GHA,288,Ghana,22754,2253501,2,11,-1.207,7.96
Guinea,218,260,GN,324,GN,GIN,Àfrica,Àfrica occidental,Africa,Western Africa,NA,10057975,Guinea,0,2019,GV,GIN,324,Guinea,24572,9002656,2,11,-10.942,10.439
Guinea-Bissau,219,257,GW,624,GW,GNB,Àfrica,Àfrica occidental,Africa,Western Africa,NA,1533964,Guinea-Bissau,0,2019,PU,GNB,624,Guinea-Bissau,2812,1596929,2,11,-14.651,12.125
Guinea Equatorial,220,310,GQ,226,GQ,GNQ,Àfrica,Àfrica central,Africa,Middle Africa,NA,633441,Equatorial Guinea,0,2019,EK,GNQ,226,Equatorial Guinea,2805,484098,2,17,10.488,1.607
Kenya,221,346,KE,404,KE,KEN,Àfrica,Àfrica oriental,Africa,Eastern Africa,NA,39002772,Kenya,0,2019,KE,KEN,404,Kenya,56914,35598952,2,14,37.858,0.53
Lesotho,222,395,LS,426,LS,LSO,Àfrica,Àfrica meridional,Africa,Southern Africa,NA,2130819,Lesotho,0,2019,LT,LSO,426,Lesotho,3035,1980831,2,18,28.243,-29.581
Libèria,223,268,LR,430,LR,LBR,Àfrica,Àfrica occidental,Africa,Western Africa,NA,3441790,Liberia,0,2019,LI,LBR,430,Liberia,9632,3441796,2,11,-9.657,6.682
Líbia,224,216,LY,434,LY,LBY,Àfrica,Àfrica septentrional,Africa,Northern Africa,NA,6310434,Libyan Arab Jamahiriya,0,2019,LY,LBY,434,Libyan Arab Jamahiriya,175954,5918217,2,15,18.023,27.044
Madagascar,225,370,MG,450,MG,MDG,Àfrica,Àfrica oriental,Africa,Eastern Africa,NA,20653556,Madagascar,0,2019,MA,MDG,450,Madagascar,58154,18642586,2,14,46.706,-19.374
Malawi,226,386,MW,454,MW,MWI,Àfrica,Àfrica oriental,Africa,Eastern Africa,NA,14268711,Malawi,0,2019,MI,MWI,454,Malawi,9408,13226091,2,14,33.808,-13.4
Mali,227,232,ML,466,ML,MLI,Àfrica,Àfrica occidental,Africa,Western Africa,NA,12666987,Mali,0,2019,ML,MLI,466,Mali,122019,1161109,2,11,-3.524,17.35
"Marroc, el",228,204,MA,504,MA,MAR,Àfrica,Àfrica septentrional,Africa,Northern Africa,NA,34859364,Morocco,0,2019,MO,MAR,504,Morocco,44630,30494991,2,15,-5.758,32.706
Maurici,229,373,MU,480,MU,MUS,Àfrica,Àfrica oriental,Africa,Eastern Africa,NA,1284264,Mauritius,0,2019,MP,MUS,480,Mauritius,203,1241173,2,14,57.583,-20.255
Mauritània,230,228,MR,478,MR,MRT,Àfrica,Àfrica occidental,Africa,Western Africa,NA,3129486,Mauritania,0,2019,MR,MRT,478,Mauritania,102522,2963105,2,11,-10.332,20.26
Moçambic,231,366,MZ,508,MZ,MOZ,Àfrica,Àfrica oriental,Africa,Eastern Africa,NA,21669278,Mozambique,0,2019,MZ,MOZ,508,Mozambique,78409,20532675,2,14,37.923,-14.422
Namíbia,232,389,NA,516,NA,NAM,Àfrica,Àfrica meridional,Africa,Southern Africa,NA,2108665,Namibia,0,2019,WA,NAM,516,Namibia,82329,2019677,2,18,17.218,-22.133
Níger,233,240,NE,562,NE,NER,Àfrica,Àfrica occidental,Africa,Western Africa,NA,15306252,Niger,0,2019,NG,NER,562,Niger,126670,1326419,2,11,9.398,17.426
Nigèria,234,288,NG,566,NG,NGA,Àfrica,Àfrica occidental,Africa,Western Africa,NA,149229090,Nigeria,0,2019,NI,NGA,566,Nigeria,91077,141356083,2,11,8.105,9.594
República Centreafricana,235,306,CF,140,CF,CAF,Àfrica,Àfrica central,Africa,Middle Africa,NA,4511488,Central African Republic,0,2019,CT,CAF,140,Central African Republic,62298,4191429,2,17,20.483,6.571
Sud-àfrica,236,388,ZA,710,ZA,ZAF,Àfrica,Àfrica meridional,Africa,Southern Africa,NA,49052489,South Africa,0,2019,SF,ZAF,710,South Africa,121447,47938663,2,18,23.121,-30.558
Ruanda,237,324,RW,646,RW,RWA,Àfrica,Àfrica oriental,Africa,Eastern Africa,NA,10473282,Rwanda,0,2019,RW,RWA,646,Rwanda,2467,9233793,2,14,29.917,-1.998
São Tomé i Príncipe,238,311,ST,678,ST,STP,Àfrica,Àfrica central,Africa,Middle Africa,NA,212679,Sao Tome And Principe,0,2019,TP,STP,678,Sao Tome and Principe,96,152622,2,17,6.629,0.201
Senegal,239,248,SN,686,SN,SEN,Àfrica,Àfrica occidental,Africa,Western Africa,NA,13711597,Senegal,0,2019,SG,SEN,686,Senegal,19253,1177034,2,11,-14.881,15.013
Seychelles,240,355,SC,690,SC,SYC,Àfrica,Àfrica oriental,Africa,Eastern Africa,NA,87476,Seychelles,0,2019,SE,SYC,690,Seychelles,46,85532,2,14,55.474,-4.647
Sierra Leone,241,264,SL,694,SL,SLE,Àfrica,Àfrica occidental,Africa,Western Africa,NA,6440053,Sierra Leone,0,2019,SL,SLE,694,Sierra Leone,7162,5586403,2,11,-11.792,8.56
Somàlia,242,342,SO,706,SO,SOM,Àfrica,Àfrica oriental,Africa,Eastern Africa,NA,9832017,Somalia,0,2019,SO,SOM,706,Somalia,62734,8196395,2,14,48.316,9.774
"Sudan, el",243,224,SD,729,SD,SDN,Àfrica,Àfrica septentrional,Africa,Northern Africa,NA,30894000,Sudan,0,2019,SU,SDN,736,Sudan,237600,36899747,2,15,30.05,13.832
Swaziland,244,393,SZ,748,SZ,SWZ,Àfrica,Àfrica meridional,Africa,Southern Africa,NA,1123913,Swaziland,0,2019,WZ,SWZ,748,Swaziland,1720,1124529,2,18,31.497,-26.562
Tanzània,245,352,TZ,834,TZ,TZA,Àfrica,Àfrica oriental,Africa,Eastern Africa,NA,41048532,"Tanzania, United Republic Of",0,2019,TZ,TZA,834,United Republic of Tanzania,88359,38477873,2,14,34.823,-6.27
Txad,246,244,TD,148,TD,TCD,Àfrica,Àfrica central,Africa,Middle Africa,NA,10329208,Chad,0,2019,CD,TCD,148,Chad,125920,10145609,2,17,18.665,15.361
Togo,247,280,TG,768,TG,TGO,Àfrica,Àfrica occidental,Africa,Western Africa,NA,6019877,Togo,0,2019,TO,TGO,768,Togo,5439,6238572,2,11,1.081,8.799
Tunísia,248,212,TN,788,TN,TUN,Àfrica,Àfrica septentrional,Africa,Northern Africa,NA,10486339,Tunisia,0,2019,TS,TUN,788,Tunisia,15536,10104685,2,15,9.596,35.383
Uganda,249,350,UG,800,UG,UGA,Àfrica,Àfrica oriental,Africa,Eastern Africa,NA,32369558,Uganda,0,2019,UG,UGA,800,Uganda,19710,28947181,2,14,32.386,1.28
República Democràtica del Congo,250,322,CD,180,CD,COD,Àfrica,Àfrica central,Africa,Middle Africa,NA,68692542,"Congo, The Democratic Republic Of",0,2019,CG,COD,180,Democratic Republic of the Congo,226705,58740547,2,17,23.654,-2.876
Zàmbia,251,378,ZM,894,ZM,ZMB,Àfrica,Àfrica oriental,Africa,Eastern Africa,NA,11862740,Zambia,0,2019,ZA,ZMB,894,Zambia,74339,11478317,2,14,26.32,-14.614
Zimbàbue,252,382,ZW,716,ZW,ZWE,Àfrica,Àfrica oriental,Africa,Eastern Africa,NA,11392629,Zimbabwe,0,2019,ZI,ZWE,716,Zimbabwe,38685,13119679,2,14,29.872,-19
Eritrea,253,336,ER,232,ER,ERI,Àfrica,Àfrica oriental,Africa,Eastern Africa,NA,5647168,Eritrea,0,2019,ER,ERI,232,Eritrea,10100,4526722,2,14,38.219,16.045
"Sudan del Sud, el",254,224,SS,728,SS,SSD,Àfrica,Àfrica septentrional,Africa,Northern Africa,NA,8260490,South Sudan,0,2019,NA,NA,NA,NA,NA,NA,NA,NA,31.6,4.85
"Saint Helena, Ascenció i Tristan da Cunha",260,329,SH,654,SH,SHN,Àfrica,Àfrica occidental,Africa,Western Africa,NA,7637,Saint Helena,1,2019,SH,SHN,654,Saint Helena,0,6399,2,11,-5.71,-15.953
"Reunió, la",261,1,FR,638,RE,REU,Àfrica,Àfrica oriental,Africa,Eastern Africa,1,NA,Reunion,1,2019,RE,REU,638,Reunion,250,785159,2,14,55.538,-21.122
Mayotte,262,377,YT,175,YT,MYT,Àfrica,Àfrica oriental,Africa,Eastern Africa,1,NA,Mayotte,1,2019,MF,MYT,175,Mayotte,0,0,2,14,45.155,-12.777
Sàhara Occidental,263,NA,EH,732,EH,ESH,Àfrica,Àfrica septentrional,Africa,Northern Africa,NA,NA,Western Sahara,0,2019,WI,ESH,732,Western Sahara,0,440428,2,15,-13.706,24.554
Canadà,301,404,CA,124,CA,CAN,Amèrica,Apàtrides/No consta,Americas,Northern America,NA,33487208,Canada,0,2019,CA,CAN,124,Canada,909351,32270507,19,21,-109.433,59.081
"Estats Units, els",302,400,US,840,US,USA,Amèrica,Apàtrides/No consta,Americas,Northern America,NA,307212123,United States,0,2019,US,USA,840,United States,915896,299846449,19,21,-98.606,39.622
Mèxic,303,412,MX,484,MX,MEX,Amèrica,Amèrica central,Americas,Central America,NA,111211789,Mexico,0,2019,MX,MEX,484,Mexico,190869,104266392,19,13,-102.535,23.951
Antigua i Barbuda,310,459,AG,28,AG,ATG,Amèrica,Carib,Americas,Caribbean,NA,85632,Antigua And Barbuda,0,2019,AC,ATG,28,Antigua and Barbuda,44,83039,19,29,-61.783,17.078
"Bahames, les",311,453,BS,44,BS,BHS,Amèrica,Carib,Americas,Caribbean,NA,309156,Bahamas,0,2019,BF,BHS,44,Bahamas,1001,323295,19,29,-78.014,24.628
Barbados,312,469,BB,52,BB,BRB,Amèrica,Carib,Americas,Caribbean,NA,284589,Barbados,0,2019,BB,BRB,52,Barbados,43,291933,19,29,-59.559,13.153
Belize,313,421,BZ,84,BZ,BLZ,Amèrica,Amèrica central,Americas,Central America,NA,307899,Belize,0,2019,BH,BLZ,84,Belize,2281,275546,19,13,-88.602,17.219
Costa Rica,314,436,CR,188,CR,CRI,Amèrica,Amèrica central,Americas,Central America,NA,4253877,Costa Rica,0,2019,CS,CRI,188,Costa Rica,5106,4327228,19,13,-83.946,9.971
Cuba,315,448,CU,192,CU,CUB,Amèrica,Carib,Americas,Caribbean,NA,11451652,Cuba,0,2019,CU,CUB,192,Cuba,10982,11259905,19,29,-77.781,21.297
Dominica,316,460,DM,212,DM,DMA,Amèrica,Carib,Americas,Caribbean,NA,72660,Dominica,0,2019,DO,DMA,212,Dominica,75,67827,19,29,-61.356,15.475
El Salvador,317,428,SV,222,SV,SLV,Amèrica,Amèrica central,Americas,Central America,NA,7185218,El Salvador,0,2019,ES,SLV,222,El Salvador,2072,6668356,19,13,-88.866,13.736
Grenada,318,473,GD,308,GD,GRD,Amèrica,Carib,Americas,Caribbean,NA,90739,Grenada,0,2019,GJ,GRD,308,Grenada,34,105237,19,29,-61.678,12.118
Guatemala,319,416,GT,320,GT,GTM,Amèrica,Amèrica central,Americas,Central America,NA,13276517,Guatemala,0,2019,GT,GTM,320,Guatemala,10843,12709564,19,13,-90.398,15.256
Haití,320,452,HT,332,HT,HTI,Amèrica,Carib,Americas,Caribbean,NA,9035536,Haiti,0,2019,HA,HTI,332,Haiti,2756,9296291,19,29,-72.278,19.142
Hondures,321,424,HN,340,HN,HND,Amèrica,Amèrica central,Americas,Central America,NA,7792854,Honduras,0,2019,HO,HND,340,Honduras,11189,683411,19,13,-86.863,14.819
Jamaica,322,464,JM,388,JM,JAM,Amèrica,Carib,Americas,Caribbean,NA,2825928,Jamaica,0,2019,JM,JAM,388,Jamaica,1083,2682469,19,29,-77.32,18.151
Nicaragua,323,432,NI,558,NI,NIC,Amèrica,Amèrica central,Americas,Central America,NA,5891199,Nicaragua,0,2019,NU,NIC,558,Nicaragua,12140,5462539,19,13,-85.034,12.84
Panamà,324,442,PA,591,PA,PAN,Amèrica,Amèrica central,Americas,Central America,NA,3360474,Panama,0,2019,PM,PAN,591,Panama,7443,3231502,19,13,-80.92,8.384
Saint Vincent i les Grenadines,325,467,VC,670,VC,VCT,Amèrica,Carib,Americas,Caribbean,NA,104574,Saint Vincent And The Grenadines,0,2019,VC,VCT,670,Saint Vincent and the Grenadines,39,119137,19,29,-61.194,13.248
República Dominicana,326,456,DO,214,DO,DOM,Amèrica,Carib,Americas,Caribbean,NA,9650054,Dominican Republic,0,2019,DR,DOM,214,Dominican Republic,4838,9469601,19,29,-70.729,19.015
Trinidad i Tobago,327,472,TT,780,TT,TTO,Amèrica,Carib,Americas,Caribbean,NA,1310000,Trinidad And Tobago,0,2019,TD,TTO,780,Trinidad and Tobago,513,1323722,19,29,-61.253,10.468
Saint Lucia,328,465,LC,662,LC,LCA,Amèrica,Carib,Americas,Caribbean,NA,160267,Saint Lucia,0,2019,ST,LCA,662,Saint Lucia,61,16124,19,29,-60.969,13.898
Saint Kitts i Nevis,329,449,KN,659,KN,KNA,Amèrica,Carib,Americas,Caribbean,NA,40131,Saint Kitts And Nevis,0,2019,SC,KNA,659,Saint Kitts and Nevis,36,49138,19,29,-62.769,17.34
Argentina,340,528,AR,32,AR,ARG,Amèrica,Amèrica del sud,Americas,South America,NA,40913584,Argentina,0,2019,AR,ARG,32,Argentina,273669,38747148,19,5,-65.167,-35.377
Bolívia,341,516,BO,68,BO,BOL,Amèrica,Amèrica del sud,Americas,South America,NA,9775246,"Bolivia, Plurinational State Of",0,2019,BL,BOL,68,Bolivia,108438,9182015,19,5,-64.671,-16.715
Brasil,342,508,BR,76,BR,BRA,Amèrica,Amèrica del sud,Americas,South America,NA,198739269,Brazil,0,2019,BR,BRA,76,Brazil,845942,186830759,19,5,-53.089,-10.772
Colòmbia,343,480,CO,170,CO,COL,Amèrica,Amèrica del sud,Americas,South America,NA,45644023,Colombia,0,2019,CO,COL,170,Colombia,103870,4494579,19,5,-73.076,3.9
Xile,344,512,CL,152,CL,CHL,Amèrica,Amèrica del sud,Americas,South America,NA,16601707,Chile,0,2019,CI,CHL,152,Chile,74880,16295102,19,5,-69.433,-23.389
Equador,345,500,EC,218,EC,ECU,Amèrica,Amèrica del sud,Americas,South America,NA,14573101,Ecuador,0,2019,EC,ECU,218,Ecuador,27684,13060993,19,5,-78.497,-1.385
Guyana,346,488,GY,328,GY,GUY,Amèrica,Amèrica del sud,Americas,South America,NA,772298,Guyana,0,2019,GY,GUY,328,Guyana,19685,739472,19,5,-58.974,4.792
Paraguai,347,520,PY,600,PY,PRY,Amèrica,Amèrica del sud,Americas,South America,NA,6995655,Paraguay,0,2019,PA,PRY,600,Paraguay,39730,5904342,19,5,-58.391,-23.236
Perú,348,504,PE,604,PE,PER,Amèrica,Amèrica del sud,Americas,South America,NA,29546963,Peru,0,2019,PE,PER,604,Peru,128000,27274266,19,5,-75.552,-9.326
Surinam,349,492,SR,740,SR,SUR,Amèrica,Amèrica del sud,Americas,South America,NA,481267,Suriname,0,2019,NS,SUR,740,Suriname,15600,452468,19,5,-55.912,4.127
Uruguai,350,524,UY,858,UY,URY,Amèrica,Amèrica del sud,Americas,South America,NA,3494382,Uruguay,0,2019,UY,URY,858,Uruguay,17502,3325727,19,5,-56.012,-32.8
Veneçuela,351,484,VE,862,VE,VEN,Amèrica,Amèrica del sud,Americas,South America,NA,26814843,"Venezuela, Bolivarian Republic Of",0,2019,VE,VEN,862,Venezuela,88205,26725573,19,5,-66.166,7.125
Saint-Pierre-et-Miquelon,370,408,PM,666,PM,SPM,Amèrica,Apàtrides/No consta,Americas,Northern America,NA,7051,Saint Pierre And Miquelon,1,2019,SB,SPM,666,Saint Pierre and Miquelon,0,6346,19,21,-56.325,47.042
Groenlàndia,371,406,GL,304,GL,GRL,Amèrica,Apàtrides/No consta,Americas,Northern America,NA,57600,Greenland,1,2019,GL,GRL,304,Greenland,41045,57475,19,21,-41.391,74.719
Illes Caiman,380,463,KY,136,KY,CYM,Amèrica,Carib,Americas,Caribbean,NA,49035,Cayman Islands,1,2019,CJ,CYM,136,Cayman Islands,26,45591,19,29,-81.198,19.314
Illes Turks i Caicos,381,454,TC,796,TC,TCA,Amèrica,Carib,Americas,Caribbean,NA,22942,Turks And Caicos Islands,1,2019,TK,TCA,796,Turks and Caicos Islands,0,24459,19,29,-71.95,21.902
Illes Verges dels Estats Units,382,457,VI,850,VI,VIR,Amèrica,Carib,Americas,Caribbean,NA,109825,"Virgin Islands, U.S.",1,2019,VQ,VIR,850,United States Virgin Islands,35,111408,19,29,-64.785,17.741
Guadalupe,383,1,FR,312,GP,GLP,Amèrica,Carib,Americas,Caribbean,1,NA,Guadeloupe,1,2019,GP,GLP,312,Guadeloupe,169,438403,19,29,-61.441,16.286
Bermudes,384,413,BM,60,BM,BMU,Amèrica,Apàtrides/No consta,Americas,Northern America,NA,67837,Bermuda,1,2019,BD,BMU,60,Bermuda,5,64174,19,21,-64.709,32.336
Saint-Martin,385,1,FR,663,MF,MAF,Amèrica,Carib,Americas,Caribbean,1,29820,Saint Martin,1,2019,RN,MAF,663,Saint Martin,0,0,19,29,-63.041,18.094
Martinica,386,1,FR,474,MQ,MTQ,Amèrica,Carib,Americas,Caribbean,1,NA,Martinique,1,2019,MB,MTQ,474,Martinique,106,395896,19,29,-61.021,14.653
Montserrat,387,470,MS,500,MS,MSR,Amèrica,Carib,Americas,Caribbean,NA,5097,Montserrat,1,2019,MH,MSR,500,Montserrat,10,5628,19,29,-62.187,16.736
Anguilla,388,446,AI,660,AI,AIA,Amèrica,Carib,Americas,Caribbean,NA,14436,Anguilla,1,2019,AV,AIA,660,Anguilla,0,12256,19,29,-63.032,18.237
Saint-Barthélemy,389,1,BL,652,BL,BLM,Amèrica,Carib,Americas,Caribbean,NA,7448,Saint Barthelemy,1,2019,TB,BLM,652,Saint Barthelemy,0,0,19,29,-63.043,18.04
Puerto Rico,390,400,US,630,PR,PRI,Amèrica,Carib,Americas,Caribbean,NA,3971020,Puerto Rico,1,2019,RQ,PRI,630,Puerto Rico,887,3946779,19,29,-66.466,18.221
Aruba,391,474,AW,533,AW,ABW,Amèrica,Carib,Americas,Caribbean,NA,103065,Aruba,1,2019,AA,ABW,533,Aruba,0,102897,19,29,-69.977,12.517
Illes Verges Britàniques,393,468,VG,92,VG,VGB,Amèrica,Carib,Americas,Caribbean,NA,24491,"Virgin Islands, British",1,2019,VI,VGB,92,British Virgin Islands,15,22016,19,29,-64.39,18.483
Guaiana Francesa,394,1,FR,254,GF,GUF,Amèrica,Amèrica del sud,Americas,South America,1,236250,French Guiana,1,2019,FG,GUF,254,French Guiana,8815,192099,19,5,-53.241,3.924
Illes Falkland (Malvines),395,529,FK,238,FK,FLK,Amèrica,Amèrica del sud,Americas,South America,NA,3140,Falkland Islands (Malvinas),1,2019,FK,FLK,238,Falkland Islands (Malvinas),1217,2975,19,5,-58.694,-51.665
Afganistan,401,660,AF,4,AF,AFG,Àsia,Àsia meridional,Asia,Southern Asia,NA,28400000,Afghanistan,0,2019,AF,AFG,4,Afghanistan,65209,25067407,142,34,65.216,33.677
Aràbia Saudí,402,632,SA,682,SA,SAU,Àsia,Àsia occidental,Asia,Western Asia,NA,28686633,Saudi Arabia,0,2019,SA,SAU,682,Saudi Arabia,214969,2361236,142,145,44.585,24.023
Bahrain,403,640,BH,48,BH,BHR,Àsia,Àsia occidental,Asia,Western Asia,NA,727785,Bahrain,0,2019,BA,BHR,48,Bahrain,71,724788,142,145,50.562,26.019
Bangladesh,404,666,BD,50,BD,BGD,Àsia,Àsia meridional,Asia,Southern Asia,NA,156050883,Bangladesh,0,2019,BG,BGD,50,Bangladesh,13017,15328112,142,34,89.941,24.218
Myanmar,405,676,MM,104,MM,MMR,Àsia,Àsià sud-oriental,Asia,South-Eastern Asia,NA,48137741,Myanmar,0,2019,BM,MMR,104,Burma,65755,47967266,142,35,96.041,21.718
Xina,407,720,CN,156,CN,CHN,Àsia,Àsia oriental,Asia,Eastern Asia,NA,1338612968,China,0,2019,CH,CHN,156,China,932743,1312978855,142,30,106.514,33.42
"Emirats Àrabs Units, els",408,647,AE,784,AE,ARE,Àsia,Àsia occidental,Asia,Western Asia,NA,4798491,United Arab Emirates,0,2019,AE,ARE,784,United Arab Emirates,8360,4104291,142,145,54.163,23.549
Filipines,409,708,PH,608,PH,PHL,Àsia,Àsià sud-oriental,Asia,South-Eastern Asia,NA,97976603,Philippines,0,2019,RP,PHL,608,Philippines,29817,84566163,142,35,122.466,11.118
Índia,410,664,IN,356,IN,IND,Àsia,Àsia meridional,Asia,Southern Asia,NA,1166079217,India,0,2019,IN,IND,356,India,297319,1134403141,142,34,79.619,22.881
Indonèsia,411,700,ID,360,ID,IDN,Àsia,Àsià sud-oriental,Asia,South-Eastern Asia,NA,240271522,Indonesia,0,2019,ID,IDN,360,Indonesia,181157,226063044,142,35,114.252,-0.976
"Iraq, l'",412,612,IQ,368,IQ,IRQ,Àsia,Àsia occidental,Asia,Western Asia,NA,28945657,Iraq,0,2019,IZ,IRQ,368,Iraq,43737,27995984,142,145,43.772,33.048
Iran,413,616,IR,364,IR,IRN,Àsia,Àsia meridional,Asia,Southern Asia,NA,66429284,"Iran, Islamic Republic Of",0,2019,IR,IRN,364,Iran (Islamic Republic of),163620,69420607,142,34,54.301,32.565
Israel,414,624,IL,376,IL,ISR,Àsia,Àsia occidental,Asia,Western Asia,NA,7233701,Israel,0,2019,IS,ISR,376,Israel,2171,6692037,142,145,34.851,31.026
Japó,415,732,JP,392,JP,JPN,Àsia,Àsia oriental,Asia,Eastern Asia,NA,127078679,Japan,0,2019,JA,JPN,392,Japan,36450,12789674,142,30,139.068,36.491
Jordània,416,628,JO,400,JO,JOR,Àsia,Àsia occidental,Asia,Western Asia,NA,6342948,Jordan,0,2019,JO,JOR,400,Jordan,8824,5544066,142,145,36.319,30.703
Cambodja,417,696,KH,116,KH,KHM,Àsia,Àsià sud-oriental,Asia,South-Eastern Asia,NA,14494293,Cambodia,0,2019,CB,KHM,116,Cambodia,17652,13955507,142,35,104.564,12.714
Kuwait,418,636,KW,414,KW,KWT,Àsia,Àsia occidental,Asia,Western Asia,NA,2691158,Kuwait,0,2019,KU,KWT,414,Kuwait,1782,2700,142,145,47.376,29.476
Lao,419,684,LA,418,LA,LAO,Àsia,Àsià sud-oriental,Asia,South-Eastern Asia,NA,6834942,Lao People'S Democratic Republic,0,2019,LA,LAO,418,Lao People's Democratic Republic,23080,566391,142,35,102.471,19.905
Líban,420,604,LB,422,LB,LBN,Àsia,Àsia occidental,Asia,Western Asia,NA,4017095,Lebanon,0,2019,LE,LBN,422,Lebanon,1023,401074,142,145,35.888,33.92
Malàisia,421,701,MY,458,MY,MYS,Àsia,Àsià sud-oriental,Asia,South-Eastern Asia,NA,25715819,Malaysia,0,2019,MY,MYS,458,Malaysia,32855,25652985,142,35,102.195,4.201
Maldives,422,667,MV,462,MV,MDV,Àsia,Àsia meridional,Asia,Southern Asia,NA,396334,Maldives,0,2019,MV,MDV,462,Maldives,30,295297,142,34,72.92,3.548
Mongòlia,423,716,MN,496,MN,MNG,Àsia,Àsia oriental,Asia,Eastern Asia,NA,3041142,Mongolia,0,2019,MG,MNG,496,Mongolia,156650,2580704,142,30,102.876,46.056
Nepal,424,672,NP,524,NP,NPL,Àsia,Àsia meridional,Asia,Southern Asia,NA,28563377,Nepal,0,2019,NP,NPL,524,Nepal,14300,27093656,142,34,83.939,28.253
Oman,425,649,OM,512,OM,OMN,Àsia,Àsia occidental,Asia,Western Asia,NA,3418085,Oman,0,2019,MU,OMN,512,Oman,30950,2507042,142,145,57.407,21.656
Pakistan,426,662,PK,586,PK,PAK,Àsia,Àsia meridional,Asia,Southern Asia,NA,176242949,Pakistan,0,2019,PK,PAK,586,Pakistan,77088,158080591,142,34,69.386,29.967
Qatar,427,644,QA,634,QA,QAT,Àsia,Àsia occidental,Asia,Western Asia,NA,833285,Qatar,0,2019,QA,QAT,634,Qatar,1100,796186,142,145,51.191,25.316
Corea del Sud,430,728,KR,410,KR,KOR,Àsia,Àsia oriental,Asia,Eastern Asia,NA,48508972,"Korea, Republic Of",0,2019,KS,KOR,410,"Korea, Republic of",9873,47869837,142,30,128.103,36.504
Corea del Nord,431,724,KP,408,KP,PRK,Àsia,Àsia oriental,Asia,Eastern Asia,NA,22665345,"Korea, Democratic People'S Republic Of",0,2019,KN,PRK,408,"Korea, Democratic People's Republic of",12041,23615611,142,30,126.451,39.778
Singapur,432,706,SG,702,SG,SGP,Àsia,Àsià sud-oriental,Asia,South-Eastern Asia,NA,4657542,Singapore,0,2019,SN,SGP,702,Singapore,67,4327468,142,35,103.808,1.351
Síria,433,608,SY,760,SY,SYR,Àsia,Àsia occidental,Asia,Western Asia,NA,20178485,Syrian Arab Republic,0,2019,SY,SYR,760,Syrian Arab Republic,18378,18893881,142,145,38.506,35.013
Sri Lanka,434,669,LK,144,LK,LKA,Àsia,Àsia meridional,Asia,Southern Asia,NA,21324791,Sri Lanka,0,2019,CE,LKA,144,Sri Lanka,6463,19120763,142,34,80.704,7.612
Tailàndia,435,680,TH,764,TH,THA,Àsia,Àsià sud-oriental,Asia,South-Eastern Asia,NA,65905410,Thailand,0,2019,TH,THA,764,Thailand,51089,63002911,142,35,100.844,15.7
Turquia,436,52,TR,792,TR,TUR,Àsia,Àsia occidental,Asia,Western Asia,NA,76805524,Turkey,0,2019,TU,TUR,792,Turkey,76963,72969723,142,145,35.179,39.061
Vietnam,437,690,VN,704,VN,VNM,Àsia,Àsià sud-oriental,Asia,South-Eastern Asia,NA,86967524,Vietnam,0,2019,VM,VNM,704,Viet Nam,32549,85028643,142,35,105.314,21.491
"Taiwan,Xina",438,736,TW,158,TW,TWN,Àsia,Àsia oriental,Asia,Eastern Asia,NA,22974347,China-Taiwan,0,2019,TW,TWN,158,Taiwan,0,0,0,0,120.946,23.754
Brunei,439,703,BN,96,BN,BRN,Àsia,Àsià sud-oriental,Asia,South-Eastern Asia,NA,388190,Brunei Darussalam,0,2019,BX,BRN,96,Brunei Darussalam,527,373831,142,35,114.591,4.468
Illes Marshall,440,824,MH,584,MH,MHL,Oceania,Micronèsia,Oceania,Micronesia,NA,64522,Marshall Islands,0,2019,RM,MHL,584,Marshall Islands,0,5672,9,57,168.963,7.595
"Iemen, el",441,653,YE,887,YE,YEM,Àsia,Àsia occidental,Asia,Western Asia,NA,23822783,Yemen,0,2019,YM,YEM,887,Yemen,52797,21095679,142,145,48.355,15.807
Azerbaidjan,442,78,AZ,31,AZ,AZE,Àsia,Àsia occidental,Asia,Western Asia,NA,8238672,Azerbaijan,0,2019,AJ,AZE,31,Azerbaijan,8260,8352021,142,145,47.395,40.43
Kazakhstan,443,79,KZ,398,KZ,KAZ,Àsia,Àsia central,Asia,Central Asia,NA,15399437,Kazakhstan,0,2019,KZ,KAZ,398,Kazakhstan,269970,15210609,142,143,67.301,48.16
Kirguizstan,444,83,KG,417,KG,KGZ,Àsia,Àsia central,Asia,Central Asia,NA,5431747,Kyrgyzstan,0,2019,KG,KGZ,417,Kyrgyzstan,19180,5203547,142,143,74.555,41.465
Tadjikistan,445,82,TJ,762,TJ,TJK,Àsia,Àsia central,Asia,Central Asia,NA,7349145,Tajikistan,0,2019,TI,TJK,762,Tajikistan,13996,6550213,142,143,69.42,38.665
Turkmenistan,446,80,TM,795,TM,TKM,Àsia,Àsia central,Asia,Central Asia,NA,4884887,Turkmenistan,0,2019,TX,TKM,795,Turkmenistan,46993,4833266,142,143,59.384,39.122
Uzbekistan,447,81,UZ,860,UZ,UZB,Àsia,Àsia central,Asia,Central Asia,NA,27606007,Uzbekistan,0,2019,UZ,UZB,860,Uzbekistan,42540,26593123,142,143,63.17,41.75
Bhutan,448,675,BT,64,BT,BTN,Àsia,Àsia meridional,Asia,Southern Asia,NA,691141,Bhutan,0,2019,BT,BTN,64,Bhutan,4700,637013,142,34,90.429,27.415
Territoris Palestins [o Palestina],449,625,PS,275,PS,PSE,Àsia,Àsia occidental,Asia,Western Asia,NA,2514845,"Palestinian Territory, Occupied",0,2019,NA,PSE,275,Palestine,0,3762005,142,145,35.278,32.037
"Hong Kong, Xina",450,740,HK,344,HK,HKG,Àsia,Àsia oriental,Asia,Eastern Asia,NA,7055071,Hong Kong,1,2019,HK,HKG,344,Hong Kong,0,7057418,142,30,114.129,22.423
Guam,454,831,GU,316,GU,GUM,Oceania,Micronèsia,Oceania,Micronesia,NA,178430,Guam,1,2019,GQ,GUM,316,Guam,55,16857,9,57,144.707,13.385
"Macao, Xina",455,743,MO,446,MO,MAC,Àsia,Àsia oriental,Asia,Eastern Asia,NA,559846,Macao,1,2019,MC,MAC,446,Macau,0,47309,142,30,113.545,22.2
Illes Marianes del Nord,456,820,MP,580,MP,MNP,Oceania,Micronèsia,Oceania,Micronesia,NA,88662,Northern Mariana Islands,1,2019,CQ,MNP,580,Northern Mariana Islands,0,80258,9,57,145.623,15.005
Austràlia,501,800,AU,36,AU,AUS,Oceania,Austràlia i Nova Zelanda,Oceania,Australia and New Zealand,NA,21262641,Australia,0,2019,AS,AUS,36,Australia,768230,20310208,9,53,136.189,-24.973
Fiji,502,815,FJ,242,FJ,FJI,Oceania,Melanèsia,Oceania,Melanesia,NA,944720,Fiji,0,2019,FJ,FJI,242,Fiji,1827,828046,9,54,177.974,-17.819
Nova Zelanda,504,804,NZ,554,NZ,NZL,Oceania,Austràlia i Nova Zelanda,Oceania,Australia and New Zealand,NA,4213418,New Zealand,0,2019,NZ,NZL,554,New Zealand,26799,4097112,9,53,172.235,-42.634
Papua Nova Guinea,505,801,PG,598,PG,PNG,Oceania,Melanèsia,Oceania,Melanesia,NA,6057263,Papua New Guinea,0,2019,PP,PNG,598,Papua New Guinea,45286,6069715,9,54,143.459,-5.949
Illes Salomó,506,806,SB,90,SB,SLB,Oceania,Melanèsia,Oceania,Melanesia,NA,595613,Solomon Islands,0,2019,BP,SLB,90,Solomon Islands,2799,472419,9,54,160.109,-9.611
Samoa,507,819,WS,882,WS,WSM,Oceania,Polinèsia,Oceania,Polynesia,NA,219998,Samoa,0,2019,WS,WSM,882,Samoa,283,183845,9,61,-172.414,-13.652
Tonga,508,817,TO,776,TO,TON,Oceania,Polinèsia,Oceania,Polynesia,NA,120898,Tonga,0,2019,TN,TON,776,Tonga,72,99361,9,61,-175.185,-21.202
Vanuatu,509,816,VU,548,VU,VUT,Oceania,Melanèsia,Oceania,Melanesia,NA,218519,Vanuatu,0,2019,NH,VUT,548,Vanuatu,1219,215366,9,54,166.899,-15.376
Micronèsia,511,823,FM,583,FM,FSM,Oceania,Micronèsia,Oceania,Micronesia,NA,107434,"Micronesia, Federated States Of",0,2019,FM,FSM,583,"Micronesia, Federated States of",70,110058,9,57,158.235,6.883
Tuvalu,512,807,TV,798,TV,TUV,Oceania,Polinèsia,Oceania,Polynesia,NA,12373,Tuvalu,0,2019,TV,TUV,798,Tuvalu,3,10441,9,61,179.219,-8.514
Illes Cook,513,837,CK,184,CK,COK,Oceania,Polinèsia,Oceania,Polynesia,NA,11870,Cook Islands,1,2019,CW,COK,184,Cook Islands,24,13984,9,61,-159.782,-21.219
Kiribati,514,812,KI,296,KI,KIR,Oceania,Micronèsia,Oceania,Micronesia,NA,112850,Kiribati,0,2019,KR,KIR,296,Kiribati,73,92003,9,57,175.036,-1.508
Nauru,515,803,NR,520,NR,NRU,Oceania,Micronèsia,Oceania,Micronesia,NA,14019,Nauru,0,2019,NR,NRU,520,Nauru,2,10111,9,57,166.93,-0.522
Palau,516,825,PW,585,PW,PLW,Oceania,Micronèsia,Oceania,Micronesia,NA,20796,Palau,0,2019,PS,PLW,585,Palau,0,20127,9,57,134.57,7.501
Timor-Leste,517,626,TL,626,TL,TLS,Àsia,Àsià sud-oriental,Asia,South-Eastern Asia,NA,1131612,Timor-Leste,0,2019,TT,TLS,626,Timor-Leste,1487,1067285,142,35,125.878,-8.822
Polinèsia Francesa,520,822,PF,258,PF,PYF,Oceania,Polinèsia,Oceania,Polynesia,NA,287032,French Polynesia,1,2019,FP,PYF,258,French Polynesia,366,255632,9,61,-149.462,-17.626
Illa Norfolk,521,836,NF,574,NF,NFK,Oceania,Austràlia i Nova Zelanda,Oceania,Australia and New Zealand,NA,2141,Norfolk Island,1,2019,NF,NFK,574,Norfolk Island,0,0,9,53,167.953,-29.037
Niue,523,838,NU,570,NU,NIU,Oceania,Polinèsia,Oceania,Polynesia,NA,1398,Niue,1,2019,NE,NIU,570,Niue,26,1632,9,61,-169.869,-19.052
Pitcairn,524,813,PN,612,PN,PCN,Oceania,Polinèsia,Oceania,Polynesia,NA,48,Pitcairn,1,2019,PC,PCN,612,Pitcairn Islands,0,5,9,61,-128.316,-24.366
Tokelau,525,839,TK,772,TK,TKL,Oceania,Polinèsia,Oceania,Polynesia,NA,NA,Tokelau,1,2019,TL,TKL,772,Tokelau,1,1401,9,61,-171.853,-9.193
Nova Caledònia,526,809,NC,540,NC,NCL,Oceania,Melanèsia,Oceania,Melanesia,NA,227436,New Caledonia,1,2019,NC,NCL,540,New Caledonia,1828,234185,9,54,165.447,-21.359
Wallis i Futuna,527,811,WF,876,WF,WLF,Oceania,Polinèsia,Oceania,Polynesia,NA,15289,Wallis And Futuna,1,2019,WF,WLF,876,Wallis and Futuna Islands,14,15079,9,61,-178.131,-14.289
Samoa Americana,528,830,AS,16,AS,ASM,Oceania,Polinèsia,Oceania,Polynesia,NA,65628,American Samoa,1,2019,AQ,ASM,16,American Samoa,20,64051,9,61,-170.73,-14.318
Albània,101,70,AL,8,AL,ALB,Europa,Europa meridional,Europe,Southern Europe,NA,3639453,Albania,0,2020,AL,ALB,8,Albania,2740,3153731,150,39,20.068,41.143
Àustria,102,38,AT,40,AT,AUT,Europa,Europa occidental,Europe,Western Europe,1,8210281,Austria,0,2020,AU,AUT,40,Austria,8245,8291979,150,155,14.912,47.683
Bèlgica,103,17,BE,56,BE,BEL,Europa,Europa occidental,Europe,Western Europe,1,10414336,Belgium,0,2020,BE,BEL,56,Belgium,0,10398049,150,155,4.664,50.643
Bulgària,104,68,BG,100,BG,BGR,Europa,Europa oriental,Europe,Eastern Europe,1,7204687,Bulgaria,0,2020,BU,BGR,100,Bulgaria,11063,7744591,150,151,25.231,42.761
Xipre,106,600,CY,196,CY,CYP,Àsia,Àsia occidental,Asia,Western Asia,1,531640,Cyprus,0,2020,CY,CYP,196,Cyprus,924,836321,142,145,33.219,35.043
Dinamarca,107,8,DK,208,DK,DNK,Europa,Europa septentrional,Europe,Northern Europe,1,5500510,Denmark,0,2020,DA,DNK,208,Denmark,4243,5416945,150,154,9.264,56.058
Espanya,108,11,ES,724,ES,ESP,Europa,Europa meridional,Europe,Southern Europe,1,40525002,Spain,0,2020,SP,ESP,724,Spain,49904,43397491,150,39,-3.649,40.227
Finlàndia,109,32,FI,246,FI,FIN,Europa,Europa septentrional,Europe,Northern Europe,1,5250275,Finland,0,2020,FI,FIN,246,Finland,30459,5246004,150,154,26.272,64.504
França,110,1,FR,250,FR,FRA,Europa,Europa occidental,Europe,Western Europe,1,64057792,France,0,2020,FR,FRA,250,France,55010,60990544,150,155,2.55,46.565
Grècia,111,9,GR,300,GR,GRC,Europa,Europa meridional,Europe,Southern Europe,1,10737428,Greece,0,2020,GR,GRC,300,Greece,12890,11099737,150,39,21.766,39.666
Hongria,112,64,HU,348,HU,HUN,Europa,Europa oriental,Europe,Eastern Europe,1,9905596,Hungary,0,2020,HU,HUN,348,Hungary,9210,10086387,150,151,19.134,47.07
Irlanda,113,7,IE,372,IE,IRL,Europa,Europa septentrional,Europe,Northern Europe,1,4203200,Ireland,0,2020,EI,IRL,372,Ireland,6889,4143294,150,154,-8.152,53.177
Islàndia,114,24,IS,352,IS,ISL,Europa,Europa septentrional,Europe,Northern Europe,NA,306694,Iceland,0,2020,IC,ISL,352,Iceland,10025,295732,150,154,-18.48,64.764
Itàlia,115,5,IT,380,IT,ITA,Europa,Europa meridional,Europe,Southern Europe,1,58126212,Italy,0,2020,IT,ITA,380,Italy,29411,5864636,150,39,10.44,44.931
Liechtenstein,116,37,LI,438,LI,LIE,Europa,Europa occidental,Europe,Western Europe,NA,34761,Liechtenstein,0,2020,LS,LIE,438,Liechtenstein,16,34598,150,155,9.555,47.153
Luxemburg,117,18,LU,442,LU,LUX,Europa,Europa occidental,Europe,Western Europe,1,491775,Luxembourg,0,2020,LU,LUX,442,Luxembourg,0,456613,150,155,6.088,49.771
Malta,118,46,MT,470,MT,MLT,Europa,Europa meridional,Europe,Southern Europe,1,405165,Malta,0,2020,MT,MLT,470,Malta,32,402617,150,39,14.442,35.89
Mònaco,119,1,FR,492,MC,MCO,Europa,Europa occidental,Europe,Western Europe,NA,32965,Monaco,0,2020,MN,MCO,492,Monaco,0,325,150,155,7.412,43.75
Noruega,120,28,NO,578,NO,NOR,Europa,Europa septentrional,Europe,Northern Europe,NA,4676305,Norway,0,2020,NO,NOR,578,Norway,30625,4638836,150,154,8.74,61.152
Països Baixos,121,3,NL,528,NL,NLD,Europa,Europa occidental,Europe,Western Europe,1,16715999,Netherlands,0,2020,NL,NLD,528,Netherlands,3388,1632769,150,155,5.389,52.077
Polònia,122,60,PL,616,PL,POL,Europa,Europa oriental,Europe,Eastern Europe,1,38482919,Poland,0,2020,PL,POL,616,Poland,30629,38195558,150,151,19.401,52.125
Portugal,123,10,PT,620,PT,PRT,Europa,Europa meridional,Europe,Southern Europe,1,10707924,Portugal,0,2020,PO,PRT,620,Portugal,9150,10528226,150,39,-8.058,40.309
Andorra,124,43,AD,20,AD,AND,Europa,Europa meridional,Europe,Southern Europe,NA,83888,Andorra,0,2020,AN,AND,20,Andorra,0,73483,150,39,1.576,42.549
Regne Unit,125,6,GB,826,GB,GBR,Europa,Europa septentrional,Europe,Northern Europe,NA,61113205,United Kingdom,0,2020,UK,GBR,826,United Kingdom,24193,60244834,150,154,-2.9,54.16
Alemanya,126,4,DE,276,DE,DEU,Europa,Europa occidental,Europe,Western Europe,1,82329758,Germany,0,2020,GM,DEU,276,Germany,34895,82652369,150,155,9.851,51.11
Romania,128,66,RO,642,RO,ROU,Europa,Europa oriental,Europe,Eastern Europe,1,22215421,Romania,0,2020,RO,ROU,642,Romania,22987,21627557,150,151,24.969,45.844
San Marino,129,47,SM,674,SM,SMR,Europa,Europa meridional,Europe,Southern Europe,NA,30324,San Marino,0,2020,SM,SMR,674,San Marino,0,30214,150,39,12.46,43.942
Santa Seu,130,45,VA,336,VA,VAT,Europa,Europa meridional,Europe,Southern Europe,NA,826,Holy See (Vatican City State),0,2020,VT,VAT,336,Holy See (Vatican City),0,783,150,39,12.451,41.904
Suècia,131,30,SE,752,SE,SWE,Europa,Europa septentrional,Europe,Northern Europe,1,9059651,Sweden,0,2020,SW,SWE,752,Sweden,41033,9038049,150,154,15.27,62.011
Suïssa,132,39,CH,756,CH,CHE,Europa,Europa occidental,Europe,Western Europe,NA,7604467,Switzerland,0,2020,SZ,CHE,756,Switzerland,4000,7424389,150,155,7.908,46.861
Ucraïna,135,72,UA,804,UA,UKR,Europa,Europa oriental,Europe,Eastern Europe,NA,45700395,Ukraine,0,2020,UP,UKR,804,Ukraine,57935,46917544,150,151,31.388,49.016
Letònia,136,54,LV,428,LV,LVA,Europa,Europa septentrional,Europe,Northern Europe,1,2231503,Latvia,0,2020,LG,LVA,428,Latvia,6205,2301793,150,154,25.641,56.858
Moldàvia,137,74,MD,498,MD,MDA,Europa,Europa oriental,Europe,Eastern Europe,NA,4320748,"Moldova, Republic Of",0,2020,MD,MDA,498,Republic of Moldova,3288,3876661,150,151,28.599,47.193
Belarús,138,73,BY,112,BY,BLR,Europa,Europa oriental,Europe,Eastern Europe,NA,9648533,Belarus,0,2020,BO,BLR,112,Belarus,20748,9795287,150,151,28.047,53.54
Geòrgia,139,76,GE,268,GE,GEO,Àsia,Àsia occidental,Asia,Western Asia,NA,4615807,Georgia,0,2020,GG,GEO,268,Georgia,6949,4473409,142,145,43.518,42.176
Estònia,141,53,EE,233,EE,EST,Europa,Europa septentrional,Europe,Northern Europe,1,1299371,Estonia,0,2020,EN,EST,233,Estonia,4239,1344312,150,154,25.793,58.674
Lituània,142,55,LT,440,LT,LTU,Europa,Europa septentrional,Europe,Northern Europe,1,3555179,Lithuania,0,2020,LH,LTU,440,Lithuania,6268,3425077,150,154,23.897,55.336
Txèquia,143,61,CZ,203,CZ,CZE,Europa,Europa oriental,Europe,Eastern Europe,1,10211904,Czech Republic,0,2020,EZ,CZE,203,Czech Republic,7727,10191762,150,151,15.338,49.743
Eslovàquia,144,63,SK,703,SK,SVK,Europa,Europa oriental,Europe,Eastern Europe,1,5463046,Slovakia,0,2020,LO,SVK,703,Slovakia,4808,5386995,150,151,19.491,48.707
Bòsnia i Hercegovina,145,93,BA,70,BA,BIH,Europa,Europa meridional,Europe,Southern Europe,NA,4613414,Bosnia And Herzegovina,0,2020,BK,BIH,70,Bosnia and Herzegovina,5120,3915238,150,39,17.786,44.169
Croàcia,146,92,HR,191,HR,HRV,Europa,Europa meridional,Europe,Southern Europe,1,4489409,Croatia,0,2020,HR,HRV,191,Croatia,5592,4455149,150,39,16.693,45.723
Eslovènia,147,91,SI,705,SI,SVN,Europa,Europa meridional,Europe,Southern Europe,1,2005692,Slovenia,0,2020,SI,SVN,705,Slovenia,2014,1999425,150,39,14.827,46.124
Armènia,148,77,AM,51,AM,ARM,Àsia,Àsia occidental,Asia,Western Asia,NA,2967004,Armenia,0,2020,AM,ARM,51,Armenia,2820,3017661,142,145,44.563,40.534
Rússia,154,75,RU,643,RU,RUS,Europa,Europa oriental,Europe,Eastern Europe,NA,140041247,Russian Federation,0,2020,RS,RUS,643,Russia,1638094,143953092,150,151,96.689,61.988
Macedònia,156,96,MK,807,MK,MKD,Europa,Europa meridional,Europe,Southern Europe,NA,2066718,"Macedonia, The Former Yugoslav Republic Of",0,2020,MK,MKD,807,The former Yugoslav Republic of Macedonia,2543,2033655,150,39,21.698,41.6
Sèrbia,157,98,XS,688,RS,SRB,Europa,Europa meridional,Europe,Southern Europe,NA,7379339,Serbia,0,2020,RB,SRB,688,Serbia,0,9863026,150,39,20.806,44.032
Montenegro,158,97,ME,499,ME,MNE,Europa,Europa meridional,Europe,Southern Europe,NA,672180,Montenegro,0,2020,MJ,MNE,499,Montenegro,0,607969,150,39,19.254,42.792
Guernsey,170,6,GB,831,GG,GGY,Europa,Europa septentrional,Europe,Northern Europe,NA,65870,Guernsey,1,2020,GK,GGY,831,Guernsey,0,0,150,154,-2.576,49.459
Svalbard i Jan Mayen,171,28,NO,744,SJ,SJM,Europa,Europa septentrional,Europe,Northern Europe,NA,NA,Svalbard And Jan Mayen,1,2020,SV,SJM,744,Svalbard,0,0,150,154,18.374,78.83
Fèroe,172,41,FO,234,FO,FRO,Europa,Europa septentrional,Europe,Northern Europe,NA,48856,Faroe Islands,1,2020,FO,FRO,234,Faroe Islands,0,48205,150,154,-6.864,62.05
Illa de Man,173,6,GB,833,IM,IMN,Europa,Europa septentrional,Europe,Northern Europe,NA,76512,Isle Of Man,1,2020,IM,IMN,833,Isle of Man,0,78357,150,154,-4.527,54.229
Gibraltar,174,44,GI,292,GI,GIB,Europa,Europa meridional,Europe,Southern Europe,NA,NA,Gibraltar,1,2020,GI,GIB,292,Gibraltar,0,291,150,39,-5.345,36.138
Jersey,176,6,GB,832,JE,JEY,Europa,Europa septentrional,Europe,Northern Europe,NA,91626,Jersey,1,2020,JE,JEY,832,Jersey,0,0,150,154,-2.129,49.219
Aland,177,32,FI,248,AX,ALA,Europa,Europa septentrional,Europe,Northern Europe,1,27153,Aland Islands,1,2020,NA,ALA,248,Aaland Islands,0,0,150,154,19.952,60.198
Burkina Faso,201,236,BF,854,BF,BFA,Àfrica,Àfrica occidental,Africa,Western Africa,NA,15746232,Burkina Faso,0,2020,UV,BFA,854,Burkina Faso,27360,13933363,2,11,-1.74,12.278
Angola,202,330,AO,24,AO,AGO,Àfrica,Àfrica central,Africa,Middle Africa,NA,12799293,Angola,0,2020,AO,AGO,24,Angola,124670,16095214,2,17,17.544,-12.296
Algèria,203,208,DZ,12,DZ,DZA,Àfrica,Àfrica septentrional,Africa,Northern Africa,NA,34178188,Algeria,0,2020,AG,DZA,12,Algeria,238174,32854159,2,15,2.632,28.163
Benín,204,284,BJ,204,BJ,BEN,Àfrica,Àfrica occidental,Africa,Western Africa,NA,8791832,Benin,0,2020,BN,BEN,204,Benin,11062,8490301,2,11,2.469,10.541
Botswana,205,391,BW,72,BW,BWA,Àfrica,Àfrica meridional,Africa,Southern Africa,NA,1990876,Botswana,0,2020,BC,BWA,72,Botswana,56673,1835938,2,18,23.815,-22.182
Burundi,206,328,BI,108,BI,BDI,Àfrica,Àfrica oriental,Africa,Eastern Africa,NA,8988091,Burundi,0,2020,BY,BDI,108,Burundi,2568,7858791,2,14,29.887,-3.356
Cap Verd,207,247,CV,132,CV,CPV,Àfrica,Àfrica occidental,Africa,Western Africa,NA,429474,Cape Verde,0,2020,CV,CPV,132,Cape Verde,403,506807,2,11,-23.634,15.071
Camerun,208,302,CM,120,CM,CMR,Àfrica,Àfrica central,Africa,Middle Africa,NA,18879301,Cameroon,0,2020,CM,CMR,120,Cameroon,46540,17795149,2,17,12.277,5.133
"Comores, les",209,375,KM,174,KM,COM,Àfrica,Àfrica oriental,Africa,Eastern Africa,NA,752438,Comoros,0,2020,CN,COM,174,Comoros,223,797902,2,14,43.337,-11.758
Congo,210,318,CG,178,CG,COG,Àfrica,Àfrica central,Africa,Middle Africa,NA,4012809,"Congo, Republic Of",0,2020,CF,COG,178,Congo,34150,3609851,2,17,15.986,-0.055
Costa d'Ivori,211,272,CI,384,CI,CIV,Àfrica,Àfrica occidental,Africa,Western Africa,NA,20617068,Cote D'Ivoire,0,2020,IV,CIV,384,Cote d'Ivoire,31800,18584701,2,11,-5.556,7.632
Djibouti,212,338,DJ,262,DJ,DJI,Àfrica,Àfrica oriental,Africa,Eastern Africa,NA,516055,Djibouti,0,2020,DJ,DJI,262,Djibouti,2318,804206,2,14,42.516,11.9
Egipte,213,220,EG,818,EG,EGY,Àfrica,Àfrica septentrional,Africa,Northern Africa,NA,83082869,Egypt,0,2020,EG,EGY,818,Egypt,99545,72849793,2,15,29.872,26.494
Etiòpia,214,334,ET,231,ET,ETH,Àfrica,Àfrica oriental,Africa,Eastern Africa,NA,85237338,Ethiopia,0,2020,ET,ETH,231,Ethiopia,100000,78985857,2,14,39.616,8.626
Gabon,215,314,GA,266,GA,GAB,Àfrica,Àfrica central,Africa,Middle Africa,NA,1514993,Gabon,0,2020,GB,GAB,266,Gabon,25767,1290693,2,17,11.797,-0.591
Gàmbia,216,252,GM,270,GM,GMB,Àfrica,Àfrica occidental,Africa,Western Africa,NA,1782893,Gambia,0,2020,GA,GMB,270,Gambia,1000,1617029,2,11,-15.386,13.453
Ghana,217,276,GH,288,GH,GHA,Àfrica,Àfrica occidental,Africa,Western Africa,NA,23832495,Ghana,0,2020,GH,GHA,288,Ghana,22754,2253501,2,11,-1.207,7.96
Guinea,218,260,GN,324,GN,GIN,Àfrica,Àfrica occidental,Africa,Western Africa,NA,10057975,Guinea,0,2020,GV,GIN,324,Guinea,24572,9002656,2,11,-10.942,10.439
Guinea-Bissau,219,257,GW,624,GW,GNB,Àfrica,Àfrica occidental,Africa,Western Africa,NA,1533964,Guinea-Bissau,0,2020,PU,GNB,624,Guinea-Bissau,2812,1596929,2,11,-14.651,12.125
Guinea Equatorial,220,310,GQ,226,GQ,GNQ,Àfrica,Àfrica central,Africa,Middle Africa,NA,633441,Equatorial Guinea,0,2020,EK,GNQ,226,Equatorial Guinea,2805,484098,2,17,10.488,1.607
Kenya,221,346,KE,404,KE,KEN,Àfrica,Àfrica oriental,Africa,Eastern Africa,NA,39002772,Kenya,0,2020,KE,KEN,404,Kenya,56914,35598952,2,14,37.858,0.53
Lesotho,222,395,LS,426,LS,LSO,Àfrica,Àfrica meridional,Africa,Southern Africa,NA,2130819,Lesotho,0,2020,LT,LSO,426,Lesotho,3035,1980831,2,18,28.243,-29.581
Libèria,223,268,LR,430,LR,LBR,Àfrica,Àfrica occidental,Africa,Western Africa,NA,3441790,Liberia,0,2020,LI,LBR,430,Liberia,9632,3441796,2,11,-9.657,6.682
Líbia,224,216,LY,434,LY,LBY,Àfrica,Àfrica septentrional,Africa,Northern Africa,NA,6310434,Libyan Arab Jamahiriya,0,2020,LY,LBY,434,Libyan Arab Jamahiriya,175954,5918217,2,15,18.023,27.044
Madagascar,225,370,MG,450,MG,MDG,Àfrica,Àfrica oriental,Africa,Eastern Africa,NA,20653556,Madagascar,0,2020,MA,MDG,450,Madagascar,58154,18642586,2,14,46.706,-19.374
Malawi,226,386,MW,454,MW,MWI,Àfrica,Àfrica oriental,Africa,Eastern Africa,NA,14268711,Malawi,0,2020,MI,MWI,454,Malawi,9408,13226091,2,14,33.808,-13.4
Mali,227,232,ML,466,ML,MLI,Àfrica,Àfrica occidental,Africa,Western Africa,NA,12666987,Mali,0,2020,ML,MLI,466,Mali,122019,1161109,2,11,-3.524,17.35
"Marroc, el",228,204,MA,504,MA,MAR,Àfrica,Àfrica septentrional,Africa,Northern Africa,NA,34859364,Morocco,0,2020,MO,MAR,504,Morocco,44630,30494991,2,15,-5.758,32.706
Maurici,229,373,MU,480,MU,MUS,Àfrica,Àfrica oriental,Africa,Eastern Africa,NA,1284264,Mauritius,0,2020,MP,MUS,480,Mauritius,203,1241173,2,14,57.583,-20.255
Mauritània,230,228,MR,478,MR,MRT,Àfrica,Àfrica occidental,Africa,Western Africa,NA,3129486,Mauritania,0,2020,MR,MRT,478,Mauritania,102522,2963105,2,11,-10.332,20.26
Moçambic,231,366,MZ,508,MZ,MOZ,Àfrica,Àfrica oriental,Africa,Eastern Africa,NA,21669278,Mozambique,0,2020,MZ,MOZ,508,Mozambique,78409,20532675,2,14,37.923,-14.422
Namíbia,232,389,NA,516,NA,NAM,Àfrica,Àfrica meridional,Africa,Southern Africa,NA,2108665,Namibia,0,2020,WA,NAM,516,Namibia,82329,2019677,2,18,17.218,-22.133
Níger,233,240,NE,562,NE,NER,Àfrica,Àfrica occidental,Africa,Western Africa,NA,15306252,Niger,0,2020,NG,NER,562,Niger,126670,1326419,2,11,9.398,17.426
Nigèria,234,288,NG,566,NG,NGA,Àfrica,Àfrica occidental,Africa,Western Africa,NA,149229090,Nigeria,0,2020,NI,NGA,566,Nigeria,91077,141356083,2,11,8.105,9.594
República Centreafricana,235,306,CF,140,CF,CAF,Àfrica,Àfrica central,Africa,Middle Africa,NA,4511488,Central African Republic,0,2020,CT,CAF,140,Central African Republic,62298,4191429,2,17,20.483,6.571
Sud-àfrica,236,388,ZA,710,ZA,ZAF,Àfrica,Àfrica meridional,Africa,Southern Africa,NA,49052489,South Africa,0,2020,SF,ZAF,710,South Africa,121447,47938663,2,18,23.121,-30.558
Ruanda,237,324,RW,646,RW,RWA,Àfrica,Àfrica oriental,Africa,Eastern Africa,NA,10473282,Rwanda,0,2020,RW,RWA,646,Rwanda,2467,9233793,2,14,29.917,-1.998
São Tomé i Príncipe,238,311,ST,678,ST,STP,Àfrica,Àfrica central,Africa,Middle Africa,NA,212679,Sao Tome And Principe,0,2020,TP,STP,678,Sao Tome and Principe,96,152622,2,17,6.629,0.201
Senegal,239,248,SN,686,SN,SEN,Àfrica,Àfrica occidental,Africa,Western Africa,NA,13711597,Senegal,0,2020,SG,SEN,686,Senegal,19253,1177034,2,11,-14.881,15.013
Seychelles,240,355,SC,690,SC,SYC,Àfrica,Àfrica oriental,Africa,Eastern Africa,NA,87476,Seychelles,0,2020,SE,SYC,690,Seychelles,46,85532,2,14,55.474,-4.647
Sierra Leone,241,264,SL,694,SL,SLE,Àfrica,Àfrica occidental,Africa,Western Africa,NA,6440053,Sierra Leone,0,2020,SL,SLE,694,Sierra Leone,7162,5586403,2,11,-11.792,8.56
Somàlia,242,342,SO,706,SO,SOM,Àfrica,Àfrica oriental,Africa,Eastern Africa,NA,9832017,Somalia,0,2020,SO,SOM,706,Somalia,62734,8196395,2,14,48.316,9.774
"Sudan, el",243,224,SD,729,SD,SDN,Àfrica,Àfrica septentrional,Africa,Northern Africa,NA,30894000,Sudan,0,2020,SU,SDN,736,Sudan,237600,36899747,2,15,30.05,13.832
Eswatini,244,393,SZ,748,SZ,SWZ,Àfrica,Àfrica meridional,Africa,Southern Africa,NA,1123913,Swaziland,0,2020,WZ,SWZ,748,Swaziland,1720,1124529,2,18,31.497,-26.562
Tanzània,245,352,TZ,834,TZ,TZA,Àfrica,Àfrica oriental,Africa,Eastern Africa,NA,41048532,"Tanzania, United Republic Of",0,2020,TZ,TZA,834,United Republic of Tanzania,88359,38477873,2,14,34.823,-6.27
Txad,246,244,TD,148,TD,TCD,Àfrica,Àfrica central,Africa,Middle Africa,NA,10329208,Chad,0,2020,CD,TCD,148,Chad,125920,10145609,2,17,18.665,15.361
Togo,247,280,TG,768,TG,TGO,Àfrica,Àfrica occidental,Africa,Western Africa,NA,6019877,Togo,0,2020,TO,TGO,768,Togo,5439,6238572,2,11,1.081,8.799
Tunísia,248,212,TN,788,TN,TUN,Àfrica,Àfrica septentrional,Africa,Northern Africa,NA,10486339,Tunisia,0,2020,TS,TUN,788,Tunisia,15536,10104685,2,15,9.596,35.383
Uganda,249,350,UG,800,UG,UGA,Àfrica,Àfrica oriental,Africa,Eastern Africa,NA,32369558,Uganda,0,2020,UG,UGA,800,Uganda,19710,28947181,2,14,32.386,1.28
República Democràtica del Congo,250,322,CD,180,CD,COD,Àfrica,Àfrica central,Africa,Middle Africa,NA,68692542,"Congo, The Democratic Republic Of",0,2020,CG,COD,180,Democratic Republic of the Congo,226705,58740547,2,17,23.654,-2.876
Zàmbia,251,378,ZM,894,ZM,ZMB,Àfrica,Àfrica oriental,Africa,Eastern Africa,NA,11862740,Zambia,0,2020,ZA,ZMB,894,Zambia,74339,11478317,2,14,26.32,-14.614
Zimbàbue,252,382,ZW,716,ZW,ZWE,Àfrica,Àfrica oriental,Africa,Eastern Africa,NA,11392629,Zimbabwe,0,2020,ZI,ZWE,716,Zimbabwe,38685,13119679,2,14,29.872,-19
Eritrea,253,336,ER,232,ER,ERI,Àfrica,Àfrica oriental,Africa,Eastern Africa,NA,5647168,Eritrea,0,2020,ER,ERI,232,Eritrea,10100,4526722,2,14,38.219,16.045
"Sudan del Sud, el",254,224,SS,728,SS,SSD,Àfrica,Àfrica septentrional,Africa,Northern Africa,NA,8260490,South Sudan,0,2020,NA,NA,NA,NA,NA,NA,NA,NA,31.6,4.85
"Saint Helena, Ascenció i Tristan da Cunha",260,329,SH,654,SH,SHN,Àfrica,Àfrica occidental,Africa,Western Africa,NA,7637,Saint Helena,1,2020,SH,SHN,654,Saint Helena,0,6399,2,11,-5.71,-15.953
"Reunió, la",261,1,FR,638,RE,REU,Àfrica,Àfrica oriental,Africa,Eastern Africa,1,NA,Reunion,1,2020,RE,REU,638,Reunion,250,785159,2,14,55.538,-21.122
Mayotte,262,377,YT,175,YT,MYT,Àfrica,Àfrica oriental,Africa,Eastern Africa,1,NA,Mayotte,1,2020,MF,MYT,175,Mayotte,0,0,2,14,45.155,-12.777
Sàhara Occidental,263,NA,EH,732,EH,ESH,Àfrica,Àfrica septentrional,Africa,Northern Africa,NA,NA,Western Sahara,0,2020,WI,ESH,732,Western Sahara,0,440428,2,15,-13.706,24.554
Canadà,301,404,CA,124,CA,CAN,Amèrica,Apàtrides/No consta,Americas,Northern America,NA,33487208,Canada,0,2020,CA,CAN,124,Canada,909351,32270507,19,21,-109.433,59.081
"Estats Units, els",302,400,US,840,US,USA,Amèrica,Apàtrides/No consta,Americas,Northern America,NA,307212123,United States,0,2020,US,USA,840,United States,915896,299846449,19,21,-98.606,39.622
Mèxic,303,412,MX,484,MX,MEX,Amèrica,Amèrica central,Americas,Central America,NA,111211789,Mexico,0,2020,MX,MEX,484,Mexico,190869,104266392,19,13,-102.535,23.951
Antigua i Barbuda,310,459,AG,28,AG,ATG,Amèrica,Carib,Americas,Caribbean,NA,85632,Antigua And Barbuda,0,2020,AC,ATG,28,Antigua and Barbuda,44,83039,19,29,-61.783,17.078
"Bahames, les",311,453,BS,44,BS,BHS,Amèrica,Carib,Americas,Caribbean,NA,309156,Bahamas,0,2020,BF,BHS,44,Bahamas,1001,323295,19,29,-78.014,24.628
Barbados,312,469,BB,52,BB,BRB,Amèrica,Carib,Americas,Caribbean,NA,284589,Barbados,0,2020,BB,BRB,52,Barbados,43,291933,19,29,-59.559,13.153
Belize,313,421,BZ,84,BZ,BLZ,Amèrica,Amèrica central,Americas,Central America,NA,307899,Belize,0,2020,BH,BLZ,84,Belize,2281,275546,19,13,-88.602,17.219
Costa Rica,314,436,CR,188,CR,CRI,Amèrica,Amèrica central,Americas,Central America,NA,4253877,Costa Rica,0,2020,CS,CRI,188,Costa Rica,5106,4327228,19,13,-83.946,9.971
Cuba,315,448,CU,192,CU,CUB,Amèrica,Carib,Americas,Caribbean,NA,11451652,Cuba,0,2020,CU,CUB,192,Cuba,10982,11259905,19,29,-77.781,21.297
Dominica,316,460,DM,212,DM,DMA,Amèrica,Carib,Americas,Caribbean,NA,72660,Dominica,0,2020,DO,DMA,212,Dominica,75,67827,19,29,-61.356,15.475
El Salvador,317,428,SV,222,SV,SLV,Amèrica,Amèrica central,Americas,Central America,NA,7185218,El Salvador,0,2020,ES,SLV,222,El Salvador,2072,6668356,19,13,-88.866,13.736
Grenada,318,473,GD,308,GD,GRD,Amèrica,Carib,Americas,Caribbean,NA,90739,Grenada,0,2020,GJ,GRD,308,Grenada,34,105237,19,29,-61.678,12.118
Guatemala,319,416,GT,320,GT,GTM,Amèrica,Amèrica central,Americas,Central America,NA,13276517,Guatemala,0,2020,GT,GTM,320,Guatemala,10843,12709564,19,13,-90.398,15.256
Haití,320,452,HT,332,HT,HTI,Amèrica,Carib,Americas,Caribbean,NA,9035536,Haiti,0,2020,HA,HTI,332,Haiti,2756,9296291,19,29,-72.278,19.142
Hondures,321,424,HN,340,HN,HND,Amèrica,Amèrica central,Americas,Central America,NA,7792854,Honduras,0,2020,HO,HND,340,Honduras,11189,683411,19,13,-86.863,14.819
Jamaica,322,464,JM,388,JM,JAM,Amèrica,Carib,Americas,Caribbean,NA,2825928,Jamaica,0,2020,JM,JAM,388,Jamaica,1083,2682469,19,29,-77.32,18.151
Nicaragua,323,432,NI,558,NI,NIC,Amèrica,Amèrica central,Americas,Central America,NA,5891199,Nicaragua,0,2020,NU,NIC,558,Nicaragua,12140,5462539,19,13,-85.034,12.84
Panamà,324,442,PA,591,PA,PAN,Amèrica,Amèrica central,Americas,Central America,NA,3360474,Panama,0,2020,PM,PAN,591,Panama,7443,3231502,19,13,-80.92,8.384
Saint Vincent i les Grenadines,325,467,VC,670,VC,VCT,Amèrica,Carib,Americas,Caribbean,NA,104574,Saint Vincent And The Grenadines,0,2020,VC,VCT,670,Saint Vincent and the Grenadines,39,119137,19,29,-61.194,13.248
República Dominicana,326,456,DO,214,DO,DOM,Amèrica,Carib,Americas,Caribbean,NA,9650054,Dominican Republic,0,2020,DR,DOM,214,Dominican Republic,4838,9469601,19,29,-70.729,19.015
Trinidad i Tobago,327,472,TT,780,TT,TTO,Amèrica,Carib,Americas,Caribbean,NA,1310000,Trinidad And Tobago,0,2020,TD,TTO,780,Trinidad and Tobago,513,1323722,19,29,-61.253,10.468
Saint Lucia,328,465,LC,662,LC,LCA,Amèrica,Carib,Americas,Caribbean,NA,160267,Saint Lucia,0,2020,ST,LCA,662,Saint Lucia,61,16124,19,29,-60.969,13.898
Saint Kitts i Nevis,329,449,KN,659,KN,KNA,Amèrica,Carib,Americas,Caribbean,NA,40131,Saint Kitts And Nevis,0,2020,SC,KNA,659,Saint Kitts and Nevis,36,49138,19,29,-62.769,17.34
Argentina,340,528,AR,32,AR,ARG,Amèrica,Amèrica del sud,Americas,South America,NA,40913584,Argentina,0,2020,AR,ARG,32,Argentina,273669,38747148,19,5,-65.167,-35.377
Bolívia,341,516,BO,68,BO,BOL,Amèrica,Amèrica del sud,Americas,South America,NA,9775246,"Bolivia, Plurinational State Of",0,2020,BL,BOL,68,Bolivia,108438,9182015,19,5,-64.671,-16.715
Brasil,342,508,BR,76,BR,BRA,Amèrica,Amèrica del sud,Americas,South America,NA,198739269,Brazil,0,2020,BR,BRA,76,Brazil,845942,186830759,19,5,-53.089,-10.772
Colòmbia,343,480,CO,170,CO,COL,Amèrica,Amèrica del sud,Americas,South America,NA,45644023,Colombia,0,2020,CO,COL,170,Colombia,103870,4494579,19,5,-73.076,3.9
Xile,344,512,CL,152,CL,CHL,Amèrica,Amèrica del sud,Americas,South America,NA,16601707,Chile,0,2020,CI,CHL,152,Chile,74880,16295102,19,5,-69.433,-23.389
Equador,345,500,EC,218,EC,ECU,Amèrica,Amèrica del sud,Americas,South America,NA,14573101,Ecuador,0,2020,EC,ECU,218,Ecuador,27684,13060993,19,5,-78.497,-1.385
Guyana,346,488,GY,328,GY,GUY,Amèrica,Amèrica del sud,Americas,South America,NA,772298,Guyana,0,2020,GY,GUY,328,Guyana,19685,739472,19,5,-58.974,4.792
Paraguai,347,520,PY,600,PY,PRY,Amèrica,Amèrica del sud,Americas,South America,NA,6995655,Paraguay,0,2020,PA,PRY,600,Paraguay,39730,5904342,19,5,-58.391,-23.236
Perú,348,504,PE,604,PE,PER,Amèrica,Amèrica del sud,Americas,South America,NA,29546963,Peru,0,2020,PE,PER,604,Peru,128000,27274266,19,5,-75.552,-9.326
Surinam,349,492,SR,740,SR,SUR,Amèrica,Amèrica del sud,Americas,South America,NA,481267,Suriname,0,2020,NS,SUR,740,Suriname,15600,452468,19,5,-55.912,4.127
Uruguai,350,524,UY,858,UY,URY,Amèrica,Amèrica del sud,Americas,South America,NA,3494382,Uruguay,0,2020,UY,URY,858,Uruguay,17502,3325727,19,5,-56.012,-32.8
Veneçuela,351,484,VE,862,VE,VEN,Amèrica,Amèrica del sud,Americas,South America,NA,26814843,"Venezuela, Bolivarian Republic Of",0,2020,VE,VEN,862,Venezuela,88205,26725573,19,5,-66.166,7.125
Saint-Pierre-et-Miquelon,370,408,PM,666,PM,SPM,Amèrica,Apàtrides/No consta,Americas,Northern America,NA,7051,Saint Pierre And Miquelon,1,2020,SB,SPM,666,Saint Pierre and Miquelon,0,6346,19,21,-56.325,47.042
Groenlàndia,371,406,GL,304,GL,GRL,Amèrica,Apàtrides/No consta,Americas,Northern America,NA,57600,Greenland,1,2020,GL,GRL,304,Greenland,41045,57475,19,21,-41.391,74.719
Illes Caiman,380,463,KY,136,KY,CYM,Amèrica,Carib,Americas,Caribbean,NA,49035,Cayman Islands,1,2020,CJ,CYM,136,Cayman Islands,26,45591,19,29,-81.198,19.314
Illes Turks i Caicos,381,454,TC,796,TC,TCA,Amèrica,Carib,Americas,Caribbean,NA,22942,Turks And Caicos Islands,1,2020,TK,TCA,796,Turks and Caicos Islands,0,24459,19,29,-71.95,21.902
Illes Verges dels Estats Units,382,457,VI,850,VI,VIR,Amèrica,Carib,Americas,Caribbean,NA,109825,"Virgin Islands, U.S.",1,2020,VQ,VIR,850,United States Virgin Islands,35,111408,19,29,-64.785,17.741
Guadalupe,383,1,FR,312,GP,GLP,Amèrica,Carib,Americas,Caribbean,1,NA,Guadeloupe,1,2020,GP,GLP,312,Guadeloupe,169,438403,19,29,-61.441,16.286
Bermudes,384,413,BM,60,BM,BMU,Amèrica,Apàtrides/No consta,Americas,Northern America,NA,67837,Bermuda,1,2020,BD,BMU,60,Bermuda,5,64174,19,21,-64.709,32.336
Saint-Martin,385,1,FR,663,MF,MAF,Amèrica,Carib,Americas,Caribbean,1,29820,Saint Martin,1,2020,RN,MAF,663,Saint Martin,0,0,19,29,-63.041,18.094
Martinica,386,1,FR,474,MQ,MTQ,Amèrica,Carib,Americas,Caribbean,1,NA,Martinique,1,2020,MB,MTQ,474,Martinique,106,395896,19,29,-61.021,14.653
Montserrat,387,470,MS,500,MS,MSR,Amèrica,Carib,Americas,Caribbean,NA,5097,Montserrat,1,2020,MH,MSR,500,Montserrat,10,5628,19,29,-62.187,16.736
Anguilla,388,446,AI,660,AI,AIA,Amèrica,Carib,Americas,Caribbean,NA,14436,Anguilla,1,2020,AV,AIA,660,Anguilla,0,12256,19,29,-63.032,18.237
Saint-Barthélemy,389,1,BL,652,BL,BLM,Amèrica,Carib,Americas,Caribbean,NA,7448,Saint Barthelemy,1,2020,TB,BLM,652,Saint Barthelemy,0,0,19,29,-63.043,18.04
Puerto Rico,390,400,US,630,PR,PRI,Amèrica,Carib,Americas,Caribbean,NA,3971020,Puerto Rico,1,2020,RQ,PRI,630,Puerto Rico,887,3946779,19,29,-66.466,18.221
Aruba,391,474,AW,533,AW,ABW,Amèrica,Carib,Americas,Caribbean,NA,103065,Aruba,1,2020,AA,ABW,533,Aruba,0,102897,19,29,-69.977,12.517
Illes Verges Britàniques,393,468,VG,92,VG,VGB,Amèrica,Carib,Americas,Caribbean,NA,24491,"Virgin Islands, British",1,2020,VI,VGB,92,British Virgin Islands,15,22016,19,29,-64.39,18.483
Guaiana Francesa,394,1,FR,254,GF,GUF,Amèrica,Amèrica del sud,Americas,South America,1,236250,French Guiana,1,2020,FG,GUF,254,French Guiana,8815,192099,19,5,-53.241,3.924
Illes Falkland (Malvines),395,529,FK,238,FK,FLK,Amèrica,Amèrica del sud,Americas,South America,NA,3140,Falkland Islands (Malvinas),1,2020,FK,FLK,238,Falkland Islands (Malvinas),1217,2975,19,5,-58.694,-51.665
Afganistan,401,660,AF,4,AF,AFG,Àsia,Àsia meridional,Asia,Southern Asia,NA,28400000,Afghanistan,0,2020,AF,AFG,4,Afghanistan,65209,25067407,142,34,65.216,33.677
Aràbia Saudí,402,632,SA,682,SA,SAU,Àsia,Àsia occidental,Asia,Western Asia,NA,28686633,Saudi Arabia,0,2020,SA,SAU,682,Saudi Arabia,214969,2361236,142,145,44.585,24.023
Bahrain,403,640,BH,48,BH,BHR,Àsia,Àsia occidental,Asia,Western Asia,NA,727785,Bahrain,0,2020,BA,BHR,48,Bahrain,71,724788,142,145,50.562,26.019
Bangladesh,404,666,BD,50,BD,BGD,Àsia,Àsia meridional,Asia,Southern Asia,NA,156050883,Bangladesh,0,2020,BG,BGD,50,Bangladesh,13017,15328112,142,34,89.941,24.218
Myanmar,405,676,MM,104,MM,MMR,Àsia,Àsià sud-oriental,Asia,South-Eastern Asia,NA,48137741,Myanmar,0,2020,BM,MMR,104,Burma,65755,47967266,142,35,96.041,21.718
Xina,407,720,CN,156,CN,CHN,Àsia,Àsia oriental,Asia,Eastern Asia,NA,1338612968,China,0,2020,CH,CHN,156,China,932743,1312978855,142,30,106.514,33.42
"Emirats Àrabs Units, els",408,647,AE,784,AE,ARE,Àsia,Àsia occidental,Asia,Western Asia,NA,4798491,United Arab Emirates,0,2020,AE,ARE,784,United Arab Emirates,8360,4104291,142,145,54.163,23.549
Filipines,409,708,PH,608,PH,PHL,Àsia,Àsià sud-oriental,Asia,South-Eastern Asia,NA,97976603,Philippines,0,2020,RP,PHL,608,Philippines,29817,84566163,142,35,122.466,11.118
Índia,410,664,IN,356,IN,IND,Àsia,Àsia meridional,Asia,Southern Asia,NA,1166079217,India,0,2020,IN,IND,356,India,297319,1134403141,142,34,79.619,22.881
Indonèsia,411,700,ID,360,ID,IDN,Àsia,Àsià sud-oriental,Asia,South-Eastern Asia,NA,240271522,Indonesia,0,2020,ID,IDN,360,Indonesia,181157,226063044,142,35,114.252,-0.976
"Iraq, l'",412,612,IQ,368,IQ,IRQ,Àsia,Àsia occidental,Asia,Western Asia,NA,28945657,Iraq,0,2020,IZ,IRQ,368,Iraq,43737,27995984,142,145,43.772,33.048
Iran,413,616,IR,364,IR,IRN,Àsia,Àsia meridional,Asia,Southern Asia,NA,66429284,"Iran, Islamic Republic Of",0,2020,IR,IRN,364,Iran (Islamic Republic of),163620,69420607,142,34,54.301,32.565
Israel,414,624,IL,376,IL,ISR,Àsia,Àsia occidental,Asia,Western Asia,NA,7233701,Israel,0,2020,IS,ISR,376,Israel,2171,6692037,142,145,34.851,31.026
Japó,415,732,JP,392,JP,JPN,Àsia,Àsia oriental,Asia,Eastern Asia,NA,127078679,Japan,0,2020,JA,JPN,392,Japan,36450,12789674,142,30,139.068,36.491
Jordània,416,628,JO,400,JO,JOR,Àsia,Àsia occidental,Asia,Western Asia,NA,6342948,Jordan,0,2020,JO,JOR,400,Jordan,8824,5544066,142,145,36.319,30.703
Cambodja,417,696,KH,116,KH,KHM,Àsia,Àsià sud-oriental,Asia,South-Eastern Asia,NA,14494293,Cambodia,0,2020,CB,KHM,116,Cambodia,17652,13955507,142,35,104.564,12.714
Kuwait,418,636,KW,414,KW,KWT,Àsia,Àsia occidental,Asia,Western Asia,NA,2691158,Kuwait,0,2020,KU,KWT,414,Kuwait,1782,2700,142,145,47.376,29.476
Lao,419,684,LA,418,LA,LAO,Àsia,Àsià sud-oriental,Asia,South-Eastern Asia,NA,6834942,Lao People'S Democratic Republic,0,2020,LA,LAO,418,Lao People's Democratic Republic,23080,566391,142,35,102.471,19.905
Líban,420,604,LB,422,LB,LBN,Àsia,Àsia occidental,Asia,Western Asia,NA,4017095,Lebanon,0,2020,LE,LBN,422,Lebanon,1023,401074,142,145,35.888,33.92
Malàisia,421,701,MY,458,MY,MYS,Àsia,Àsià sud-oriental,Asia,South-Eastern Asia,NA,25715819,Malaysia,0,2020,MY,MYS,458,Malaysia,32855,25652985,142,35,102.195,4.201
Maldives,422,667,MV,462,MV,MDV,Àsia,Àsia meridional,Asia,Southern Asia,NA,396334,Maldives,0,2020,MV,MDV,462,Maldives,30,295297,142,34,72.92,3.548
Mongòlia,423,716,MN,496,MN,MNG,Àsia,Àsia oriental,Asia,Eastern Asia,NA,3041142,Mongolia,0,2020,MG,MNG,496,Mongolia,156650,2580704,142,30,102.876,46.056
Nepal,424,672,NP,524,NP,NPL,Àsia,Àsia meridional,Asia,Southern Asia,NA,28563377,Nepal,0,2020,NP,NPL,524,Nepal,14300,27093656,142,34,83.939,28.253
Oman,425,649,OM,512,OM,OMN,Àsia,Àsia occidental,Asia,Western Asia,NA,3418085,Oman,0,2020,MU,OMN,512,Oman,30950,2507042,142,145,57.407,21.656
Pakistan,426,662,PK,586,PK,PAK,Àsia,Àsia meridional,Asia,Southern Asia,NA,176242949,Pakistan,0,2020,PK,PAK,586,Pakistan,77088,158080591,142,34,69.386,29.967
Qatar,427,644,QA,634,QA,QAT,Àsia,Àsia occidental,Asia,Western Asia,NA,833285,Qatar,0,2020,QA,QAT,634,Qatar,1100,796186,142,145,51.191,25.316
Corea del Sud,430,728,KR,410,KR,KOR,Àsia,Àsia oriental,Asia,Eastern Asia,NA,48508972,"Korea, Republic Of",0,2020,KS,KOR,410,"Korea, Republic of",9873,47869837,142,30,128.103,36.504
Corea del Nord,431,724,KP,408,KP,PRK,Àsia,Àsia oriental,Asia,Eastern Asia,NA,22665345,"Korea, Democratic People'S Republic Of",0,2020,KN,PRK,408,"Korea, Democratic People's Republic of",12041,23615611,142,30,126.451,39.778
Singapur,432,706,SG,702,SG,SGP,Àsia,Àsià sud-oriental,Asia,South-Eastern Asia,NA,4657542,Singapore,0,2020,SN,SGP,702,Singapore,67,4327468,142,35,103.808,1.351
Síria,433,608,SY,760,SY,SYR,Àsia,Àsia occidental,Asia,Western Asia,NA,20178485,Syrian Arab Republic,0,2020,SY,SYR,760,Syrian Arab Republic,18378,18893881,142,145,38.506,35.013
Sri Lanka,434,669,LK,144,LK,LKA,Àsia,Àsia meridional,Asia,Southern Asia,NA,21324791,Sri Lanka,0,2020,CE,LKA,144,Sri Lanka,6463,19120763,142,34,80.704,7.612
Tailàndia,435,680,TH,764,TH,THA,Àsia,Àsià sud-oriental,Asia,South-Eastern Asia,NA,65905410,Thailand,0,2020,TH,THA,764,Thailand,51089,63002911,142,35,100.844,15.7
Turquia,436,52,TR,792,TR,TUR,Àsia,Àsia occidental,Asia,Western Asia,NA,76805524,Turkey,0,2020,TU,TUR,792,Turkey,76963,72969723,142,145,35.179,39.061
Vietnam,437,690,VN,704,VN,VNM,Àsia,Àsià sud-oriental,Asia,South-Eastern Asia,NA,86967524,Vietnam,0,2020,VM,VNM,704,Viet Nam,32549,85028643,142,35,105.314,21.491
"Taiwan,Xina",438,736,TW,158,TW,TWN,Àsia,Àsia oriental,Asia,Eastern Asia,NA,22974347,China-Taiwan,0,2020,TW,TWN,158,Taiwan,0,0,0,0,120.946,23.754
Brunei,439,703,BN,96,BN,BRN,Àsia,Àsià sud-oriental,Asia,South-Eastern Asia,NA,388190,Brunei Darussalam,0,2020,BX,BRN,96,Brunei Darussalam,527,373831,142,35,114.591,4.468
Illes Marshall,440,824,MH,584,MH,MHL,Oceania,Micronèsia,Oceania,Micronesia,NA,64522,Marshall Islands,0,2020,RM,MHL,584,Marshall Islands,0,5672,9,57,168.963,7.595
"Iemen, el",441,653,YE,887,YE,YEM,Àsia,Àsia occidental,Asia,Western Asia,NA,23822783,Yemen,0,2020,YM,YEM,887,Yemen,52797,21095679,142,145,48.355,15.807
Azerbaidjan,442,78,AZ,31,AZ,AZE,Àsia,Àsia occidental,Asia,Western Asia,NA,8238672,Azerbaijan,0,2020,AJ,AZE,31,Azerbaijan,8260,8352021,142,145,47.395,40.43
Kazakhstan,443,79,KZ,398,KZ,KAZ,Àsia,Àsia central,Asia,Central Asia,NA,15399437,Kazakhstan,0,2020,KZ,KAZ,398,Kazakhstan,269970,15210609,142,143,67.301,48.16
Kirguizstan,444,83,KG,417,KG,KGZ,Àsia,Àsia central,Asia,Central Asia,NA,5431747,Kyrgyzstan,0,2020,KG,KGZ,417,Kyrgyzstan,19180,5203547,142,143,74.555,41.465
Tadjikistan,445,82,TJ,762,TJ,TJK,Àsia,Àsia central,Asia,Central Asia,NA,7349145,Tajikistan,0,2020,TI,TJK,762,Tajikistan,13996,6550213,142,143,69.42,38.665
Turkmenistan,446,80,TM,795,TM,TKM,Àsia,Àsia central,Asia,Central Asia,NA,4884887,Turkmenistan,0,2020,TX,TKM,795,Turkmenistan,46993,4833266,142,143,59.384,39.122
Uzbekistan,447,81,UZ,860,UZ,UZB,Àsia,Àsia central,Asia,Central Asia,NA,27606007,Uzbekistan,0,2020,UZ,UZB,860,Uzbekistan,42540,26593123,142,143,63.17,41.75
Bhutan,448,675,BT,64,BT,BTN,Àsia,Àsia meridional,Asia,Southern Asia,NA,691141,Bhutan,0,2020,BT,BTN,64,Bhutan,4700,637013,142,34,90.429,27.415
Palestina,449,625,PS,275,PS,PSE,Àsia,Àsia occidental,Asia,Western Asia,NA,2514845,"Palestinian Territory, Occupied",0,2020,NA,PSE,275,Palestine,0,3762005,142,145,35.278,32.037
"Hong Kong, Xina",450,740,HK,344,HK,HKG,Àsia,Àsia oriental,Asia,Eastern Asia,NA,7055071,Hong Kong,1,2020,HK,HKG,344,Hong Kong,0,7057418,142,30,114.129,22.423
Guam,454,831,GU,316,GU,GUM,Oceania,Micronèsia,Oceania,Micronesia,NA,178430,Guam,1,2020,GQ,GUM,316,Guam,55,16857,9,57,144.707,13.385
"Macao, Xina",455,743,MO,446,MO,MAC,Àsia,Àsia oriental,Asia,Eastern Asia,NA,559846,Macao,1,2020,MC,MAC,446,Macau,0,47309,142,30,113.545,22.2
Illes Marianes del Nord,456,820,MP,580,MP,MNP,Oceania,Micronèsia,Oceania,Micronesia,NA,88662,Northern Mariana Islands,1,2020,CQ,MNP,580,Northern Mariana Islands,0,80258,9,57,145.623,15.005
Austràlia,501,800,AU,36,AU,AUS,Oceania,Austràlia i Nova Zelanda,Oceania,Australia and New Zealand,NA,21262641,Australia,0,2020,AS,AUS,36,Australia,768230,20310208,9,53,136.189,-24.973
Fiji,502,815,FJ,242,FJ,FJI,Oceania,Melanèsia,Oceania,Melanesia,NA,944720,Fiji,0,2020,FJ,FJI,242,Fiji,1827,828046,9,54,177.974,-17.819
Nova Zelanda,504,804,NZ,554,NZ,NZL,Oceania,Austràlia i Nova Zelanda,Oceania,Australia and New Zealand,NA,4213418,New Zealand,0,2020,NZ,NZL,554,New Zealand,26799,4097112,9,53,172.235,-42.634
Papua Nova Guinea,505,801,PG,598,PG,PNG,Oceania,Melanèsia,Oceania,Melanesia,NA,6057263,Papua New Guinea,0,2020,PP,PNG,598,Papua New Guinea,45286,6069715,9,54,143.459,-5.949
Illes Salomó,506,806,SB,90,SB,SLB,Oceania,Melanèsia,Oceania,Melanesia,NA,595613,Solomon Islands,0,2020,BP,SLB,90,Solomon Islands,2799,472419,9,54,160.109,-9.611
Samoa,507,819,WS,882,WS,WSM,Oceania,Polinèsia,Oceania,Polynesia,NA,219998,Samoa,0,2020,WS,WSM,882,Samoa,283,183845,9,61,-172.414,-13.652
Tonga,508,817,TO,776,TO,TON,Oceania,Polinèsia,Oceania,Polynesia,NA,120898,Tonga,0,2020,TN,TON,776,Tonga,72,99361,9,61,-175.185,-21.202
Vanuatu,509,816,VU,548,VU,VUT,Oceania,Melanèsia,Oceania,Melanesia,NA,218519,Vanuatu,0,2020,NH,VUT,548,Vanuatu,1219,215366,9,54,166.899,-15.376
Micronèsia,511,823,FM,583,FM,FSM,Oceania,Micronèsia,Oceania,Micronesia,NA,107434,"Micronesia, Federated States Of",0,2020,FM,FSM,583,"Micronesia, Federated States of",70,110058,9,57,158.235,6.883
Tuvalu,512,807,TV,798,TV,TUV,Oceania,Polinèsia,Oceania,Polynesia,NA,12373,Tuvalu,0,2020,TV,TUV,798,Tuvalu,3,10441,9,61,179.219,-8.514
Illes Cook,513,837,CK,184,CK,COK,Oceania,Polinèsia,Oceania,Polynesia,NA,11870,Cook Islands,1,2020,CW,COK,184,Cook Islands,24,13984,9,61,-159.782,-21.219
Kiribati,514,812,KI,296,KI,KIR,Oceania,Micronèsia,Oceania,Micronesia,NA,112850,Kiribati,0,2020,KR,KIR,296,Kiribati,73,92003,9,57,175.036,-1.508
Nauru,515,803,NR,520,NR,NRU,Oceania,Micronèsia,Oceania,Micronesia,NA,14019,Nauru,0,2020,NR,NRU,520,Nauru,2,10111,9,57,166.93,-0.522
Palau,516,825,PW,585,PW,PLW,Oceania,Micronèsia,Oceania,Micronesia,NA,20796,Palau,0,2020,PS,PLW,585,Palau,0,20127,9,57,134.57,7.501
Timor-Leste,517,626,TL,626,TL,TLS,Àsia,Àsià sud-oriental,Asia,South-Eastern Asia,NA,1131612,Timor-Leste,0,2020,TT,TLS,626,Timor-Leste,1487,1067285,142,35,125.878,-8.822
Polinèsia Francesa,520,822,PF,258,PF,PYF,Oceania,Polinèsia,Oceania,Polynesia,NA,287032,French Polynesia,1,2020,FP,PYF,258,French Polynesia,366,255632,9,61,-149.462,-17.626
Illa Norfolk,521,836,NF,574,NF,NFK,Oceania,Austràlia i Nova Zelanda,Oceania,Australia and New Zealand,NA,2141,Norfolk Island,1,2020,NF,NFK,574,Norfolk Island,0,0,9,53,167.953,-29.037
Niue,523,838,NU,570,NU,NIU,Oceania,Polinèsia,Oceania,Polynesia,NA,1398,Niue,1,2020,NE,NIU,570,Niue,26,1632,9,61,-169.869,-19.052
Pitcairn,524,813,PN,612,PN,PCN,Oceania,Polinèsia,Oceania,Polynesia,NA,48,Pitcairn,1,2020,PC,PCN,612,Pitcairn Islands,0,5,9,61,-128.316,-24.366
Tokelau,525,839,TK,772,TK,TKL,Oceania,Polinèsia,Oceania,Polynesia,NA,NA,Tokelau,1,2020,TL,TKL,772,Tokelau,1,1401,9,61,-171.853,-9.193
Nova Caledònia,526,809,NC,540,NC,NCL,Oceania,Melanèsia,Oceania,Melanesia,NA,227436,New Caledonia,1,2020,NC,NCL,540,New Caledonia,1828,234185,9,54,165.447,-21.359
Wallis i Futuna,527,811,WF,876,WF,WLF,Oceania,Polinèsia,Oceania,Polynesia,NA,15289,Wallis And Futuna,1,2020,WF,WLF,876,Wallis and Futuna Islands,14,15079,9,61,-178.131,-14.289
Samoa Americana,528,830,AS,16,AS,ASM,Oceania,Polinèsia,Oceania,Polynesia,NA,65628,American Samoa,1,2020,AQ,ASM,16,American Samoa,20,64051,9,61,-170.73,-14.318
